{"type":"FeatureCollection","features":[{"type":"Feature","properties":{"district":"Melbourne — Leadership Team","council":"Melbourne","constituency_code":"VICL24-melbourne-leadership"},"geometry":{"type":"Polygon","coordinates":[[[144.95607,-37.82833],[144.95257,-37.82757],[144.94853,-37.82691],[144.94655,-37.82677],[144.94619,-37.82659],[144.94283,-37.82604],[144.9384,-37.82587],[144.93553,-37.82604],[144.93446,-37.82629],[144.93229,-37.82646],[144.92717,-37.82766],[144.92316,-37.8284],[144.92228,-37.82869],[144.9208,-37.8296],[144.92091,-37.82994],[144.92031,-37.83006],[144.91951,-37.83117],[144.91816,-37.83224],[144.91637,-37.8328],[144.91327,-37.83401],[144.91433,-37.83541],[144.91543,-37.83861],[144.91501,-37.83871],[144.91525,-37.83949],[144.91247,-37.84098],[144.91295,-37.84193],[144.91343,-37.84239],[144.917,-37.84714],[144.91699,-37.84752],[144.91502,-37.84849],[144.91435,-37.84863],[144.91267,-37.84941],[144.91249,-37.84945],[144.91219,-37.84927],[144.91212,-37.84892],[144.91198,-37.84899],[144.90885,-37.84484],[144.90868,-37.84465],[144.90837,-37.84479],[144.90784,-37.84314],[144.90772,-37.84305],[144.90748,-37.84318],[144.90673,-37.84193],[144.9065,-37.84201],[144.90631,-37.84168],[144.90673,-37.84153],[144.90661,-37.84132],[144.9065,-37.84133],[144.90656,-37.84111],[144.90644,-37.84094],[144.90649,-37.83936],[144.90621,-37.83936],[144.90595,-37.83911],[144.90568,-37.83908],[144.90503,-37.83904],[144.90298,-37.83945],[144.90429,-37.84287],[144.90451,-37.84304],[144.9044,-37.84322],[144.90491,-37.8445],[144.9072,-37.84839],[144.90703,-37.8492],[144.90726,-37.84945],[144.90366,-37.84601],[144.90233,-37.84662],[144.90008,-37.84433],[144.89874,-37.84278],[144.89788,-37.84132],[144.89733,-37.83975],[144.89704,-37.83754],[144.89699,-37.83462],[144.89727,-37.83248],[144.89786,-37.83059],[144.89934,-37.82842],[144.90084,-37.82679],[144.90607,-37.82223],[144.90665,-37.82099],[144.90629,-37.81838],[144.90545,-37.81454],[144.90547,-37.81344],[144.90631,-37.80938],[144.90669,-37.80822],[144.90923,-37.80246],[144.91011,-37.801],[144.91106,-37.8],[144.91179,-37.79968],[144.91291,-37.79952],[144.91409,-37.80016],[144.91499,-37.80017],[144.91535,-37.79997],[144.91623,-37.79902],[144.91651,-37.79806],[144.91631,-37.79747],[144.91572,-37.79677],[144.91368,-37.7955],[144.91148,-37.79452],[144.90867,-37.79375],[144.90678,-37.79285],[144.90407,-37.79182],[144.90333,-37.79127],[144.90284,-37.79053],[144.90263,-37.78965],[144.90355,-37.78927],[144.90426,-37.78871],[144.90493,-37.78728],[144.90633,-37.78744],[144.90664,-37.78554],[144.90692,-37.78461],[144.90753,-37.78343],[144.90828,-37.78249],[144.91359,-37.77938],[144.92131,-37.78745],[144.92247,-37.78739],[144.92948,-37.78814],[144.92959,-37.7886],[144.93097,-37.78875],[144.932,-37.78884],[144.93218,-37.78832],[144.93826,-37.78897],[144.93923,-37.78816],[144.94039,-37.78763],[144.93995,-37.78702],[144.9403,-37.78677],[144.94036,-37.78643],[144.93934,-37.78369],[144.93893,-37.78142],[144.93708,-37.77777],[144.93805,-37.77789],[144.93771,-37.77705],[144.93817,-37.77656],[144.93856,-37.77558],[144.93878,-37.77558],[144.93881,-37.77543],[144.96148,-37.77818],[144.96221,-37.77871],[144.96261,-37.77916],[144.96283,-37.77978],[144.96278,-37.78086],[144.96291,-37.7814],[144.96337,-37.782],[144.96401,-37.78236],[144.96359,-37.78499],[144.96952,-37.78561],[144.9684,-37.79225],[144.97572,-37.79303],[144.97319,-37.80791],[144.99134,-37.80984],[144.98783,-37.83009],[144.98794,-37.83135],[144.98503,-37.84567],[144.98421,-37.85065],[144.98065,-37.85021],[144.97548,-37.83604],[144.97496,-37.83514],[144.97421,-37.83427],[144.97257,-37.83311],[144.97181,-37.83227],[144.97143,-37.83127],[144.97133,-37.82988],[144.96585,-37.83147],[144.9632,-37.82879],[144.9619,-37.82815],[144.96128,-37.82811],[144.95872,-37.82856],[144.95607,-37.82833]]]}}]}