{"type":"FeatureCollection","name":"poland_voivodeships_2021","source":"Eurostat GISCO NUTS 2021; Warsaw and Mazowiecki regionalny reunited as Mazowieckie","features":[{"type":"Feature","properties":{"district":"Dolnośląskie","constituency_code":"PL51","electorate_type":"Poland"},"geometry":{"type":"Polygon","coordinates":[[[16.21222715700003,51.712541549000036],[16.266626595000048,51.670144708000066],[16.34936198500003,51.71334478600005],[16.381176271000072,51.764276101000064],[16.416191,51.784864999000035],[16.536963721000063,51.78089611000007],[16.589884346000076,51.749510059000045],[16.640147728000045,51.74628290000004],[16.64595914000006,51.723559685000055],[16.67863955300004,51.703839919000075],[16.643485704000057,51.68075683500007],[16.646323859000063,51.662092475000065],[16.777988890000074,51.64164138500007],[16.772230449000062,51.61669440600008],[16.828372,51.57218799900005],[16.88804529300006,51.57976144500003],[16.970073391000028,51.54572428100005],[17.056870996000043,51.548079339000026],[17.103538737000065,51.574612597000055],[17.206511633000048,51.56998924800007],[17.21474876700006,51.625143940000044],[17.257433,51.64284299900004],[17.449168411000073,51.63041921000007],[17.554099305000022,51.583159927000054],[17.572292794000077,51.56105198800003],[17.57279106200002,51.533720661000075],[17.516146112000058,51.506846290000055],[17.544900834000032,51.420282917000065],[17.571501804000036,51.40662253900007],[17.637357950000023,51.421639807000076],[17.703912048000063,51.40127752600006],[17.721579107000025,51.42050332800005],[17.748562032000052,51.41220330700003],[17.707811083000024,51.36560267700003],[17.759787654000036,51.31900663300007],[17.744686497000032,51.245983953000064],[17.765148623000073,51.207385110000075],[17.795269500000074,51.19414599900006],[17.671550511000078,51.16400870400008],[17.61056191600005,51.18503135900005],[17.55198936100004,51.15328436400006],[17.571664817000055,51.12692127200006],[17.574922167000068,51.08299894700008],[17.524042979000058,51.05688609600003],[17.520170903000064,51.01264405400008],[17.535440811000058,50.993180229000075],[17.496507761000032,50.99419915400006],[17.502784289000033,50.974710075000075],[17.44004509800004,50.96775133400007],[17.424600226000052,50.914305573000036],[17.36964156500005,50.91839224900008],[17.361097534000066,50.90136918800005],[17.392255464000073,50.88020702800003],[17.333897155000045,50.84432770600006],[17.347851840000033,50.793129159000046],[17.277002813000024,50.78629765200003],[17.26861904200007,50.772569469000075],[17.29060162600007,50.74519090000007],[17.224664915000062,50.70821319300006],[17.250573678000023,50.68904956500006],[17.23826561000004,50.620935891000045],[17.12477861600007,50.60627841300004],[17.069510535000063,50.547966160000044],[17.072688799000048,50.518443597000044],[17.048335157000054,50.46648202000006],[16.959359431000053,50.48572126400006],[16.882463064000035,50.44062031500005],[16.864934196000036,50.41003449800007],[16.910961779000047,50.38562135900003],[16.945499380000058,50.31851883200005],[17.005639657000074,50.29650649000007],[17.017603877000056,50.27586299600006],[17.005761276000044,50.25208678000007],[17.02481009400003,50.229244047000066],[16.99912586800002,50.219138712000074],[16.97192290000004,50.24163241100007],[16.955042931000037,50.22403675500004],[16.904119497000067,50.223105178000026],[16.88001228400003,50.201467121000064],[16.844553572000052,50.20500631600004],[16.70716137200003,50.09828731300007],[16.634136074000025,50.11300266100005],[16.56094561200007,50.16815606800003],[16.55190643800006,50.22438346300004],[16.435023729000022,50.32088328300006],[16.39156894000007,50.32412210200005],[16.359721038000032,50.37727212500005],[16.28167756000005,50.370005193000054],[16.19933561600004,50.43475350400007],[16.315501960000063,50.505460706000065],[16.359517913000047,50.502405886000076],[16.396366744000034,50.52792221200008],[16.41120643200003,50.56926084400004],[16.443687845000056,50.581618855000045],[16.328510808000033,50.66453458500007],[16.237045699000078,50.66935066600007],[16.21516904400005,50.63471540300003],[16.186360700000023,50.62978533900008],[16.107318,50.66207299900003],[16.022730678000073,50.60179831600004],[15.99027532100007,50.613185024000074],[16.010538057000076,50.63061195600005],[15.988458876000038,50.68306513300007],[15.958159153000054,50.69102949900008],[15.866961856000046,50.67435573200004],[15.816829781000024,50.752804955000045],[15.70949805600003,50.738317161000055],[15.439051736000067,50.807810622000034],[15.378363419000038,50.77849663300003],[15.358764632000032,50.844856367000034],[15.279522875000055,50.89021996400004],[15.26884055100004,50.92518374100007],[15.28895958000004,50.95172649600005],[15.271460400000024,50.97720988100008],[15.232291026000041,50.99667962500007],[15.180861315000072,50.98434280500004],[15.167680485000062,51.01797611900008],[15.127904654000076,50.99226707500003],[15.063451023000027,51.01966900100007],[14.98281305100005,51.00702886200003],[14.974287704000062,50.987730174000035],[15.017430108000042,50.969131993000076],[14.99312128500003,50.921439356000064],[14.997001087000058,50.870306923000044],[14.823362,50.870550499000046],[14.824218,50.88804780700008],[14.892144563000045,50.93946219000003],[14.96372060400006,51.053509243000065],[15.033019112000034,51.24430156900007],[15.032059584000024,51.29044341300005],[14.985031401000072,51.33224977200007],[14.974183,51.363949999000056],[15.007842809000067,51.36514576900004],[15.021217298000067,51.39208810900004],[15.071773798000038,51.39932072900007],[15.089176293000037,51.424577921000036],[15.189472099000056,51.46258614200008],[15.32780529300004,51.41012789200005],[15.338391202000025,51.467425010000056],[15.378340825000066,51.473212957000044],[15.36957551300003,51.49983982600003],[15.392419583000049,51.52837206000004],[15.49475712900005,51.52324842400003],[15.58887022600004,51.47220686900005],[15.596714038000073,51.449260406000064],[15.657602410000038,51.47775107600006],[15.679771945000027,51.51003242500008],[15.71403250000003,51.51739699900003],[15.710185575000025,51.554429242000026],[15.818515046000073,51.57643686800003],[15.871225542000047,51.71425881700003],[15.966670168000064,51.74150183800003],[15.986966503000076,51.77577795700006],[15.974602954000034,51.787954798000044],[15.982989462000035,51.79977141300003],[16.168855910000048,51.760936558000026],[16.16896414400003,51.71536728900003],[16.21222715700003,51.712541549000036]]]}},{"type":"Feature","properties":{"district":"Kujawsko-Pomorskie","constituency_code":"PL61","electorate_type":"Poland"},"geometry":{"type":"Polygon","coordinates":[[[18.25582876900006,53.740845569000044],[18.278312165000045,53.700325088000056],[18.381702206000057,53.68861424000005],[18.50276321900003,53.70047960900007],[18.55909452700007,53.659568798000066],[18.66587930000003,53.69453009100005],[18.766417726000043,53.693554334000055],[18.745398195000064,53.64571004900006],[18.761577500000044,53.60488199900004],[18.883387475000063,53.59923870500006],[18.909583053000063,53.58029116700004],[19.05620674100004,53.59670318000008],[19.194940534000068,53.57085956800006],[19.192547770000033,53.550449455000035],[19.216119668000033,53.52794741500003],[19.194208660000072,53.511660825000035],[19.25068765000003,53.43030593800006],[19.237251136000054,53.414578118000065],[19.278625178000027,53.39107228700004],[19.30888387500005,53.40913996100005],[19.373247238000033,53.41147539900004],[19.439712241000052,53.36027241700003],[19.515579884000033,53.368052754000075],[19.524966721000055,53.331161810000026],[19.63930511500007,53.34341198900006],[19.685885042000052,53.334955904000026],[19.68887571700003,53.30765850300003],[19.714721852000025,53.30097249800008],[19.722987455000066,53.27697768000007],[19.687329200000022,53.258293406000064],[19.691041201000075,53.23896044700007],[19.745024057000023,53.22224481000006],[19.761595500000055,53.151796499000056],[19.671309954000037,53.10891915500008],[19.63685892700005,53.10802721700003],[19.655327791000047,53.04265976800008],[19.68287071000003,53.02293286200006],[19.669180116000064,52.98757975700005],[19.684806,52.96303899900005],[19.579171934000044,52.98242005800006],[19.574409383000045,52.95962216100003],[19.535905228000047,52.94240916000007],[19.444664,52.93904249900004],[19.49848225900007,52.86874469500003],[19.43170862100004,52.83778375600008],[19.428100006000022,52.82132418400005],[19.499484272000075,52.767038478000075],[19.514827796000077,52.746488611000075],[19.511338712000054,52.712224426000034],[19.44782380600003,52.71960179100006],[19.436993726000026,52.67789751300006],[19.376426628000047,52.63299096900005],[19.418794452000043,52.605124414000045],[19.345884199000068,52.56184789400004],[19.353258745000062,52.52716267400007],[19.380621847000043,52.509655413000075],[19.317985428000043,52.452356277000035],[19.272330745000033,52.44216499400005],[19.29036995200005,52.42476972600008],[19.289184500000033,52.39271249900003],[19.215093780000075,52.36333541500005],[19.219339846000025,52.34373026500003],[19.195398263000072,52.35420169900004],[19.04712,52.33280399900008],[18.97264279700005,52.35714240600004],[18.972989812000037,52.373772716000076],[18.925601279000034,52.39645400100005],[18.904980951000027,52.36510947600004],[18.758826817000056,52.33393537100005],[18.750709930000028,52.36136886300005],[18.71055053400005,52.39867693100007],[18.683207525000057,52.40283522500005],[18.64603326200006,52.44970495500007],[18.56581456600003,52.46415490000004],[18.528148885000064,52.497327304000066],[18.49152792900003,52.50277024500008],[18.459334048000073,52.47870770800006],[18.389603254000065,52.47333613500007],[18.38301393300003,52.528766303000054],[18.349954053000033,52.53860175900007],[18.265410012000075,52.48583858100005],[18.213945789000036,52.48465212700006],[18.192696648000037,52.50261344100005],[18.101779431000068,52.51731972400006],[18.092049200000076,52.550119804000076],[17.99361947600005,52.547132728000065],[17.981282735000036,52.567066631000046],[17.914147108000066,52.58267317100007],[17.88240084800003,52.62583072100006],[17.800077772000066,52.64671939600004],[17.739106308000032,52.64860057200008],[17.73762447200005,52.62946134200007],[17.685486559000026,52.60761624400004],[17.674928717000057,52.64474915300008],[17.636454848000028,52.65459492300005],[17.63000988600004,52.70200555000008],[17.584524634000047,52.702426624000054],[17.51135002700005,52.675899565000066],[17.474233711000068,52.686263921000034],[17.48269635500003,52.72449269200007],[17.42351425000004,52.75619367200005],[17.41769473900007,52.77421517700003],[17.505015335000053,52.80138529300007],[17.52196008800007,52.86693693600006],[17.510991863000072,52.92273799800006],[17.477838312000074,52.948937870000066],[17.41055658500005,52.97393944200007],[17.32435328300005,52.98036518400005],[17.31017130200007,52.99767348900008],[17.329167349000045,53.02762725200006],[17.330113763000043,53.07274049700004],[17.37567855100002,53.13991413700006],[17.344938334000062,53.16284018500005],[17.337695267000072,53.21064581500008],[17.409601234000036,53.23058831800006],[17.43879350000003,53.26751449900007],[17.33645450700004,53.345618597000055],[17.25084887500003,53.37574292100004],[17.383808928000064,53.47221022400004],[17.425365550000038,53.57905326000008],[17.449790548000067,53.59893830800007],[17.505494270000042,53.61022783800007],[17.550627360000078,53.58345838900004],[17.610485442000027,53.59136422700004],[17.664364378000073,53.57747172400008],[17.669841097000074,53.59246782200006],[17.72405554200003,53.60359906600007],[17.723327598000026,53.64103735100008],[17.76383909300006,53.68769416400005],[17.814497162000066,53.68481918400005],[17.88367917100004,53.70834890300006],[17.887822044000075,53.748434547000045],[18.02095097800003,53.72924304400004],[18.072036500000024,53.781074999000055],[18.25582876900006,53.740845569000044]],[[19.333248686000047,52.52304425900007],[19.34680725000004,52.522388060000026],[19.339148286000068,52.53594749100006],[19.32252087200004,52.53082318700007],[19.333248686000047,52.52304425900007]]]}},{"type":"Feature","properties":{"district":"Lubelskie","constituency_code":"PL81","electorate_type":"Poland"},"geometry":{"type":"Polygon","coordinates":[[[23.40321384400005,52.18100818500005],[23.490752102000044,52.17824052600008],[23.490605810000034,52.154137054000046],[23.548691038000072,52.11493562700008],[23.602704887000073,52.11419680000006],[23.649940628000024,52.07308259200005],[23.661442308000062,52.01910508200007],[23.685695948000046,51.99084824000005],[23.61572658800003,51.919298809000054],[23.633644842000024,51.89313920700005],[23.609844235000025,51.873491211000044],[23.605867095000065,51.83383242800005],[23.637728794000054,51.80054148200003],[23.623372709000023,51.777451823000035],[23.529385594000075,51.73439189700008],[23.55664051100007,51.69790114600005],[23.539697688000047,51.64839917900008],[23.543823408000037,51.602414717000045],[23.57318594800006,51.558398227000055],[23.566218029000026,51.53798405500004],[23.609803836000026,51.52843255800008],[23.631158267000046,51.49076368200008],[23.669073764000075,51.48130762300008],[23.650092305000044,51.451259624000045],[23.681924459000072,51.44178231200004],[23.699198866000074,51.408387496000046],[23.638973625000062,51.314754307000044],[23.653271610000047,51.29063474900005],[23.709221,51.277648499000065],[23.74440473100003,51.21569306200007],[23.865287779000028,51.150967137000066],[23.860381147000055,51.100762528000075],[23.908320574000072,51.07342035700003],[23.92610514300003,51.00800406900004],[23.96106927200003,50.98469296900004],[23.972214536000024,50.95249875800005],[24.05468674800005,50.89289633000004],[24.141787694000072,50.86729521500007],[24.12097801500005,50.844856367000034],[24.079591736000054,50.83483817000007],[23.99966512000003,50.838579339000034],[23.96149114700006,50.79779018900007],[23.973418809000066,50.77564798700007],[24.01757976300007,50.76730311000006],[24.021580294000046,50.724877452000044],[24.070226667000043,50.714631249000035],[24.065619682000033,50.68005805900003],[24.09571098400005,50.63452757200008],[24.08814563900006,50.55409249400003],[24.03313905400006,50.44656337100008],[23.991619124000067,50.413228795000066],[23.803661631000068,50.40456339000008],[23.725076949000027,50.38652737500007],[23.68420353500005,50.33364574700005],[23.642485227000066,50.320314273000065],[23.547642,50.25160199900006],[23.51237512800003,50.263716256000066],[23.51308881400007,50.29581983200006],[23.41482180500003,50.30774096600004],[23.432812031000026,50.343718859000035],[23.380076762000044,50.37051836400008],[23.36922613100006,50.39289037700007],[23.384243294000044,50.40399273400004],[23.36504638400004,50.40909370500003],[23.255701104000025,50.364313451000044],[23.180812788000026,50.39283673600005],[23.020951747000026,50.28840057200006],[22.638222,50.30307749900004],[22.615578593000066,50.323359638000056],[22.675931949000073,50.35266629800003],[22.504481930000054,50.349698818000036],[22.412743738000074,50.40526646300003],[22.44896329200003,50.43149263600003],[22.45796580700005,50.45984720800004],[22.537287760000027,50.45420870000004],[22.563284844000066,50.46979313800006],[22.54760054700006,50.48232487700005],[22.561064673000033,50.50100060600005],[22.524099869000054,50.53400334000003],[22.532839540000055,50.56080078100007],[22.519738,50.58323349900007],[22.416672022000057,50.58266359900006],[22.32657501500006,50.61688914300004],[22.253883203000044,50.62204289400006],[22.218802582000023,50.66069602500005],[22.151353810000046,50.67000587500007],[22.20118789600008,50.75287386400004],[22.15653136900005,50.77319351500006],[22.15626450600007,50.79799770600005],[22.055322601000057,50.818826312000056],[21.943034450000027,50.77246672100006],[21.881573739000032,50.780288330000076],[21.81499901500007,50.93741559500006],[21.807910416000027,51.02399005500007],[21.82084896400005,51.050488683000026],[21.802998,51.07207899900004],[21.787742690000073,51.19118481400005],[21.81428116400008,51.253761619000045],[21.84614795400006,51.27592185700007],[21.799200623000047,51.29338047200008],[21.847270257000048,51.35871683700003],[21.766100292000033,51.401959402000045],[21.801305021000076,51.42463959600008],[21.842095079000046,51.42492679800006],[21.86695376700004,51.47116633200005],[21.819443875000047,51.55988207100006],[21.689762615000063,51.57278370000006],[21.61554250000006,51.61756199900003],[21.63709679400006,51.62726503600004],[21.648614285000065,51.65846368500007],[21.74575823500004,51.61460844700008],[21.76428884300003,51.63972312300007],[21.831608920000065,51.65012432200007],[21.89712327600006,51.70153909000004],[21.839196318000063,51.747254534000035],[21.950347015000034,51.795580321000045],[21.923335294000026,51.83538876400007],[21.862492132000057,51.83178742300004],[21.847911212000042,51.843934997000076],[21.88587814600004,51.85802371600005],[21.90854408900003,51.88785161200008],[21.868546386000048,51.94536810100004],[21.89252755800004,51.97591488100005],[22.035821187000067,52.02090019900004],[22.11038405900007,52.00235001300007],[22.156200099000046,52.02618867900003],[22.255655970000078,52.006778444000076],[22.306870563000075,52.03673649800004],[22.32163510600003,52.03275481600008],[22.32385623500005,52.006723211000065],[22.347874734000072,51.99848337600008],[22.43266506200007,52.018715246000056],[22.493750743000078,52.067076385000064],[22.62290150000007,52.018744499000036],[22.662349686000027,52.04368352500006],[22.666680206000024,52.07295011300005],[22.652379735000068,52.09245173800008],[22.694376187000046,52.11518370400006],[22.785752090000074,52.07148768300004],[22.82754548500003,52.08058872500004],[22.900743318000025,52.06648143900003],[22.89852913200008,52.104581791000044],[22.959288437000055,52.109264178000046],[22.93739457500004,52.13783916400007],[22.983697394000046,52.17234627900007],[23.04902883400007,52.176751566000064],[23.03417085500007,52.21725602200007],[23.080546265000066,52.23935180500007],[23.128409,52.28784149900008],[23.19937632400007,52.274902170000075],[23.20742174700007,52.22675884600005],[23.36391579600007,52.20573256700004],[23.40321384400005,52.18100818500005]]]}},{"type":"Feature","properties":{"district":"Lubuskie","constituency_code":"PL43","electorate_type":"Poland"},"geometry":{"type":"Polygon","coordinates":[[[15.950963579000074,52.99277880800008],[15.976051121000069,52.93582059100004],[15.976202458000046,52.87972616900004],[15.96928323800006,52.859356578000074],[15.907523532000027,52.83607673900008],[15.895534802000043,52.81742551600007],[15.933212338000033,52.80003175300004],[15.943096850000074,52.731501699000034],[15.797833213000047,52.70672180000008],[15.81195672900003,52.67219359600006],[15.787032428000032,52.66471810000007],[15.778534463000028,52.64309628800004],[15.854258568000034,52.546995268000046],[15.840196441000046,52.526182808000044],[15.87076049500007,52.50896440000008],[15.894165403000045,52.44988294400008],[15.842745062000063,52.43356597400003],[15.823610392000035,52.44851361700006],[15.807923905000052,52.440601740000034],[15.845081510000057,52.40441471400004],[15.89756084000004,52.388144186000034],[15.853203648000033,52.21171534900003],[15.879320913000072,52.150294589000055],[15.846485354000038,52.09989843400007],[15.909864076000076,52.073226383000076],[15.944222629000024,52.08529667600004],[15.984840062000046,52.067839081000045],[15.997603808000065,52.05053877100005],[15.969096212000068,52.01200237000006],[16.012740536000024,51.98327013200003],[16.120720383000048,51.98904098300005],[16.132421136000062,51.92603952200005],[16.11265486900004,51.89610963500007],[16.20639591500003,51.873269754000034],[16.260196457000063,51.89784180600003],[16.33525997000004,51.88384768600008],[16.39411893700003,51.835825028000045],[16.395748044000072,51.795415836000075],[16.416191,51.784864999000035],[16.381176271000072,51.764276101000064],[16.34936198500003,51.71334478600005],[16.266626595000048,51.670144708000066],[16.21222715700003,51.712541549000036],[16.16896414400003,51.71536728900003],[16.168855910000048,51.760936558000026],[15.982989462000035,51.79977141300003],[15.974602954000034,51.787954798000044],[15.986966503000076,51.77577795700006],[15.966670168000064,51.74150183800003],[15.871225542000047,51.71425881700003],[15.818515046000073,51.57643686800003],[15.710185575000025,51.554429242000026],[15.71403250000003,51.51739699900003],[15.679771945000027,51.51003242500008],[15.657602410000038,51.47775107600006],[15.596714038000073,51.449260406000064],[15.58887022600004,51.47220686900005],[15.49475712900005,51.52324842400003],[15.392419583000049,51.52837206000004],[15.36957551300003,51.49983982600003],[15.378340825000066,51.473212957000044],[15.338391202000025,51.467425010000056],[15.32780529300004,51.41012789200005],[15.189472099000056,51.46258614200008],[15.089176293000037,51.424577921000036],[15.071773798000038,51.39932072900007],[15.021217298000067,51.39208810900004],[15.007842809000067,51.36514576900004],[14.974183,51.363949999000056],[14.96242382500003,51.393863202000034],[14.97125598100007,51.44165468300008],[14.949105724000049,51.46816482600008],[14.738778265000064,51.526439045000075],[14.715228336000052,51.561558622000064],[14.763236902000074,51.60952609900005],[14.753243348000069,51.66567190300003],[14.666943917000026,51.728913816000045],[14.645461528000055,51.79238435500008],[14.591164186000071,51.82535867400003],[14.612763040000061,51.85483020100003],[14.690667104000056,51.902322920000074],[14.71891550600003,51.946078526000065],[14.707159906000072,51.972240999000064],[14.716716,52.00118799900008],[14.755227,52.070024999000054],[14.684010555000043,52.11617074900005],[14.708899704000032,52.23819704400006],[14.57877731700006,52.288834258000065],[14.581372934000058,52.31100521600007],[14.534362,52.39500799900003],[14.550029046000077,52.430076591000045],[14.632686050000075,52.49434533500005],[14.606432135000034,52.53195415700003],[14.63509053200005,52.57403665600003],[14.565063,52.62449699900003],[14.631231746000026,52.65634711900003],[14.700192917000038,52.63357701400008],[14.742149609000023,52.64444841900007],[14.788732406000065,52.69822701900006],[14.79708101500006,52.755105979000064],[14.859464456000069,52.79495557300004],[14.869186570000068,52.844309862000046],[14.914062487000024,52.84304962300007],[14.893085873000075,52.862268345000075],[14.914207555000075,52.88694905300008],[14.97379909600005,52.86676524600006],[14.99018337800004,52.84540656900003],[15.034222429000067,52.85914620800003],[15.078142366000066,52.832506531000035],[15.32455537100003,52.89603540500008],[15.289823304000038,52.955410603000075],[15.357164234000038,52.94395431100003],[15.422386983000024,52.98358654700007],[15.547692316000052,53.01211572200003],[15.574775171000056,52.98853776300007],[15.622640611000065,52.98036518400005],[15.682859592000057,52.99600908100007],[15.741617907000034,52.99140622200008],[15.770264360000056,53.00361822500008],[15.767103440000028,53.02575865800003],[15.80069727700004,53.045726728000034],[15.816425043000038,53.08391449700008],[15.85419033200003,53.09365077800004],[15.851617401000055,53.11431347600006],[15.868593335000071,53.11926595600005],[15.979097764000073,53.10866338500006],[15.995117708000066,53.07901562900008],[15.96249750000004,53.04138099900007],[15.950963579000074,52.99277880800008]]]}},{"type":"Feature","properties":{"district":"Łódzkie","constituency_code":"PL71","electorate_type":"Poland"},"geometry":{"type":"Polygon","coordinates":[[[19.326857131000054,52.34899821300007],[19.454003991000036,52.347946258000036],[19.496984182000062,52.333874937000076],[19.518668193000053,52.30618006900005],[19.611722431000032,52.287444107000056],[19.641129539000076,52.25630299200003],[19.681625516000054,52.25837904700006],[19.701572831000078,52.27603443400005],[19.741952251000043,52.25983423100007],[19.805210833000046,52.281094978000056],[19.849143812000023,52.27411290900005],[19.888957641000047,52.308994882000036],[19.936101,52.29973349900007],[19.970132498000055,52.26888783900006],[20.071176095000055,52.23525382100007],[20.066088743000023,52.19098566500003],[20.09555153900004,52.154091304000076],[20.15535916300007,52.14824915600008],[20.19422664500007,52.120499023000036],[20.261931636000043,52.10357884700005],[20.26657166700005,52.084592099000076],[20.246465743000044,52.05373675300007],[20.208269866000023,52.023563703000036],[20.27417134700005,51.97131981500007],[20.248612863000062,51.93712313700007],[20.298453907000066,51.93475783900004],[20.319749727000044,51.91585477700005],[20.445311066000045,51.93844418300006],[20.477816808000057,51.92491313100004],[20.491141276000064,51.89543340400007],[20.55992616900005,51.88533159500008],[20.58735966300003,51.862349480000034],[20.609228187000042,51.82843960100007],[20.579035943000065,51.81143998700003],[20.589784850000058,51.754607055000065],[20.64592445100004,51.726552523000066],[20.647204656000042,51.68085028300004],[20.624943640000026,51.66421883400005],[20.55992616900005,51.663850016000026],[20.460631058000047,51.692298642000026],[20.403779461000056,51.67116207300006],[20.385006,51.64160999900008],[20.41234733600004,51.63224906500005],[20.437705058000063,51.57534864400003],[20.465301512000053,51.56272523900003],[20.452798605000055,51.50774144400003],[20.516454038000063,51.507232920000035],[20.527643289000025,51.468892777000065],[20.490173378000065,51.44082260000005],[20.483555720000027,51.413739699000075],[20.448390563000032,51.408382276000054],[20.42430481300005,51.36543298400005],[20.432815,51.33940499900007],[20.368174639000074,51.30898261400006],[20.38730522800006,51.272789052000064],[20.371268153000074,51.24013839100007],[20.253541437000024,51.25658123100004],[20.244504576000054,51.246618590000026],[20.259692508000057,51.21523238600008],[20.227846299000078,51.20136724200006],[20.11455182000003,51.19084765500003],[20.042531170000075,51.20159560500008],[19.999630555000067,51.18717218300003],[20.021678157000053,51.16133745600007],[19.988966644000072,51.12992607600006],[19.98589409400006,51.07773188800007],[20.05141462200004,51.05994084800005],[20.034155912000074,50.975130540000066],[20.01173625200005,50.96541148100005],[19.87796202000004,51.04597453100007],[19.83105308200004,50.968348932000026],[19.84076433200005,50.92568281300004],[19.727235824000047,50.84519435800007],[19.66710875800004,50.85384439000006],[19.652926067000067,50.874235070000054],[19.576044357000058,50.904107639000074],[19.481535953000048,50.884337955000035],[19.398647312000037,50.99337767000003],[19.359975339000073,50.99650030400005],[19.328333104000023,51.01785692300007],[19.320220472000074,51.04307768400008],[19.243142500000033,51.03684449900004],[19.249188900000036,51.00215664900003],[19.212003465000066,50.98549107000008],[19.141707542000063,51.009489114000075],[19.12107290700004,51.00330346900006],[19.088768729000037,51.03260658000005],[19.053512787000045,51.026986444000045],[19.000743406000026,51.07174830300005],[18.923335473000066,51.095883281000056],[18.889546805000066,51.06062581500004],[18.85705622300003,51.072914569000034],[18.67295450000006,51.056902499000046],[18.581320124000058,51.083143207000035],[18.54949766900006,51.13772398900005],[18.52086094200007,51.13674331200008],[18.51614007300003,51.10868760900007],[18.485423678000075,51.09262900600004],[18.461088698000026,51.11769682900007],[18.163681500000052,51.17251699900004],[18.177418851000027,51.22443837600008],[18.169430559000034,51.26707402100004],[18.108426880000025,51.26478916000008],[18.110137158000043,51.30950881900003],[18.079449926000052,51.35042832900007],[18.129973095000025,51.36054690200007],[18.15112823900006,51.38937233300004],[18.19365526100006,51.39059015500004],[18.20870872000006,51.42365740100007],[18.19700329400007,51.441246516000035],[18.215684037000074,51.452163331000065],[18.32608444500005,51.42172870200005],[18.38013651400007,51.47782471100004],[18.37954325800007,51.51363585100006],[18.362298133000024,51.535426966000045],[18.373466114000053,51.59505765500006],[18.353506828000036,51.60325161500003],[18.364987045000078,51.61807707500003],[18.353572538000037,51.63006350500007],[18.37817621800008,51.64923719900003],[18.358441698000036,51.66853388100003],[18.410040249000076,51.70389363100003],[18.404812615000026,51.72201106800003],[18.42886745100003,51.76382275800006],[18.41660661700007,51.78977326900008],[18.43873393000007,51.79810814600006],[18.44569834600003,51.823714875000064],[18.465021725000042,51.82503974100007],[18.471965500000067,51.85100549900005],[18.50426515500004,51.852144114000055],[18.521843328000045,51.836021204000076],[18.592689938000035,51.846846268000036],[18.68419071900007,51.82351523900007],[18.700590694000027,51.86464190700008],[18.764490539000064,51.926147910000054],[18.718896759000074,51.96571118500003],[18.73075532000007,51.97542890700004],[18.720792155000026,52.06383661500007],[18.750197040000046,52.07394411700005],[18.827809,52.06418799900007],[18.858523149000064,52.08559762300007],[18.92167477000004,52.08046787400008],[18.943815615000062,52.10718951500007],[18.944916400000068,52.12311323800003],[18.91115434900007,52.14122011100005],[18.931704894000063,52.19586141900004],[18.993950722000022,52.21212417000004],[19.08196408500004,52.20909621100003],[19.078406748000077,52.22958352000006],[19.100068133000036,52.257107243000064],[19.040246851000063,52.27597083200004],[19.04712,52.33280399900008],[19.195398263000072,52.35420169900004],[19.219339846000025,52.34373026500003],[19.215093780000075,52.36333541500005],[19.289184500000033,52.39271249900003],[19.326857131000054,52.34899821300007]]]}},{"type":"Feature","properties":{"district":"Małopolskie","constituency_code":"PL21","electorate_type":"Poland"},"geometry":{"type":"Polygon","coordinates":[[[19.980164330000036,50.51764440100004],[20.066098917000033,50.508666411000036],[20.10655925700007,50.487887941000054],[20.20291545300006,50.49339139400007],[20.26290831500006,50.47035974000005],[20.267924535000077,50.43174864100007],[20.330605646000038,50.36208703600005],[20.299937389000036,50.34835141800005],[20.29798656400004,50.32770507400005],[20.35419983500003,50.28399339500004],[20.339343410000026,50.26741533300003],[20.384919267000043,50.24119842200008],[20.381533194000042,50.21647092000006],[20.42354325200006,50.195129630000054],[20.575491318000047,50.18991921500003],[20.637572625000075,50.20970195800004],[20.681539,50.20587549900006],[20.787512975000027,50.286475832000065],[20.836381345000063,50.27574481000005],[20.893521658000054,50.304113536000045],[21.055871638000042,50.317024487000026],[21.133282103000056,50.35216180700007],[21.176430008000068,50.33183845500008],[21.20883150000003,50.35489749900006],[21.219496138000068,50.31203088900003],[21.149416879000057,50.258111721000034],[21.168719536000026,50.24056027200004],[21.146867602000043,50.23569828700005],[21.169172278000076,50.20644989900006],[21.151329935000035,50.13101264800008],[21.182057162000035,50.120177700000056],[21.185767602000055,50.09995377900003],[21.149248619000048,50.051245418000065],[21.189567684000053,50.02755399500006],[21.150608168000076,49.98291728000004],[21.181286967000062,49.93048542300005],[21.28037181700006,49.92437505000004],[21.281110230000024,49.89665414800004],[21.229531586000064,49.88340278800007],[21.227078582000047,49.85555670800005],[21.33462104000006,49.825940444000025],[21.339409990000036,49.81187094300003],[21.277784084000075,49.80201553000006],[21.241772,49.77610449900004],[21.259721840000054,49.75437422500005],[21.313104345000056,49.74442107200008],[21.324270931000058,49.70078879400006],[21.345067330000063,49.68985145200003],[21.360404152000058,49.635339748000035],[21.33176288900006,49.59218589000005],[21.375123796000025,49.56902424900005],[21.364410504000034,49.54452668500005],[21.414546508000058,49.49725703400003],[21.39378002600006,49.48576127200005],[21.406542958000045,49.468677350000064],[21.39771250000007,49.433793999000045],[21.27820841700003,49.45747984600007],[21.201051817000064,49.40346945300007],[21.126166025000032,49.43257467500007],[21.064629122000042,49.42241526600003],[21.055836037000063,49.40856577300008],[21.095631612000034,49.37141242800004],[21.040971223000042,49.36137511100003],[20.984318777000055,49.30948528600004],[20.93231383400007,49.299197571000036],[20.86493924000007,49.343206689000056],[20.808264270000052,49.34487590400005],[20.731295252000052,49.41532255300007],[20.649949459000027,49.404464387000075],[20.614939500000048,49.41783299900004],[20.598512113000027,49.38852977700003],[20.569626065000023,49.37741357600004],[20.438559933000022,49.41533956200004],[20.400787824000076,49.39367765500003],[20.331165863000024,49.40057219600004],[20.315038229000038,49.34882636300006],[20.21969672800003,49.34839432100006],[20.144264332000034,49.31126972200008],[20.10167756000004,49.246638559000075],[20.082183591000046,49.18270684500004],[19.977432572000055,49.23030487900007],[19.914442122000025,49.230902564000075],[19.84547427600006,49.19478219700005],[19.763521808000064,49.209717633000025],[19.76969169700004,49.23709034700005],[19.81923396700006,49.27966536500003],[19.79590330600007,49.30066875300008],[19.80218956500005,49.362542079000036],[19.788732467000045,49.407522948000064],[19.75605680700005,49.409915073000036],[19.720585033000077,49.389442572000064],[19.636628939000047,49.41115572800004],[19.639453531000072,49.45467523700006],[19.577818164000064,49.460437581000065],[19.533603182000036,49.532571638000036],[19.52743240600006,49.57098892400006],[19.476995384000077,49.590386108000075],[19.470749515000023,49.666565512000034],[19.38010619000005,49.69250492100008],[19.443303284000024,49.736668089000034],[19.438521800000046,49.753328114000055],[19.41495150000003,49.77526499900006],[19.401570220000053,49.76387552600005],[19.321323118000066,49.77767303400003],[19.288629872000058,49.81818589400007],[19.28867838800005,49.850890701000026],[19.212003465000066,49.86997097200003],[19.17555334700006,49.85556867300005],[19.16040053100005,49.86453738300003],[19.194013277000067,49.89073919100008],[19.186318366000023,49.949411904000044],[19.12042979100005,49.93973489200005],[19.09321,49.95665899900007],[19.118487462000076,49.96656193100006],[19.118375420000064,50.003343640000026],[19.15586416000008,50.04859735600007],[19.219801020000034,50.06529433400004],[19.253810500000043,50.13419299900005],[19.26575614500007,50.12037249200006],[19.279477233000023,50.14125329500007],[19.34042964500003,50.14996565100006],[19.344409547000055,50.18764934600006],[19.42193059300007,50.21383755800008],[19.419437904000063,50.22846003700005],[19.335760237000045,50.25853712500003],[19.387357785000063,50.28106338200007],[19.418179860000066,50.32641781800004],[19.478977067000073,50.32689431400007],[19.47068143200005,50.36581427400006],[19.51461441200007,50.41186008300008],[19.644039322000026,50.41116164300007],[19.70670922000005,50.44416339300005],[19.844537500000058,50.434195499000054],[19.89543479300005,50.45384474300005],[19.903365146000056,50.47253298100003],[19.966273774000058,50.476427612000066],[19.949966500000073,50.504782499000044],[19.980164330000036,50.51764440100004]],[[19.34824354400007,50.17515050600008],[19.367714969000076,50.169276798000055],[19.371677616000056,50.18209747800006],[19.352946133000046,50.180394711000076],[19.34824354400007,50.17515050600008]]]}},{"type":"Feature","properties":{"district":"Mazowieckie","constituency_code":"PL91","electorate_type":"Poland"},"geometry":{"type":"MultiPolygon","coordinates":[[[[21.664527484000075,53.340615194000065],[21.71784143600007,53.31508497000004],[21.66285479900006,53.30844445100007],[21.64412750100007,53.259187903000054],[21.705819598000062,53.133088533000034],[21.73897361300004,53.11318119400005],[21.810031166000044,53.10873557300005],[21.873303348000036,53.06309713100006],[21.92864030800007,53.07037745700006],[21.926036495000062,53.04557454800005],[21.899577489000023,53.03757770800007],[21.887049103000038,53.01355624900003],[21.99779361800006,52.966297276000034],[22.018217667000044,52.938450283000066],[22.000320626000075,52.91607153900003],[22.00510928800003,52.89276176200008],[22.047398716000032,52.85277711300006],[22.146286237000027,52.84777702300005],[22.19892419300004,52.85669109500003],[22.219563970000024,52.88047279300008],[22.277607284000055,52.87971719700005],[22.29916250900004,52.84594859900005],[22.25326156400007,52.82709848400003],[22.311271528000077,52.75057167800003],[22.33239377500007,52.747668737000026],[22.34625373600005,52.77185799000006],[22.388670004000062,52.792386117000035],[22.450967843000058,52.78499860200003],[22.438397872000053,52.69359519300008],[22.459068622000075,52.642452854000055],[22.408589,52.60968999900007],[22.521057709000047,52.524424096000075],[22.513147570000058,52.48298589700005],[22.549864180000043,52.46416802500005],[22.545088392000025,52.42490382200003],[22.581813745000034,52.39645751300003],[22.702202902000067,52.39180825500006],[22.72558282500006,52.37140820400003],[22.75960683200003,52.37997913400005],[22.847112993000053,52.36114903200007],[22.944540201000052,52.36967780700007],[23.042460770000048,52.32360872300006],[23.060359576000053,52.28578895000004],[23.128409,52.28784149900008],[23.080546265000066,52.23935180500007],[23.03417085500007,52.21725602200007],[23.04902883400007,52.176751566000064],[22.983697394000046,52.17234627900007],[22.93739457500004,52.13783916400007],[22.959288437000055,52.109264178000046],[22.89852913200008,52.104581791000044],[22.900743318000025,52.06648143900003],[22.82754548500003,52.08058872500004],[22.785752090000074,52.07148768300004],[22.694376187000046,52.11518370400006],[22.652379735000068,52.09245173800008],[22.666680206000024,52.07295011300005],[22.662349686000027,52.04368352500006],[22.62290150000007,52.018744499000036],[22.493750743000078,52.067076385000064],[22.43266506200007,52.018715246000056],[22.347874734000072,51.99848337600008],[22.32385623500005,52.006723211000065],[22.32163510600003,52.03275481600008],[22.306870563000075,52.03673649800004],[22.255655970000078,52.006778444000076],[22.156200099000046,52.02618867900003],[22.11038405900007,52.00235001300007],[22.035821187000067,52.02090019900004],[21.89252755800004,51.97591488100005],[21.868546386000048,51.94536810100004],[21.90854408900003,51.88785161200008],[21.88587814600004,51.85802371600005],[21.847911212000042,51.843934997000076],[21.862492132000057,51.83178742300004],[21.923335294000026,51.83538876400007],[21.950347015000034,51.795580321000045],[21.839196318000063,51.747254534000035],[21.89712327600006,51.70153909000004],[21.831608920000065,51.65012432200007],[21.76428884300003,51.63972312300007],[21.74575823500004,51.61460844700008],[21.648614285000065,51.65846368500007],[21.63709679400006,51.62726503600004],[21.61554250000006,51.61756199900003],[21.689762615000063,51.57278370000006],[21.819443875000047,51.55988207100006],[21.86695376700004,51.47116633200005],[21.842095079000046,51.42492679800006],[21.801305021000076,51.42463959600008],[21.766100292000033,51.401959402000045],[21.847270257000048,51.35871683700003],[21.799200623000047,51.29338047200008],[21.84614795400006,51.27592185700007],[21.81428116400008,51.253761619000045],[21.787742690000073,51.19118481400005],[21.802998,51.07207899900004],[21.771778851000022,51.04436501200007],[21.707583343000067,51.04423932900005],[21.67602491100007,51.07538376200006],[21.632947598000044,51.07401493300006],[21.548954839000032,51.05045813700008],[21.515758164000033,51.05792046500005],[21.488480115000073,51.02147365600007],[21.463647151000032,51.014640873000076],[21.386612058000026,51.04039428700003],[21.347796236000022,51.08399235300004],[21.160414306000064,51.081154318000074],[21.153656054000066,51.124917606000054],[21.095271014000048,51.15661699700007],[21.115582481000047,51.18945929000006],[21.077983886000027,51.208932169000036],[21.058442829000057,51.161173534000056],[21.00686866800004,51.14689296100005],[20.922424679000073,51.19319007300004],[20.87946967000005,51.15696117300007],[20.825853675000076,51.17661176800004],[20.810233679000078,51.14769174000003],[20.724550849000025,51.17083030200007],[20.691568286000063,51.151150149000046],[20.69447985100004,51.19835946100005],[20.604045407000058,51.24521728700006],[20.544451525000056,51.23351071700006],[20.531703288000074,51.27289902700005],[20.498012998000036,51.29937889100006],[20.509269286000062,51.32735464000007],[20.432815,51.33940499900007],[20.42430481300005,51.36543298400005],[20.448390563000032,51.408382276000054],[20.483555720000027,51.413739699000075],[20.490173378000065,51.44082260000005],[20.527643289000025,51.468892777000065],[20.516454038000063,51.507232920000035],[20.452798605000055,51.50774144400003],[20.465301512000053,51.56272523900003],[20.437705058000063,51.57534864400003],[20.41234733600004,51.63224906500005],[20.385006,51.64160999900008],[20.403779461000056,51.67116207300006],[20.460631058000047,51.692298642000026],[20.55992616900005,51.663850016000026],[20.624943640000026,51.66421883400005],[20.647204656000042,51.68085028300004],[20.64592445100004,51.726552523000066],[20.589784850000058,51.754607055000065],[20.579035943000065,51.81143998700003],[20.609228187000042,51.82843960100007],[20.58735966300003,51.862349480000034],[20.55992616900005,51.88533159500008],[20.491141276000064,51.89543340400007],[20.477816808000057,51.92491313100004],[20.445311066000045,51.93844418300006],[20.319749727000044,51.91585477700005],[20.298453907000066,51.93475783900004],[20.248612863000062,51.93712313700007],[20.27417134700005,51.97131981500007],[20.208269866000023,52.023563703000036],[20.246465743000044,52.05373675300007],[20.26657166700005,52.084592099000076],[20.261931636000043,52.10357884700005],[20.19422664500007,52.120499023000036],[20.15535916300007,52.14824915600008],[20.09555153900004,52.154091304000076],[20.066088743000023,52.19098566500003],[20.071176095000055,52.23525382100007],[19.970132498000055,52.26888783900006],[19.936101,52.29973349900007],[19.888957641000047,52.308994882000036],[19.849143812000023,52.27411290900005],[19.805210833000046,52.281094978000056],[19.741952251000043,52.25983423100007],[19.701572831000078,52.27603443400005],[19.681625516000054,52.25837904700006],[19.641129539000076,52.25630299200003],[19.611722431000032,52.287444107000056],[19.518668193000053,52.30618006900005],[19.496984182000062,52.333874937000076],[19.454003991000036,52.347946258000036],[19.326857131000054,52.34899821300007],[19.289184500000033,52.39271249900003],[19.29036995200005,52.42476972600008],[19.272330745000033,52.44216499400005],[19.317985428000043,52.452356277000035],[19.380621847000043,52.509655413000075],[19.353258745000062,52.52716267400007],[19.345884199000068,52.56184789400004],[19.418794452000043,52.605124414000045],[19.376426628000047,52.63299096900005],[19.436993726000026,52.67789751300006],[19.44782380600003,52.71960179100006],[19.511338712000054,52.712224426000034],[19.514827796000077,52.746488611000075],[19.499484272000075,52.767038478000075],[19.428100006000022,52.82132418400005],[19.43170862100004,52.83778375600008],[19.49848225900007,52.86874469500003],[19.444664,52.93904249900004],[19.535905228000047,52.94240916000007],[19.574409383000045,52.95962216100003],[19.579171934000044,52.98242005800006],[19.684806,52.96303899900005],[19.669180116000064,52.98757975700005],[19.68287071000003,53.02293286200006],[19.655327791000047,53.04265976800008],[19.63685892700005,53.10802721700003],[19.671309954000037,53.10891915500008],[19.761595500000055,53.151796499000056],[19.833264378000024,53.14510744300003],[19.83595488700007,53.179457555000056],[19.899617187000047,53.20985945700005],[19.91667084100004,53.17491490100008],[19.977781893000042,53.145608336000066],[20.099047169000073,53.167122300000074],[20.142672220000065,53.14270879600008],[20.173364613000047,53.154484152000066],[20.299049291000074,53.14045012500003],[20.35125049800007,53.14916763600007],[20.33813667100003,53.16393405700006],[20.45646457600003,53.243398970000044],[20.554928003000043,53.22679160900003],[20.653906781000046,53.254251245000034],[20.694749096000066,53.299511503000076],[20.747848004000048,53.31495780000006],[20.846844172000033,53.295416300000056],[20.875794417000066,53.31896124600007],[20.90382908500004,53.31321673400004],[20.914748872000075,53.34455728300003],[20.939301580000063,53.357494821000046],[20.995320451000055,53.35900803700008],[21.060236281000073,53.33665908800003],[21.245766365000065,53.417757212000026],[21.41683325100007,53.42941970700008],[21.43720243300004,53.43939184700008],[21.437915071000077,53.46278992100008],[21.51629882000003,53.476685030000056],[21.612953,53.48083349900003],[21.612969233000058,53.43610497900005],[21.67219076400005,53.36781259000003],[21.664527484000075,53.340615194000065]]],[[[19.32252087200004,52.53082318700007],[19.339148286000068,52.53594749100006],[19.34680725000004,52.522388060000026],[19.333248686000047,52.52304425900007],[19.32252087200004,52.53082318700007]]]]}},{"type":"Feature","properties":{"district":"Opolskie","constituency_code":"PL52","electorate_type":"Poland"},"geometry":{"type":"Polygon","coordinates":[[[17.84744174800005,51.17905788100006],[17.819401705000075,51.13597901000003],[17.82623957900006,51.11946098200008],[17.887726359000055,51.10516172100006],[18.042588914000078,51.13289293200006],[18.07868827300007,51.16339766700003],[18.103842459000077,51.15583486100007],[18.163681500000052,51.17251699900004],[18.461088698000026,51.11769682900007],[18.485423678000075,51.09262900600004],[18.51614007300003,51.10868760900007],[18.52086094200007,51.13674331200008],[18.54949766900006,51.13772398900005],[18.581320124000058,51.083143207000035],[18.67295450000006,51.056902499000046],[18.692165594000073,51.01617033900004],[18.66107876800004,51.004199533000076],[18.66115176200003,50.97258270200007],[18.616704827000035,50.95693506200007],[18.65275373000003,50.91772506700005],[18.615877500000067,50.85358749900007],[18.58373311400004,50.848129888000074],[18.55552304400004,50.81056241400006],[18.518718448000072,50.79912045100008],[18.564978798000027,50.75279523800003],[18.49091159200003,50.704836932000035],[18.52090127100007,50.62879643600007],[18.594939668000052,50.60464749100004],[18.607473500000026,50.55001099900005],[18.439390083000035,50.54458607000004],[18.43375101500004,50.53110866700007],[18.478103739000062,50.46059808500007],[18.443758150000065,50.47876128400003],[18.382330456000034,50.47919556100004],[18.386769456000025,50.436065787000075],[18.367926048000072,50.42200847000004],[18.391211802000043,50.38976708900003],[18.36160428100004,50.35560604400007],[18.397359707000078,50.33229007500006],[18.402746410000077,50.27816890500003],[18.42586650000004,50.248965499000064],[18.361293027000045,50.25562966000007],[18.24802081300004,50.21964072900005],[18.235489907000044,50.192515600000036],[18.059780500000045,50.17465249900005],[18.068203580000045,50.10770710300005],[18.005752748000077,50.04214434600004],[18.04282551500006,50.03442245700006],[18.041088914000056,50.00987572300005],[17.998002685000074,50.01543872000008],[17.920794443000034,49.97926757400006],[17.86889200400003,49.97508613600007],[17.828549174000045,50.00885228300007],[17.777009320000047,50.02369042600003],[17.71503478300002,50.107750991000046],[17.658633208000026,50.10886254400003],[17.596832791000054,50.15803227100008],[17.755723,50.20870185200005],[17.761061910000024,50.23620336300007],[17.726552515000037,50.263231923000035],[17.74814639400006,50.298223396000026],[17.711785621000047,50.32210973000008],[17.69061862500007,50.32524633700007],[17.683994736000045,50.29951373400007],[17.620384675000025,50.26833320500003],[17.503600495000057,50.274631301000056],[17.429605,50.25451299900004],[17.42137187700007,50.273660663000044],[17.388526033000062,50.28172396000008],[17.352045850000025,50.266276101000074],[17.338386280000066,50.325362064000046],[17.29020864200004,50.31849482800004],[17.251192717000038,50.33127408300004],[17.206518285000072,50.36064810800008],[17.19626364000004,50.38649570600006],[17.144668710000076,50.38149146000006],[17.10556765900003,50.40457697800008],[16.97269087600006,50.42056489000004],[16.907924500000036,50.44945399900007],[16.959359431000053,50.48572126400006],[17.048335157000054,50.46648202000006],[17.072688799000048,50.518443597000044],[17.069510535000063,50.547966160000044],[17.12477861600007,50.60627841300004],[17.23826561000004,50.620935891000045],[17.250573678000023,50.68904956500006],[17.224664915000062,50.70821319300006],[17.29060162600007,50.74519090000007],[17.26861904200007,50.772569469000075],[17.277002813000024,50.78629765200003],[17.347851840000033,50.793129159000046],[17.333897155000045,50.84432770600006],[17.392255464000073,50.88020702800003],[17.361097534000066,50.90136918800005],[17.36964156500005,50.91839224900008],[17.424600226000052,50.914305573000036],[17.44004509800004,50.96775133400007],[17.502784289000033,50.974710075000075],[17.496507761000032,50.99419915400006],[17.535440811000058,50.993180229000075],[17.520170903000064,51.01264405400008],[17.524042979000058,51.05688609600003],[17.574922167000068,51.08299894700008],[17.571664817000055,51.12692127200006],[17.55198936100004,51.15328436400006],[17.61056191600005,51.18503135900005],[17.671550511000078,51.16400870400008],[17.795269500000074,51.19414599900006],[17.84744174800005,51.17905788100006]]]}},{"type":"Feature","properties":{"district":"Podkarpackie","constituency_code":"PL82","electorate_type":"Poland"},"geometry":{"type":"Polygon","coordinates":[[[22.15653136900005,50.77319351500006],[22.20118789600008,50.75287386400004],[22.151353810000046,50.67000587500007],[22.218802582000023,50.66069602500005],[22.253883203000044,50.62204289400006],[22.32657501500006,50.61688914300004],[22.416672022000057,50.58266359900006],[22.519738,50.58323349900007],[22.532839540000055,50.56080078100007],[22.524099869000054,50.53400334000003],[22.561064673000033,50.50100060600005],[22.54760054700006,50.48232487700005],[22.563284844000066,50.46979313800006],[22.537287760000027,50.45420870000004],[22.45796580700005,50.45984720800004],[22.44896329200003,50.43149263600003],[22.418786990000058,50.41880083400008],[22.412743738000074,50.40526646300003],[22.467702494000036,50.36328627600005],[22.504481930000054,50.349698818000036],[22.675931949000073,50.35266629800003],[22.615578593000066,50.323359638000056],[22.617314340000064,50.31180840600007],[22.705897667000045,50.29313488100007],[22.808318417000066,50.302138350000064],[23.020951747000026,50.28840057200006],[23.180812788000026,50.39283673600005],[23.255701104000025,50.364313451000044],[23.36504638400004,50.40909370500003],[23.384243294000044,50.40399273400004],[23.36922613100006,50.39289037700007],[23.380076762000044,50.37051836400008],[23.432812031000026,50.343718859000035],[23.41482180500003,50.30774096600004],[23.51308881400007,50.29581983200006],[23.51237512800003,50.263716256000066],[23.547642,50.25160199900006],[23.282737231000056,50.09879079400008],[22.97005364300003,49.83483754900004],[22.95658910700007,49.80399487100004],[22.798129928000037,49.68571339200008],[22.644350216000078,49.52487217800007],[22.69948491200006,49.48793938000006],[22.74440454100005,49.36737751000004],[22.73904230200003,49.252472382000064],[22.717441914000062,49.22980731300004],[22.742064508000055,49.21532164900003],[22.71111889200006,49.174125573000026],[22.75069202800006,49.18120286000004],[22.74522769300006,49.15672956700007],[22.78255285000006,49.15544924000005],[22.83208240400006,49.11370212200006],[22.887411,49.09482094700007],[22.867690975000073,49.064020791000075],[22.890894587000048,49.01233270400007],[22.849492006000048,49.00421343200003],[22.771880896000027,49.05089186300006],[22.680837825000026,49.04122687000006],[22.59532596500003,49.09359719300005],[22.42167179200004,49.100733760000026],[22.365662626000073,49.144879744000036],[22.315040623000073,49.137387699000044],[22.231391403000032,49.15354138600003],[22.22412065700007,49.18182770800007],[22.189772551000033,49.17619971000005],[22.05653786000005,49.21418058000006],[22.032983196000032,49.22751355100007],[22.030718964000073,49.27844322300007],[21.963403894000066,49.34522598800004],[21.902680617000044,49.35274516900006],[21.837585885000067,49.38987866800005],[21.783027710000056,49.35670737000004],[21.719672536000076,49.41044021400006],[21.666237249000062,49.41557508000005],[21.628285548000065,49.44522608700004],[21.444142921000036,49.413129954000055],[21.39771250000007,49.433793999000045],[21.406542958000045,49.468677350000064],[21.39378002600006,49.48576127200005],[21.414546508000058,49.49725703400003],[21.364410504000034,49.54452668500005],[21.375123796000025,49.56902424900005],[21.33176288900006,49.59218589000005],[21.360404152000058,49.635339748000035],[21.345067330000063,49.68985145200003],[21.324270931000058,49.70078879400006],[21.313104345000056,49.74442107200008],[21.259721840000054,49.75437422500005],[21.241772,49.77610449900004],[21.277784084000075,49.80201553000006],[21.339409990000036,49.81187094300003],[21.33462104000006,49.825940444000025],[21.227078582000047,49.85555670800005],[21.229531586000064,49.88340278800007],[21.281110230000024,49.89665414800004],[21.28037181700006,49.92437505000004],[21.181286967000062,49.93048542300005],[21.16451010000003,49.94791724900006],[21.15443416900007,50.00072753500007],[21.189567684000053,50.02755399500006],[21.149248619000048,50.051245418000065],[21.185767602000055,50.09995377900003],[21.182057162000035,50.120177700000056],[21.151329935000035,50.13101264800008],[21.169172278000076,50.20644989900006],[21.146867602000043,50.23569828700005],[21.168719536000026,50.24056027200004],[21.149416879000057,50.258111721000034],[21.188566997000066,50.29963635900003],[21.219496138000068,50.31203088900003],[21.20883150000003,50.35489749900006],[21.314925335000055,50.42267663200005],[21.441276282000047,50.456106684000076],[21.45532006600007,50.49292338500004],[21.603700246000074,50.522597595000036],[21.675530300000048,50.608718526000075],[21.723678343000074,50.643178859000045],[21.776806974000067,50.64729821000003],[21.790147809000075,50.67972211800003],[21.819916610000064,50.693247143000065],[21.864303500000062,50.80270649900007],[21.881573739000032,50.780288330000076],[21.943034450000027,50.77246672100006],[22.055322601000057,50.818826312000056],[22.15626450600007,50.79799770600005],[22.15653136900005,50.77319351500006]]]}},{"type":"Feature","properties":{"district":"Podlaskie","constituency_code":"PL84","electorate_type":"Poland"},"geometry":{"type":"Polygon","coordinates":[[[23.058105569000077,54.310835885000074],[23.095923251000045,54.30085779600006],[23.145852930000046,54.31191129500007],[23.241237543000068,54.26055472500008],[23.321498500000075,54.253325999000026],[23.487430318000065,54.148148767000066],[23.526900538000064,54.06360535600004],[23.52295283500007,54.03324708300005],[23.48379384100008,53.996278147000055],[23.51465,53.956559999000035],[23.524764181000023,53.86277339700007],[23.551130043000057,53.85118476100007],[23.549005513000054,53.76883318100005],[23.582107996000047,53.74317442500006],[23.65554276900008,53.53118797700006],[23.813857317000043,53.25179163200005],[23.853042455000036,53.23058831800006],[23.865243485000065,53.19845097700005],[23.912324822000073,53.15720583700005],[23.876881018000063,53.08499175500003],[23.924676482000052,53.01980901700006],[23.940054162000024,52.968452539000054],[23.916239,52.90481199900006],[23.939094621000038,52.80710649300005],[23.933568337000054,52.71114484800006],[23.76099152300003,52.61684324300006],[23.638291733000074,52.606263365000075],[23.470035936000045,52.55026605900008],[23.355575696000074,52.467593298000054],[23.178338,52.28314099900007],[23.10731848200004,52.295527684000035],[23.060359576000053,52.28578895000004],[23.042460770000048,52.32360872300006],[22.944540201000052,52.36967780700007],[22.847112993000053,52.36114903200007],[22.75960683200003,52.37997913400005],[22.72558282500006,52.37140820400003],[22.702202902000067,52.39180825500006],[22.581813745000034,52.39645751300003],[22.545088392000025,52.42490382200003],[22.549864180000043,52.46416802500005],[22.513147570000058,52.48298589700005],[22.521057709000047,52.524424096000075],[22.408589,52.60968999900007],[22.459068622000075,52.642452854000055],[22.438397872000053,52.69359519300008],[22.450967843000058,52.78499860200003],[22.388670004000062,52.792386117000035],[22.34625373600005,52.77185799000006],[22.33239377500007,52.747668737000026],[22.311271528000077,52.75057167800003],[22.25326156400007,52.82709848400003],[22.29916250900004,52.84594859900005],[22.277607284000055,52.87971719700005],[22.219563970000024,52.88047279300008],[22.19892419300004,52.85669109500003],[22.146286237000027,52.84777702300005],[22.047398716000032,52.85277711300006],[22.00510928800003,52.89276176200008],[22.000320626000075,52.91607153900003],[22.018217667000044,52.938450283000066],[21.99779361800006,52.966297276000034],[21.887049103000038,53.01355624900003],[21.899577489000023,53.03757770800007],[21.926036495000062,53.04557454800005],[21.92864030800007,53.07037745700006],[21.873303348000036,53.06309713100006],[21.810031166000044,53.10873557300005],[21.73897361300004,53.11318119400005],[21.705819598000062,53.133088533000034],[21.64412750100007,53.259187903000054],[21.66285479900006,53.30844445100007],[21.71784143600007,53.31508497000004],[21.664527484000075,53.340615194000065],[21.67219076400005,53.36781259000003],[21.612969233000058,53.43610497900005],[21.60599581200006,53.465227586000026],[21.612953,53.48083349900003],[21.697083185000054,53.49119783900005],[21.859220810000068,53.459097116000066],[21.890748649000045,53.46654786900007],[21.93108425400004,53.50916860700005],[21.991768060000027,53.519992331000026],[22.028664762000062,53.49930676000008],[22.062309120000066,53.52977550300005],[22.192794976000073,53.56619651800003],[22.36564643500003,53.65694914900007],[22.423480642000072,53.67880339900006],[22.46410632900006,53.66492727000008],[22.475738938000063,53.69741932900007],[22.58024217800005,53.729426526000054],[22.60652602500005,53.72021370600004],[22.629322666000064,53.75332233800003],[22.704585386000076,53.770470816000056],[22.72917234700003,53.83221820700004],[22.779772497000067,53.86998109600006],[22.778746090000027,53.92052393100005],[22.69896220800007,53.97369345800007],[22.669225093000023,54.02551878400004],[22.603357996000057,54.05639998500004],[22.631453730000032,54.10284044100007],[22.599397015000022,54.138643459000036],[22.547580768000046,54.14314915800003],[22.48461740500005,54.20199416500003],[22.539243069000065,54.24829027700008],[22.643168545000037,54.28327208500008],[22.697526582000023,54.27825080300005],[22.776386200000047,54.296290283000076],[22.80006404100004,54.34632044500006],[22.792095500000073,54.36335899900007],[22.85280302700005,54.40820239200008],[23.002550404000033,54.380175809000036],[23.006184375000032,54.358861363000074],[23.05376275800006,54.343046650000076],[23.058105569000077,54.310835885000074]]]}},{"type":"Feature","properties":{"district":"Pomorskie","constituency_code":"PL63","electorate_type":"Poland"},"geometry":{"type":"MultiPolygon","coordinates":[[[[18.561360689000026,54.540704454000036],[18.563992753000036,54.459996026000056],[18.597702923000043,54.426809382000044],[18.734572385000035,54.37528421500008],[18.882623829000067,54.34824044000004],[18.95558936300006,54.360000239000044],[18.98913618100005,54.345280106000075],[19.078757944000074,54.34569716800007],[19.33136950000005,54.366705499000034],[19.648523,54.45333899900004],[19.40612702900006,54.36637266200006],[19.230977519000078,54.33737854800006],[19.25960777800003,54.30731293800005],[19.258527885000035,54.268628557000056],[19.298204344000055,54.24612495900004],[19.32382499000005,54.201322349000066],[19.25383522000004,54.17108299400007],[19.252748850000046,54.14547532300003],[19.217688500000065,54.11612149900003],[19.247473055000057,54.08971015800006],[19.229138113000033,54.06970460000008],[19.27296731200005,54.04870226200006],[19.27568190200003,54.02077139600004],[19.31999165700006,54.023818591000065],[19.38747932900003,53.999002690000054],[19.372079889000076,53.96129790300006],[19.38451129200007,53.93614599700004],[19.522340014000065,53.94610428400006],[19.574905881000063,53.934692548000044],[19.49466882200005,53.83031646900008],[19.490846909000027,53.80378331700007],[19.47890306100004,53.78926235700004],[19.37006251200006,53.81224007600008],[19.32123025900006,53.80660123300004],[19.29207902400003,53.74657549500006],[19.22182735100006,53.69481981300004],[19.207742968000048,53.647925333000046],[19.156208699000047,53.62147086400006],[19.12927650000006,53.58826049900006],[19.05620674100004,53.59670318000008],[18.909583053000063,53.58029116700004],[18.883387475000063,53.59923870500006],[18.761577500000044,53.60488199900004],[18.745398195000064,53.64571004900006],[18.766417726000043,53.693554334000055],[18.66587930000003,53.69453009100005],[18.55909452700007,53.659568798000066],[18.50276321900003,53.70047960900007],[18.381702206000057,53.68861424000005],[18.278312165000045,53.700325088000056],[18.25582876900006,53.740845569000044],[18.072036500000024,53.781074999000055],[18.02095097800003,53.72924304400004],[17.887822044000075,53.748434547000045],[17.88367917100004,53.70834890300006],[17.814497162000066,53.68481918400005],[17.76383909300006,53.68769416400005],[17.723327598000026,53.64103735100008],[17.72405554200003,53.60359906600007],[17.669841097000074,53.59246782200006],[17.664364378000073,53.57747172400008],[17.610485442000027,53.59136422700004],[17.550627360000078,53.58345838900004],[17.505494270000042,53.61022783800007],[17.449790548000067,53.59893830800007],[17.425365550000038,53.57905326000008],[17.390653,53.49096399900003],[17.34004519000007,53.49840630600005],[17.269887639000046,53.536068655000065],[17.095167873000037,53.54100966900006],[17.05272257200005,53.520001568000055],[17.003639364000037,53.519607085000075],[16.996854996000025,53.550045159000035],[16.95221588000004,53.549058900000034],[16.89968785800005,53.62102126000008],[16.860817643000075,53.74560625100003],[16.927391303000036,53.77714743900003],[16.94344053800006,53.80158284400005],[16.91414610000004,53.80244464900005],[16.873562594000077,53.83323848300006],[16.867618735000065,53.85669668200006],[16.89881149100006,53.87588834500008],[16.970156149000047,53.88048418900007],[16.982053500000063,53.90490949900004],[16.87810932000002,53.94262377700005],[16.87375720700004,53.973986410000066],[16.83978320400007,53.995485365000036],[16.792764500000033,53.985550499000055],[16.787280752000072,54.02551878400004],[16.81072589000007,54.066065035000065],[16.794454622000046,54.08213663200007],[16.80111547100006,54.114596506000055],[16.719234749000066,54.21322279800006],[16.73633716100005,54.23004794700006],[16.860763849000023,54.26071008200006],[16.85856065400003,54.29746876100006],[16.818742358000065,54.319386644000076],[16.825645215000065,54.345635737000066],[16.810186559000044,54.36488704700008],[16.854866611000034,54.38306204500003],[16.82783689000007,54.41544453300003],[16.838600215000042,54.43691344700005],[16.819375252000043,54.47183907800007],[16.759724162000055,54.49103610900005],[16.742362873000047,54.53308600400004],[16.699085,54.56924699900003],[16.919236657000056,54.601043668000045],[17.049462138000024,54.66842030000004],[17.253531852000037,54.73187164700005],[17.964449992000027,54.830464584000026],[18.330597735000026,54.83349962400007],[18.421197559000063,54.79448053800007],[18.396697989000074,54.73126177300003],[18.467634477000047,54.69528843000006],[18.472203372000024,54.634906769000054],[18.51070457800006,54.63239979800005],[18.561360689000026,54.540704454000036]]],[[[18.800428043000068,54.59947036700004],[18.779376342000035,54.612911430000054],[18.713636595000025,54.681176995000044],[18.824183532000063,54.62500443000005],[18.829608156000063,54.606143951000035],[18.800428043000068,54.59947036700004]]],[[[18.667840703000024,54.69889447200006],[18.653067028000066,54.700078019000046],[18.638208881000025,54.713997919000064],[18.689802600000064,54.69808195000007],[18.667840703000024,54.69889447200006]]]]}},{"type":"Feature","properties":{"district":"Śląskie","constituency_code":"PL22","electorate_type":"Poland"},"geometry":{"type":"MultiPolygon","coordinates":[[[[19.367714969000076,50.169276798000055],[19.34824354400007,50.17515050600008],[19.371677616000056,50.18209747800006],[19.367714969000076,50.169276798000055]]],[[[19.019276992000073,51.05246675400008],[19.053512787000045,51.026986444000045],[19.088768729000037,51.03260658000005],[19.12107290700004,51.00330346900006],[19.141707542000063,51.009489114000075],[19.212003465000066,50.98549107000008],[19.249188900000036,51.00215664900003],[19.243142500000033,51.03684449900004],[19.320220472000074,51.04307768400008],[19.328333104000023,51.01785692300007],[19.359975339000073,50.99650030400005],[19.398647312000037,50.99337767000003],[19.481535953000048,50.884337955000035],[19.576044357000058,50.904107639000074],[19.688394480000056,50.84556641200004],[19.727235824000047,50.84519435800007],[19.74706,50.86596999900007],[19.80566232800004,50.844856367000034],[19.825000215000046,50.82815178800007],[19.81823352600003,50.80792783100003],[19.78931005000004,50.81521374300007],[19.785843405000037,50.783025328000065],[19.74774848800007,50.75997374000008],[19.71138202900005,50.759187335000036],[19.712949500000036,50.72915599900006],[19.865492207000045,50.69089685400007],[19.84328567700004,50.65451836400007],[19.90896768400006,50.63059984600005],[19.858612665000066,50.61559311000008],[19.79842581400004,50.559284423000065],[19.89413733400005,50.53913619900004],[19.91667084100004,50.513199642000075],[19.949966500000073,50.504782499000044],[19.966273774000058,50.476427612000066],[19.903365146000056,50.47253298100003],[19.89543479300005,50.45384474300005],[19.844537500000058,50.434195499000054],[19.70670922000005,50.44416339300005],[19.644039322000026,50.41116164300007],[19.51461441200007,50.41186008300008],[19.47068143200005,50.36581427400006],[19.478977067000073,50.32689431400007],[19.418179860000066,50.32641781800004],[19.387357785000063,50.28106338200007],[19.335760237000045,50.25853712500003],[19.419437904000063,50.22846003700005],[19.42193059300007,50.21383755800008],[19.344409547000055,50.18764934600006],[19.34042964500003,50.14996565100006],[19.279477233000023,50.14125329500007],[19.26575614500007,50.12037249200006],[19.253810500000043,50.13419299900005],[19.219801020000034,50.06529433400004],[19.15586416000008,50.04859735600007],[19.118375420000064,50.003343640000026],[19.118487462000076,49.96656193100006],[19.09321,49.95665899900007],[19.12042979100005,49.93973489200005],[19.186318366000023,49.949411904000044],[19.194013277000067,49.89073919100008],[19.16040053100005,49.86453738300003],[19.17555334700006,49.85556867300005],[19.212003465000066,49.86997097200003],[19.28867838800005,49.850890701000026],[19.288629872000058,49.81818589400007],[19.321323118000066,49.77767303400003],[19.401570220000053,49.76387552600005],[19.41495150000003,49.77526499900006],[19.443303284000024,49.736668089000034],[19.38010619000005,49.69250492100008],[19.470749515000023,49.666565512000034],[19.478606370000023,49.62775528100008],[19.37544102800007,49.56741030300003],[19.36124667300004,49.538254590000065],[19.261938394000026,49.52987093300004],[19.23766501600005,49.51092370600003],[19.225381151000022,49.45920534600003],[19.190151985000057,49.438083207000034],[19.188195192000023,49.412028289000034],[19.117846223000072,49.40383702500003],[19.076866014000075,49.416844954000055],[19.029751498000053,49.395640134000075],[18.980659699000057,49.39700330800008],[18.971571339000036,49.410409145000074],[18.985775858000068,49.43097123000007],[18.963318679000054,49.45944986200004],[18.968355822000035,49.50416332800006],[18.841208892000054,49.526549094000075],[18.856963292000046,49.54773456700008],[18.838688887000046,49.564508395000075],[18.803311561000044,49.67788421600005],[18.740114917000028,49.67894543400007],[18.70437701000003,49.70412208000005],[18.629098144000068,49.723071556000036],[18.571746936000068,49.82905199600003],[18.60025615400002,49.86001473600004],[18.569419271000072,49.87994427400008],[18.570271091000052,49.91902191400004],[18.496948967000037,49.904166341000064],[18.426650008000024,49.93642993600008],[18.342217643000026,49.94520390900004],[18.315950696000073,49.91864719100005],[18.284837467000045,49.93475826000008],[18.274233836000064,49.96320559900005],[18.220894272000066,49.97006202400007],[18.204946263000068,49.995065870000076],[18.15674939400003,49.984781475000034],[18.11094653500004,49.99820504100006],[18.084603781000055,50.04389065000004],[18.035061,50.06577199900005],[18.068203580000045,50.10770710300005],[18.059780500000045,50.17465249900005],[18.235489907000044,50.192515600000036],[18.24802081300004,50.21964072900005],[18.361293027000045,50.25562966000007],[18.42586650000004,50.248965499000064],[18.402746410000077,50.27816890500003],[18.397359707000078,50.33229007500006],[18.36160428100004,50.35560604400007],[18.391211802000043,50.38976708900003],[18.367926048000072,50.42200847000004],[18.386769456000025,50.436065787000075],[18.382330456000034,50.47919556100004],[18.443758150000065,50.47876128400003],[18.478103739000062,50.46059808500007],[18.43375101500004,50.53110866700007],[18.439390083000035,50.54458607000004],[18.607473500000026,50.55001099900005],[18.594939668000052,50.60464749100004],[18.52090127100007,50.62879643600007],[18.49091159200003,50.704836932000035],[18.564978798000027,50.75279523800003],[18.518718448000072,50.79912045100008],[18.55552304400004,50.81056241400006],[18.58373311400004,50.848129888000074],[18.615877500000067,50.85358749900007],[18.65275373000003,50.91772506700005],[18.616704827000035,50.95693506200007],[18.66115176200003,50.97258270200007],[18.66107876800004,51.004199533000076],[18.692165594000073,51.01617033900004],[18.67295450000006,51.056902499000046],[18.85705622300003,51.072914569000034],[18.889546805000066,51.06062581500004],[18.923335473000066,51.095883281000056],[19.019276992000073,51.05246675400008]]]]}},{"type":"Feature","properties":{"district":"Świętokrzyskie","constituency_code":"PL72","electorate_type":"Poland"},"geometry":{"type":"Polygon","coordinates":[[[20.52961798800004,51.26034696900007],[20.544451525000056,51.23351071700006],[20.604045407000058,51.24521728700006],[20.69447985100004,51.19835946100005],[20.691568286000063,51.151150149000046],[20.724550849000025,51.17083030200007],[20.810233679000078,51.14769174000003],[20.825853675000076,51.17661176800004],[20.87946967000005,51.15696117300007],[20.922424679000073,51.19319007300004],[21.00686866800004,51.14689296100005],[21.058442829000057,51.161173534000056],[21.077983886000027,51.208932169000036],[21.115582481000047,51.18945929000006],[21.095271014000048,51.15661699700007],[21.153656054000066,51.124917606000054],[21.160414306000064,51.081154318000074],[21.347796236000022,51.08399235300004],[21.386612058000026,51.04039428700003],[21.463647151000032,51.014640873000076],[21.488480115000073,51.02147365600007],[21.515758164000033,51.05792046500005],[21.548954839000032,51.05045813700008],[21.67602491100007,51.07538376200006],[21.707583343000067,51.04423932900005],[21.754095633000077,51.03938306100008],[21.802998,51.07207899900004],[21.82084896400005,51.050488683000026],[21.807910416000027,51.02399005500007],[21.81499901500007,50.93741559500006],[21.864303500000062,50.80270649900007],[21.819916610000064,50.693247143000065],[21.790147809000075,50.67972211800003],[21.776806974000067,50.64729821000003],[21.723678343000074,50.643178859000045],[21.675530300000048,50.608718526000075],[21.603700246000074,50.522597595000036],[21.45532006600007,50.49292338500004],[21.441276282000047,50.456106684000076],[21.314925335000055,50.42267663200005],[21.176430008000068,50.33183845500008],[21.133282103000056,50.35216180700007],[21.055871638000042,50.317024487000026],[20.893521658000054,50.304113536000045],[20.836381345000063,50.27574481000005],[20.787512975000027,50.286475832000065],[20.681539,50.20587549900006],[20.637572625000075,50.20970195800004],[20.575491318000047,50.18991921500003],[20.42354325200006,50.195129630000054],[20.381533194000042,50.21647092000006],[20.384919267000043,50.24119842200008],[20.339343410000026,50.26741533300003],[20.35419983500003,50.28399339500004],[20.29798656400004,50.32770507400005],[20.299937389000036,50.34835141800005],[20.330605646000038,50.36208703600005],[20.267924535000077,50.43174864100007],[20.26290831500006,50.47035974000005],[20.20291545300006,50.49339139400007],[20.10655925700007,50.487887941000054],[20.066098917000033,50.508666411000036],[19.980164330000036,50.51764440100004],[19.949966500000073,50.504782499000044],[19.91667084100004,50.513199642000075],[19.89413733400005,50.53913619900004],[19.79842581400004,50.559284423000065],[19.858612665000066,50.61559311000008],[19.894971858000076,50.618674258000055],[19.90564209400003,50.64093746300006],[19.84328567700004,50.65451836400007],[19.865492207000045,50.69089685400007],[19.712949500000036,50.72915599900006],[19.71138202900005,50.759187335000036],[19.74774848800007,50.75997374000008],[19.785843405000037,50.783025328000065],[19.78931005000004,50.81521374300007],[19.81823352600003,50.80792783100003],[19.825000215000046,50.82815178800007],[19.80566232800004,50.844856367000034],[19.74706,50.86596999900007],[19.84076433200005,50.92568281300004],[19.83105308200004,50.968348932000026],[19.87796202000004,51.04597453100007],[20.01173625200005,50.96541148100005],[20.034155912000074,50.975130540000066],[20.05141462200004,51.05994084800005],[19.98589409400006,51.07773188800007],[19.988966644000072,51.12992607600006],[20.021678157000053,51.16133745600007],[19.999630555000067,51.18717218300003],[20.042531170000075,51.20159560500008],[20.11455182000003,51.19084765500003],[20.227846299000078,51.20136724200006],[20.259692508000057,51.21523238600008],[20.244504576000054,51.246618590000026],[20.253541437000024,51.25658123100004],[20.371268153000074,51.24013839100007],[20.38730522800006,51.272789052000064],[20.368174639000074,51.30898261400006],[20.432815,51.33940499900007],[20.509269286000062,51.32735464000007],[20.498012998000036,51.29937889100006],[20.52961798800004,51.26034696900007]]]}},{"type":"Feature","properties":{"district":"Warmińsko-Mazurskie","constituency_code":"PL62","electorate_type":"Poland"},"geometry":{"type":"Polygon","coordinates":[[[20.55992616900005,54.37577904700004],[21.449844204000044,54.31919086100004],[22.792095500000073,54.36335899900007],[22.80006404100004,54.34632044500006],[22.776386200000047,54.296290283000076],[22.697526582000023,54.27825080300005],[22.643168545000037,54.28327208500008],[22.539243069000065,54.24829027700008],[22.48461740500005,54.20199416500003],[22.547580768000046,54.14314915800003],[22.599397015000022,54.138643459000036],[22.631453730000032,54.10284044100007],[22.603357996000057,54.05639998500004],[22.669225093000023,54.02551878400004],[22.69896220800007,53.97369345800007],[22.778746090000027,53.92052393100005],[22.779772497000067,53.86998109600006],[22.72917234700003,53.83221820700004],[22.704585386000076,53.770470816000056],[22.629322666000064,53.75332233800003],[22.60652602500005,53.72021370600004],[22.58024217800005,53.729426526000054],[22.475738938000063,53.69741932900007],[22.46410632900006,53.66492727000008],[22.423480642000072,53.67880339900006],[22.36564643500003,53.65694914900007],[22.192794976000073,53.56619651800003],[22.062309120000066,53.52977550300005],[22.028664762000062,53.49930676000008],[21.991768060000027,53.519992331000026],[21.93108425400004,53.50916860700005],[21.890748649000045,53.46654786900007],[21.859220810000068,53.459097116000066],[21.697083185000054,53.49119783900005],[21.437915071000077,53.46278992100008],[21.43720243300004,53.43939184700008],[21.41683325100007,53.42941970700008],[21.245766365000065,53.417757212000026],[21.060236281000073,53.33665908800003],[20.995320451000055,53.35900803700008],[20.939301580000063,53.357494821000046],[20.914748872000075,53.34455728300003],[20.90382908500004,53.31321673400004],[20.875794417000066,53.31896124600007],[20.846844172000033,53.295416300000056],[20.747848004000048,53.31495780000006],[20.694749096000066,53.299511503000076],[20.653906781000046,53.254251245000034],[20.554928003000043,53.22679160900003],[20.45646457600003,53.243398970000044],[20.33813667100003,53.16393405700006],[20.35125049800007,53.14916763600007],[20.299049291000074,53.14045012500003],[20.173364613000047,53.154484152000066],[20.142672220000065,53.14270879600008],[20.099047169000073,53.167122300000074],[19.977781893000042,53.145608336000066],[19.91667084100004,53.17491490100008],[19.899617187000047,53.20985945700005],[19.83595488700007,53.179457555000056],[19.833264378000024,53.14510744300003],[19.761595500000055,53.151796499000056],[19.745024057000023,53.22224481000006],[19.691041201000075,53.23896044700007],[19.687329200000022,53.258293406000064],[19.722987455000066,53.27697768000007],[19.714721852000025,53.30097249800008],[19.68887571700003,53.30765850300003],[19.685885042000052,53.334955904000026],[19.524966721000055,53.331161810000026],[19.515579884000033,53.368052754000075],[19.439712241000052,53.36027241700003],[19.373247238000033,53.41147539900004],[19.30888387500005,53.40913996100005],[19.278625178000027,53.39107228700004],[19.237251136000054,53.414578118000065],[19.25068765000003,53.43030593800006],[19.194208660000072,53.511660825000035],[19.216119668000033,53.52794741500003],[19.192547770000033,53.550449455000035],[19.194940534000068,53.57085956800006],[19.12927650000006,53.58826049900006],[19.156208699000047,53.62147086400006],[19.207742968000048,53.647925333000046],[19.22182735100006,53.69481981300004],[19.29207902400003,53.74657549500006],[19.32123025900006,53.80660123300004],[19.37006251200006,53.81224007600008],[19.47890306100004,53.78926235700004],[19.574905881000063,53.934692548000044],[19.522340014000065,53.94610428400006],[19.38451129200007,53.93614599700004],[19.372079889000076,53.96129790300006],[19.38747932900003,53.999002690000054],[19.31999165700006,54.023818591000065],[19.27568190200003,54.02077139600004],[19.27296731200005,54.04870226200006],[19.229138113000033,54.06970460000008],[19.247473055000057,54.08971015800006],[19.217688500000065,54.11612149900003],[19.252748850000046,54.14547532300003],[19.25383522000004,54.17108299400007],[19.32382499000005,54.201322349000066],[19.256953,54.27846049900006],[19.379590089000033,54.26512940300006],[19.380708473000027,54.22937231700007],[19.409502540000062,54.267945445000066],[19.498620496000058,54.31811768700004],[19.651409036000075,54.34889647000006],[19.751140814000053,54.42887559600007],[19.803768500000047,54.44241049900006],[20.55992616900005,54.37577904700004]]]}},{"type":"Feature","properties":{"district":"Wielkopolskie","constituency_code":"PL41","electorate_type":"Poland"},"geometry":{"type":"Polygon","coordinates":[[[16.892248,53.65586899900006],[16.89968785800005,53.62102126000008],[16.95221588000004,53.549058900000034],[16.996854996000025,53.550045159000035],[17.003639364000037,53.519607085000075],[17.05272257200005,53.520001568000055],[17.095167873000037,53.54100966900006],[17.269887639000046,53.536068655000065],[17.34004519000007,53.49840630600005],[17.390653,53.49096399900003],[17.383808928000064,53.47221022400004],[17.25084887500003,53.37574292100004],[17.33645450700004,53.345618597000055],[17.43879350000003,53.26751449900007],[17.409601234000036,53.23058831800006],[17.337695267000072,53.21064581500008],[17.344938334000062,53.16284018500005],[17.37567855100002,53.13991413700006],[17.330113763000043,53.07274049700004],[17.329167349000045,53.02762725200006],[17.31017130200007,52.99767348900008],[17.32435328300005,52.98036518400005],[17.41055658500005,52.97393944200007],[17.477838312000074,52.948937870000066],[17.510991863000072,52.92273799800006],[17.52196008800007,52.86693693600006],[17.505015335000053,52.80138529300007],[17.41769473900007,52.77421517700003],[17.42351425000004,52.75619367200005],[17.48269635500003,52.72449269200007],[17.474233711000068,52.686263921000034],[17.51135002700005,52.675899565000066],[17.584524634000047,52.702426624000054],[17.63000988600004,52.70200555000008],[17.636454848000028,52.65459492300005],[17.674928717000057,52.64474915300008],[17.685486559000026,52.60761624400004],[17.73762447200005,52.62946134200007],[17.739106308000032,52.64860057200008],[17.800077772000066,52.64671939600004],[17.88240084800003,52.62583072100006],[17.914147108000066,52.58267317100007],[17.981282735000036,52.567066631000046],[17.99361947600005,52.547132728000065],[18.092049200000076,52.550119804000076],[18.101779431000068,52.51731972400006],[18.192696648000037,52.50261344100005],[18.213945789000036,52.48465212700006],[18.265410012000075,52.48583858100005],[18.349954053000033,52.53860175900007],[18.38301393300003,52.528766303000054],[18.389603254000065,52.47333613500007],[18.459334048000073,52.47870770800006],[18.49152792900003,52.50277024500008],[18.528148885000064,52.497327304000066],[18.56581456600003,52.46415490000004],[18.64603326200006,52.44970495500007],[18.683207525000057,52.40283522500005],[18.71055053400005,52.39867693100007],[18.750709930000028,52.36136886300005],[18.758826817000056,52.33393537100005],[18.904980951000027,52.36510947600004],[18.925601279000034,52.39645400100005],[18.972989812000037,52.373772716000076],[18.97264279700005,52.35714240600004],[19.04712,52.33280399900008],[19.040246851000063,52.27597083200004],[19.100068133000036,52.257107243000064],[19.078406748000077,52.22958352000006],[19.08196408500004,52.20909621100003],[18.993950722000022,52.21212417000004],[18.931704894000063,52.19586141900004],[18.91115434900007,52.14122011100005],[18.944916400000068,52.12311323800003],[18.943815615000062,52.10718951500007],[18.92167477000004,52.08046787400008],[18.858523149000064,52.08559762300007],[18.827809,52.06418799900007],[18.750197040000046,52.07394411700005],[18.720792155000026,52.06383661500007],[18.73075532000007,51.97542890700004],[18.718896759000074,51.96571118500003],[18.764490539000064,51.926147910000054],[18.700590694000027,51.86464190700008],[18.68419071900007,51.82351523900007],[18.592689938000035,51.846846268000036],[18.521843328000045,51.836021204000076],[18.50426515500004,51.852144114000055],[18.471965500000067,51.85100549900005],[18.465021725000042,51.82503974100007],[18.44569834600003,51.823714875000064],[18.43873393000007,51.79810814600006],[18.41660661700007,51.78977326900008],[18.42886745100003,51.76382275800006],[18.404812615000026,51.72201106800003],[18.410040249000076,51.70389363100003],[18.358441698000036,51.66853388100003],[18.37817621800008,51.64923719900003],[18.353572538000037,51.63006350500007],[18.364987045000078,51.61807707500003],[18.353506828000036,51.60325161500003],[18.373466114000053,51.59505765500006],[18.362298133000024,51.535426966000045],[18.37954325800007,51.51363585100006],[18.38013651400007,51.47782471100004],[18.32608444500005,51.42172870200005],[18.215684037000074,51.452163331000065],[18.19700329400007,51.441246516000035],[18.20870872000006,51.42365740100007],[18.19365526100006,51.39059015500004],[18.15112823900006,51.38937233300004],[18.129973095000025,51.36054690200007],[18.079449926000052,51.35042832900007],[18.110137158000043,51.30950881900003],[18.108426880000025,51.26478916000008],[18.169430559000034,51.26707402100004],[18.177418851000027,51.22443837600008],[18.163681500000052,51.17251699900004],[18.103842459000077,51.15583486100007],[18.07868827300007,51.16339766700003],[18.042588914000078,51.13289293200006],[17.939456,51.10886499900005],[17.82623957900006,51.11946098200008],[17.819401705000075,51.13597901000003],[17.84744174800005,51.17905788100006],[17.765148623000073,51.207385110000075],[17.742939098000022,51.27596808000004],[17.759787654000036,51.31900663300007],[17.707811083000024,51.36560267700003],[17.748562032000052,51.41220330700003],[17.721579107000025,51.42050332800005],[17.703912048000063,51.40127752600006],[17.637357950000023,51.421639807000076],[17.571501804000036,51.40662253900007],[17.544900834000032,51.420282917000065],[17.516146112000058,51.506846290000055],[17.57279106200002,51.533720661000075],[17.554099305000022,51.583159927000054],[17.449168411000073,51.63041921000007],[17.32905240100007,51.64729066500007],[17.21474876700006,51.625143940000044],[17.206511633000048,51.56998924800007],[17.103538737000065,51.574612597000055],[17.056870996000043,51.548079339000026],[16.970073391000028,51.54572428100005],[16.88804529300006,51.57976144500003],[16.828372,51.57218799900005],[16.772230449000062,51.61669440600008],[16.777988890000074,51.64164138500007],[16.646323859000063,51.662092475000065],[16.643485704000057,51.68075683500007],[16.67863955300004,51.703839919000075],[16.64595914000006,51.723559685000055],[16.640147728000045,51.74628290000004],[16.589884346000076,51.749510059000045],[16.536963721000063,51.78089611000007],[16.416191,51.784864999000035],[16.395748044000072,51.795415836000075],[16.39411893700003,51.835825028000045],[16.33525997000004,51.88384768600008],[16.260196457000063,51.89784180600003],[16.20639591500003,51.873269754000034],[16.11265486900004,51.89610963500007],[16.132421136000062,51.92603952200005],[16.120720383000048,51.98904098300005],[16.012740536000024,51.98327013200003],[15.969096212000068,52.01200237000006],[15.997603808000065,52.05053877100005],[15.984840062000046,52.067839081000045],[15.944222629000024,52.08529667600004],[15.909864076000076,52.073226383000076],[15.846485354000038,52.09989843400007],[15.879320913000072,52.150294589000055],[15.853203648000033,52.21171534900003],[15.89756084000004,52.388144186000034],[15.845081510000057,52.40441471400004],[15.807923905000052,52.440601740000034],[15.823610392000035,52.44851361700006],[15.842745062000063,52.43356597400003],[15.894165403000045,52.44988294400008],[15.87076049500007,52.50896440000008],[15.840196441000046,52.526182808000044],[15.854258568000034,52.546995268000046],[15.778534463000028,52.64309628800004],[15.787032428000032,52.66471810000007],[15.81195672900003,52.67219359600006],[15.797833213000047,52.70672180000008],[15.943096850000074,52.731501699000034],[15.933212338000033,52.80003175300004],[15.895534802000043,52.81742551600007],[15.907523532000027,52.83607673900008],[15.96928323800006,52.859356578000074],[15.976202458000046,52.87972616900004],[15.976051121000069,52.93582059100004],[15.950963579000074,52.99277880800008],[15.96249750000004,53.04138099900007],[16.116570927000055,53.012512522000065],[16.260351339000067,53.04730214800003],[16.310924317000058,53.03796016500007],[16.36005415300002,53.07817539900003],[16.34981109900002,53.11036276300007],[16.390146154000035,53.13330641700003],[16.398195916000077,53.15950256500008],[16.496593912000037,53.16568525400004],[16.56223479500005,53.230207679000046],[16.613168759000075,53.20928305100006],[16.629980768000053,53.21753011200008],[16.640500417000055,53.26178423500005],[16.696767710000074,53.302917517000026],[16.62292350200005,53.34485870000003],[16.483275237000043,53.38821722800003],[16.450701538000033,53.44242623200006],[16.46176808000007,53.45763536700008],[16.442252191000023,53.46280353100008],[16.450099721000072,53.48066437400007],[16.49932467600007,53.47247327100007],[16.65084188700007,53.48889464900003],[16.719163644000048,53.52722925100005],[16.762982067000053,53.62155110700007],[16.821069437000062,53.638834659000054],[16.846349109000073,53.63178766100003],[16.892248,53.65586899900006]]]}},{"type":"Feature","properties":{"district":"Zachodniopomorskie","constituency_code":"PL42","electorate_type":"Poland"},"geometry":{"type":"Polygon","coordinates":[[[16.792764500000033,53.985550499000055],[16.83978320400007,53.995485365000036],[16.87375720700004,53.973986410000066],[16.87810932000002,53.94262377700005],[16.982053500000063,53.90490949900004],[16.970156149000047,53.88048418900007],[16.89881149100006,53.87588834500008],[16.867618735000065,53.85669668200006],[16.873562594000077,53.83323848300006],[16.91414610000004,53.80244464900005],[16.94344053800006,53.80158284400005],[16.927391303000036,53.77714743900003],[16.860817643000075,53.74560625100003],[16.892248,53.65586899900006],[16.846349109000073,53.63178766100003],[16.821069437000062,53.638834659000054],[16.762982067000053,53.62155110700007],[16.719163644000048,53.52722925100005],[16.65084188700007,53.48889464900003],[16.49932467600007,53.47247327100007],[16.450099721000072,53.48066437400007],[16.442252191000023,53.46280353100008],[16.46176808000007,53.45763536700008],[16.450701538000033,53.44242623200006],[16.483275237000043,53.38821722800003],[16.62292350200005,53.34485870000003],[16.696767710000074,53.302917517000026],[16.640500417000055,53.26178423500005],[16.629980768000053,53.21753011200008],[16.613168759000075,53.20928305100006],[16.56223479500005,53.230207679000046],[16.496593912000037,53.16568525400004],[16.398195916000077,53.15950256500008],[16.390146154000035,53.13330641700003],[16.34981109900002,53.11036276300007],[16.36005415300002,53.07817539900003],[16.310924317000058,53.03796016500007],[16.260351339000067,53.04730214800003],[16.116570927000055,53.012512522000065],[15.96249750000004,53.04138099900007],[15.995117708000066,53.07901562900008],[15.979097764000073,53.10866338500006],[15.868593335000071,53.11926595600005],[15.851617401000055,53.11431347600006],[15.85419033200003,53.09365077800004],[15.816425043000038,53.08391449700008],[15.80069727700004,53.045726728000034],[15.767103440000028,53.02575865800003],[15.770264360000056,53.00361822500008],[15.741617907000034,52.99140622200008],[15.682859592000057,52.99600908100007],[15.622640611000065,52.98036518400005],[15.574775171000056,52.98853776300007],[15.547692316000052,53.01211572200003],[15.422386983000024,52.98358654700007],[15.357164234000038,52.94395431100003],[15.289823304000038,52.955410603000075],[15.32455537100003,52.89603540500008],[15.078142366000066,52.832506531000035],[15.034222429000067,52.85914620800003],[14.99018337800004,52.84540656900003],[14.97379909600005,52.86676524600006],[14.914207555000075,52.88694905300008],[14.893085873000075,52.862268345000075],[14.914062487000024,52.84304962300007],[14.869186570000068,52.844309862000046],[14.859464456000069,52.79495557300004],[14.79708101500006,52.755105979000064],[14.788732406000065,52.69822701900006],[14.742149609000023,52.64444841900007],[14.700192917000038,52.63357701400008],[14.631231746000026,52.65634711900003],[14.565063,52.62449699900003],[14.514601706000064,52.63993955900003],[14.436438,52.67990049900004],[14.346191210000029,52.752823455000055],[14.21348190200007,52.81708042000008],[14.13004810600006,52.83154519800007],[14.125820762000046,52.845334738000076],[14.156902842000022,52.87619475000008],[14.143658,52.96136849900006],[14.341983155000037,53.050466046000054],[14.384706166000058,53.13737418000005],[14.368612015000053,53.16823054400004],[14.375496927000029,53.19507190400003],[14.447765549000053,53.26196109500006],[14.42024835500007,53.28236320500008],[14.369736487000068,53.45162863400003],[14.306276138000044,53.54695281000005],[14.315229686000066,53.61347219700008],[14.286352325000053,53.63535931000007],[14.267542,53.69780649900008],[14.301424395000026,53.701711964000026],[14.287841193000077,53.72342791800003],[14.320169877000069,53.73652102800003],[14.39831736900004,53.682693880000045],[14.521492976000047,53.661358077000045],[14.59275023400005,53.59512857700008],[14.617406437000056,53.64688673400008],[14.549931714000024,53.67535912000005],[14.541168467000034,53.70381022200007],[14.559381704000032,53.75412670800006],[14.612637583000037,53.77060374200005],[14.608195616000046,53.82767189900005],[14.583596516000057,53.807337791000066],[14.572588886000062,53.84694192900008],[14.431981657000051,53.86459467700007],[14.430952608000041,53.89445960200004],[14.36945862500005,53.87883177600003],[14.378244737000045,53.857190080000066],[14.406779611000047,53.85794374500006],[14.407366652000064,53.84683523100006],[14.318117753000024,53.81647103800003],[14.213077500000054,53.866479499000036],[14.203686873000038,53.91330514600003],[14.226302,53.928652999000064],[14.386206103000063,53.91755365300003],[14.518984201000023,53.967123326000035],[14.745094891000065,54.01632653900003],[14.70358826100005,53.98689635300008],[14.639856587000054,53.87906583000006],[14.700298667000027,53.92409690300008],[14.74768300200003,53.93684303600003],[14.720842007000044,53.967080062000036],[14.763743109000075,53.97849183900007],[14.820787087000042,54.039154686000074],[15.267105369000035,54.14196028200007],[16.096306516000027,54.27329702600008],[16.22356748900006,54.32643589200006],[16.48711950200004,54.51952530800003],[16.58836627200003,54.55464084500005],[16.699085,54.56924699900003],[16.742362873000047,54.53308600400004],[16.759724162000055,54.49103610900005],[16.819375252000043,54.47183907800007],[16.838600215000042,54.43691344700005],[16.82783689000007,54.41544453300003],[16.854866611000034,54.38306204500003],[16.810186559000044,54.36488704700008],[16.825645215000065,54.345635737000066],[16.818742358000065,54.319386644000076],[16.85856065400003,54.29746876100006],[16.860763849000023,54.26071008200006],[16.73633716100005,54.23004794700006],[16.719234749000066,54.21322279800006],[16.80111547100006,54.114596506000055],[16.794454622000046,54.08213663200007],[16.81072589000007,54.066065035000065],[16.787280752000072,54.02551878400004],[16.792764500000033,53.985550499000055]]]}}]}