{"type": "FeatureCollection", "features": [{"type": "Feature", "properties": {"district": "Aveiro", "constituency_code": "PT-010000", "source": "Portuguese Ministry of Internal Administration official inset map", "schematic": true}, "geometry": {"type": "Polygon", "coordinates": [[[105.0, -105.0], [106.0, -104.0], [106.0, -102.0], [107.0, -101.0], [106.0, -100.0], [106.0, -99.0], [104.0, -100.0], [103.0, -99.0], [103.0, -97.0], [102.0, -96.0], [101.0, -96.0], [101.0, -98.0], [101.0, -99.0], [99.0, -98.0], [97.0, -97.0], [96.0, -95.0], [95.0, -93.0], [95.0, -92.0], [96.0, -89.0], [96.0, -88.0], [96.0, -87.0], [98.0, -80.0], [99.0, -76.0], [100.0, -73.0], [100.0, -72.0], [100.0, -71.0], [100.0, -70.0], [100.0, -69.0], [101.0, -69.0], [102.0, -68.0], [102.0, -69.0], [104.0, -69.0], [104.0, -68.0], [105.0, -68.0], [106.0, -69.0], [106.0, -68.0], [107.0, -68.0], [106.0, -67.0], [108.0, -67.0], [109.0, -68.0], [109.0, -69.0], [110.0, -70.0], [111.0, -69.0], [110.0, -68.0], [110.0, -67.0], [111.0, -67.0], [112.0, -68.0], [112.0, -67.0], [113.0, -67.0], [114.0, -66.0], [115.0, -66.0], [116.0, -67.0], [116.0, -68.0], [116.0, -69.0], [117.0, -69.0], [117.0, -70.0], [118.0, -70.0], [119.0, -70.0], [120.0, -71.0], [121.0, -70.0], [122.0, -69.0], [122.0, -70.0], [122.0, -71.0], [121.0, -72.0], [120.0, -73.0], [121.0, -74.0], [121.0, -76.0], [121.0, -77.0], [120.0, -77.0], [119.0, -77.0], [118.0, -77.0], [117.0, -77.0], [116.0, -77.0], [116.0, -79.0], [115.0, -80.0], [115.0, -81.0], [115.0, -82.0], [114.0, -82.0], [113.0, -83.0], [113.0, -84.0], [113.0, -85.0], [114.0, -85.0], [114.0, -87.0], [114.0, -88.0], [115.0, -89.0], [115.0, -90.0], [114.0, -90.0], [113.0, -90.0], [114.0, -92.0], [114.0, -93.0], [115.0, -93.0], [116.0, -94.0], [115.0, -95.0], [114.0, -95.0], [113.0, -95.0], [112.0, -96.0], [113.0, -97.0], [113.0, -98.0], [112.0, -99.0], [112.0, -100.0], [112.0, -101.0], [112.0, -102.0], [110.0, -103.0], [109.0, -104.0], [108.0, -105.0], [107.0, -106.0], [106.0, -106.0], [105.0, -106.0], [105.0, -105.0]]]}}, {"type": "Feature", "properties": {"district": "Beja", "constituency_code": "PT-020000", "source": "Portuguese Ministry of Internal Administration official inset map", "schematic": true}, "geometry": {"type": "Polygon", "coordinates": [[[92.0, -243.0], [93.0, -242.0], [93.0, -241.0], [93.0, -240.0], [93.0, -239.0], [94.0, -238.0], [94.0, -237.0], [93.0, -235.0], [93.0, -234.0], [93.0, -233.0], [94.0, -232.0], [95.0, -232.0], [97.0, -233.0], [98.0, -234.0], [98.0, -235.0], [99.0, -234.0], [100.0, -235.0], [101.0, -235.0], [102.0, -235.0], [102.0, -234.0], [102.0, -233.0], [103.0, -232.0], [103.0, -230.0], [104.0, -230.0], [106.0, -230.0], [107.0, -229.0], [108.0, -230.0], [108.0, -229.0], [110.0, -229.0], [112.0, -230.0], [112.0, -229.0], [113.0, -229.0], [113.0, -228.0], [114.0, -228.0], [113.0, -227.0], [113.0, -226.0], [113.0, -225.0], [114.0, -224.0], [114.0, -223.0], [113.0, -222.0], [113.0, -221.0], [111.0, -221.0], [110.0, -220.0], [109.0, -219.0], [110.0, -218.0], [110.0, -217.0], [111.0, -217.0], [111.0, -216.0], [111.0, -215.0], [112.0, -215.0], [113.0, -215.0], [114.0, -214.0], [115.0, -213.0], [116.0, -213.0], [117.0, -212.0], [119.0, -211.0], [120.0, -211.0], [120.0, -208.0], [119.0, -206.0], [120.0, -206.0], [121.0, -206.0], [122.0, -206.0], [123.0, -206.0], [124.0, -206.0], [125.0, -207.0], [126.0, -206.0], [129.0, -208.0], [131.0, -209.0], [132.0, -210.0], [133.0, -210.0], [134.0, -210.0], [135.0, -210.0], [136.0, -211.0], [138.0, -212.0], [139.0, -212.0], [140.0, -212.0], [141.0, -212.0], [142.0, -212.0], [143.0, -213.0], [143.0, -212.0], [146.0, -213.0], [147.0, -211.0], [148.0, -210.0], [148.0, -209.0], [149.0, -208.0], [150.0, -207.0], [151.0, -207.0], [152.0, -207.0], [152.0, -206.0], [153.0, -206.0], [154.0, -206.0], [155.0, -206.0], [155.0, -207.0], [155.0, -208.0], [156.0, -209.0], [158.0, -210.0], [158.0, -211.0], [158.0, -212.0], [160.0, -214.0], [161.0, -213.0], [162.0, -213.0], [162.0, -214.0], [163.0, -213.0], [164.0, -213.0], [165.0, -213.0], [165.0, -212.0], [166.0, -212.0], [166.0, -211.0], [167.0, -212.0], [168.0, -211.0], [168.0, -212.0], [167.0, -213.0], [167.0, -214.0], [167.0, -215.0], [167.0, -216.0], [166.0, -217.0], [166.0, -219.0], [166.0, -220.0], [166.0, -221.0], [165.0, -221.0], [164.0, -221.0], [163.0, -221.0], [163.0, -220.0], [161.0, -220.0], [161.0, -221.0], [161.0, -222.0], [159.0, -223.0], [158.0, -222.0], [157.0, -223.0], [156.0, -223.0], [155.0, -223.0], [156.0, -224.0], [156.0, -225.0], [155.0, -226.0], [155.0, -227.0], [155.0, -228.0], [154.0, -229.0], [153.0, -231.0], [152.0, -232.0], [151.0, -233.0], [150.0, -234.0], [149.0, -234.0], [149.0, -235.0], [149.0, -236.0], [148.0, -237.0], [148.0, -238.0], [148.0, -239.0], [148.0, -240.0], [147.0, -240.0], [147.0, -241.0], [147.0, -242.0], [146.0, -242.0], [146.0, -243.0], [146.0, -244.0], [145.0, -244.0], [146.0, -245.0], [145.0, -245.0], [145.0, -246.0], [145.0, -247.0], [143.0, -247.0], [142.0, -247.0], [142.0, -248.0], [141.0, -248.0], [140.0, -248.0], [139.0, -248.0], [138.0, -248.0], [137.0, -248.0], [136.0, -249.0], [135.0, -249.0], [134.0, -249.0], [134.0, -250.0], [133.0, -250.0], [132.0, -251.0], [131.0, -251.0], [130.0, -251.0], [130.0, -252.0], [129.0, -253.0], [129.0, -252.0], [128.0, -253.0], [127.0, -253.0], [126.0, -253.0], [126.0, -254.0], [126.0, -255.0], [125.0, -255.0], [124.0, -255.0], [124.0, -256.0], [123.0, -257.0], [122.0, -257.0], [121.0, -257.0], [119.0, -256.0], [118.0, -256.0], [117.0, -255.0], [116.0, -254.0], [115.0, -254.0], [114.0, -254.0], [114.0, -253.0], [115.0, -253.0], [114.0, -252.0], [113.0, -251.0], [112.0, -252.0], [112.0, -251.0], [111.0, -252.0], [111.0, -251.0], [110.0, -252.0], [109.0, -252.0], [109.0, -253.0], [108.0, -252.0], [108.0, -254.0], [107.0, -254.0], [106.0, -254.0], [105.0, -254.0], [104.0, -254.0], [104.0, -253.0], [103.0, -253.0], [102.0, -252.0], [102.0, -253.0], [100.0, -253.0], [99.0, -254.0], [98.0, -253.0], [97.0, -253.0], [96.0, -253.0], [96.0, -252.0], [95.0, -252.0], [95.0, -251.0], [94.0, -251.0], [93.0, -251.0], [93.0, -250.0], [93.0, -249.0], [93.0, -248.0], [93.0, -247.0], [94.0, -247.0], [94.0, -246.0], [93.0, -245.0], [94.0, -245.0], [93.0, -244.0], [93.0, -243.0], [92.0, -243.0]]]}}, {"type": "Feature", "properties": {"district": "Braga", "constituency_code": "PT-030000", "source": "Portuguese Ministry of Internal Administration official inset map", "schematic": true}, "geometry": {"type": "Polygon", "coordinates": [[[101.0, -37.0], [102.0, -37.0], [103.0, -37.0], [104.0, -38.0], [105.0, -36.0], [104.0, -36.0], [105.0, -35.0], [106.0, -33.0], [106.0, -32.0], [107.0, -32.0], [108.0, -32.0], [109.0, -31.0], [111.0, -31.0], [113.0, -31.0], [114.0, -30.0], [115.0, -30.0], [117.0, -29.0], [118.0, -28.0], [119.0, -28.0], [120.0, -28.0], [122.0, -28.0], [123.0, -28.0], [123.0, -29.0], [123.0, -30.0], [123.0, -31.0], [122.0, -31.0], [122.0, -33.0], [121.5, -34.0], [122.0, -34.0], [123.0, -34.0], [124.0, -34.0], [125.0, -34.0], [125.0, -35.0], [126.0, -35.0], [126.0, -36.0], [126.0, -37.0], [125.0, -39.0], [126.0, -39.0], [127.0, -39.0], [128.0, -40.0], [129.0, -40.0], [129.0, -39.0], [130.0, -40.0], [131.0, -38.0], [132.0, -39.0], [132.0, -40.0], [133.0, -40.0], [132.0, -41.0], [131.0, -41.0], [132.0, -42.0], [131.0, -43.0], [130.0, -44.0], [129.0, -43.0], [129.0, -45.0], [128.0, -45.0], [127.0, -48.0], [127.0, -49.0], [126.0, -49.0], [126.0, -50.0], [126.0, -51.0], [125.0, -53.0], [124.0, -53.0], [123.0, -53.0], [123.0, -52.0], [122.0, -53.0], [122.0, -52.0], [121.0, -52.0], [120.0, -52.0], [120.0, -51.0], [119.0, -50.0], [118.0, -49.0], [117.0, -49.0], [117.0, -50.0], [116.0, -50.0], [115.0, -51.0], [114.0, -52.0], [113.0, -51.0], [111.0, -51.0], [110.0, -51.0], [111.0, -50.0], [109.0, -51.0], [108.0, -51.0], [107.0, -51.0], [106.0, -51.0], [105.0, -52.0], [104.0, -52.0], [103.0, -52.0], [102.0, -52.0], [101.0, -50.0], [102.0, -50.0], [103.0, -49.0], [102.0, -49.0], [101.0, -48.0], [100.0, -48.0], [100.0, -47.0], [99.0, -47.0], [98.0, -47.0], [98.0, -46.0], [97.0, -46.0], [95.0, -44.0], [95.0, -43.0], [95.0, -42.0], [94.0, -38.0], [96.0, -38.0], [97.0, -38.0], [98.0, -37.0], [100.0, -37.0], [101.0, -37.0]]]}}, {"type": "Feature", "properties": {"district": "Bragança", "constituency_code": "PT-040000", "source": "Portuguese Ministry of Internal Administration official inset map", "schematic": true}, "geometry": {"type": "Polygon", "coordinates": [[[159.0, -61.0], [158.0, -61.0], [158.0, -63.0], [157.0, -63.0], [156.0, -63.0], [154.0, -62.0], [153.0, -62.0], [152.0, -62.0], [151.0, -62.0], [150.0, -62.0], [150.0, -61.0], [149.0, -61.0], [149.0, -60.0], [147.0, -59.0], [148.0, -57.0], [149.0, -57.0], [149.0, -56.0], [149.0, -55.0], [149.0, -54.0], [152.0, -52.0], [150.0, -50.0], [150.0, -48.0], [150.0, -47.0], [151.0, -47.0], [151.0, -46.0], [152.0, -46.0], [152.0, -44.0], [153.0, -43.0], [155.0, -43.0], [154.0, -41.0], [154.0, -39.0], [154.0, -38.0], [154.0, -37.0], [155.0, -35.0], [155.0, -33.0], [156.0, -33.0], [156.0, -32.0], [157.0, -32.0], [157.0, -31.0], [157.0, -30.0], [156.0, -30.0], [156.0, -28.0], [155.0, -27.0], [156.0, -27.0], [156.0, -25.0], [156.0, -24.0], [156.0, -23.0], [157.0, -23.0], [157.0, -22.0], [156.0, -21.0], [156.0, -20.0], [157.0, -19.0], [158.0, -19.0], [160.0, -20.0], [161.0, -21.0], [162.0, -21.0], [163.0, -21.0], [164.0, -20.0], [165.0, -20.0], [166.0, -21.0], [167.0, -21.0], [168.0, -21.0], [170.0, -21.0], [170.0, -19.0], [172.0, -19.0], [173.0, -21.0], [174.0, -21.0], [175.0, -22.0], [176.0, -21.0], [179.0, -20.0], [180.0, -21.0], [180.0, -22.0], [181.0, -22.0], [180.0, -24.0], [181.0, -24.0], [182.0, -25.0], [181.0, -26.0], [181.0, -27.0], [181.0, -28.0], [181.0, -29.0], [180.0, -30.0], [180.0, -31.0], [180.0, -32.0], [181.0, -32.0], [181.0, -33.0], [180.0, -34.0], [181.0, -34.0], [182.0, -35.0], [183.0, -36.0], [184.0, -35.0], [184.0, -34.0], [185.0, -34.0], [191.0, -36.0], [193.0, -38.0], [194.0, -38.0], [195.0, -39.0], [193.0, -42.0], [192.0, -43.0], [192.0, -44.0], [191.0, -45.0], [191.0, -46.0], [191.0, -47.0], [190.0, -48.0], [189.0, -48.0], [190.0, -49.0], [189.0, -50.0], [188.0, -49.0], [187.0, -50.0], [188.0, -51.0], [187.0, -51.0], [186.0, -52.0], [185.0, -53.0], [184.0, -54.0], [183.0, -54.0], [184.0, -55.0], [183.0, -56.0], [182.0, -55.0], [182.0, -56.0], [181.0, -56.0], [180.0, -57.0], [179.0, -56.0], [178.0, -57.0], [177.0, -57.0], [177.0, -58.0], [176.0, -58.0], [176.0, -59.0], [175.0, -59.0], [176.0, -60.0], [175.0, -60.0], [173.0, -62.0], [173.0, -64.0], [171.0, -67.0], [171.0, -68.0], [169.0, -68.0], [168.0, -68.0], [167.0, -67.0], [166.0, -68.0], [165.0, -67.0], [164.0, -68.0], [164.0, -67.0], [163.0, -67.0], [162.0, -67.0], [162.0, -66.0], [161.0, -65.0], [162.0, -64.0], [162.0, -63.0], [161.0, -63.0], [159.0, -62.0], [159.0, -61.0]]]}}, {"type": "Feature", "properties": {"district": "Castelo Branco", "constituency_code": "PT-050000", "source": "Portuguese Ministry of Internal Administration official inset map", "schematic": true}, "geometry": {"type": "Polygon", "coordinates": [[[116.0, -136.0], [116.0, -135.0], [116.0, -134.0], [116.0, -133.0], [116.0, -132.0], [115.0, -132.0], [114.0, -132.0], [114.0, -131.0], [114.0, -130.0], [115.0, -130.0], [115.0, -129.0], [116.0, -128.0], [117.0, -128.0], [118.0, -127.0], [119.0, -127.0], [120.0, -126.0], [120.0, -125.0], [121.0, -124.0], [121.0, -123.0], [122.0, -123.0], [122.0, -122.0], [123.0, -123.0], [123.0, -122.0], [124.0, -123.0], [124.0, -121.0], [125.0, -122.0], [125.0, -121.0], [126.0, -122.0], [126.0, -121.0], [127.0, -122.0], [127.0, -121.0], [127.0, -120.0], [129.0, -121.0], [129.0, -120.0], [129.0, -119.0], [130.0, -118.0], [131.0, -118.0], [133.0, -119.0], [133.0, -118.0], [133.0, -117.0], [133.0, -116.0], [134.0, -116.0], [134.0, -117.0], [135.0, -116.0], [136.0, -115.0], [136.0, -114.0], [135.0, -114.0], [134.0, -112.0], [133.0, -112.0], [133.0, -111.0], [133.0, -110.0], [134.0, -110.0], [134.0, -109.0], [135.0, -109.0], [136.0, -108.0], [138.0, -107.0], [140.0, -106.0], [140.0, -105.0], [142.0, -105.0], [142.0, -104.0], [143.0, -104.0], [144.0, -104.0], [144.0, -103.0], [145.0, -101.0], [146.0, -100.0], [147.0, -100.0], [147.0, -101.0], [148.0, -101.0], [149.0, -101.0], [151.0, -101.0], [152.0, -99.0], [153.0, -100.0], [153.0, -99.0], [154.0, -100.0], [154.0, -102.0], [154.0, -103.0], [153.0, -103.0], [151.0, -105.0], [152.0, -106.0], [153.0, -107.0], [154.0, -107.0], [155.0, -107.0], [156.0, -107.0], [156.0, -106.0], [157.0, -106.0], [158.0, -106.0], [158.0, -107.0], [159.0, -106.0], [159.0, -105.0], [160.0, -104.0], [161.0, -105.0], [161.0, -106.0], [162.0, -106.0], [164.0, -106.0], [165.0, -106.0], [166.0, -107.0], [164.0, -108.0], [164.0, -109.0], [164.0, -110.0], [164.0, -111.0], [164.0, -112.0], [164.0, -113.0], [164.0, -114.0], [165.0, -115.0], [165.0, -114.0], [166.0, -114.0], [166.0, -115.0], [167.0, -115.0], [168.0, -116.0], [169.0, -117.0], [169.0, -118.0], [170.0, -119.0], [170.0, -120.0], [169.0, -121.0], [169.0, -122.0], [169.0, -123.0], [168.0, -124.0], [168.0, -126.0], [168.0, -127.0], [168.0, -128.0], [167.0, -129.0], [166.0, -129.0], [165.0, -130.0], [165.0, -131.0], [165.0, -133.0], [165.0, -134.0], [165.0, -135.0], [164.0, -137.0], [161.0, -138.0], [160.0, -138.0], [159.0, -138.0], [157.0, -138.0], [156.0, -138.0], [153.0, -138.0], [152.0, -139.0], [151.0, -138.0], [149.0, -138.0], [148.0, -138.0], [146.0, -138.0], [143.0, -138.0], [142.0, -138.0], [141.0, -138.0], [141.0, -139.0], [140.0, -140.0], [139.0, -139.0], [138.0, -139.0], [137.0, -140.0], [137.0, -141.0], [136.0, -141.0], [134.0, -143.0], [133.0, -144.0], [132.0, -144.0], [132.0, -143.0], [133.0, -143.0], [133.0, -142.0], [132.0, -142.0], [132.0, -141.0], [131.0, -140.0], [131.0, -139.0], [130.0, -139.0], [130.0, -138.0], [129.0, -138.0], [128.0, -138.0], [127.0, -138.0], [127.0, -137.0], [127.0, -136.0], [127.0, -135.0], [127.0, -134.0], [126.0, -134.0], [125.0, -134.0], [124.0, -134.0], [123.0, -134.0], [123.0, -136.0], [123.0, -137.0], [122.0, -138.0], [123.0, -140.0], [121.0, -140.0], [120.0, -140.0], [119.0, -140.0], [117.0, -139.0], [116.0, -139.0], [116.0, -138.0], [116.0, -137.0], [116.0, -136.0]]]}}, {"type": "Feature", "properties": {"district": "Coimbra", "constituency_code": "PT-060000", "source": "Portuguese Ministry of Internal Administration official inset map", "schematic": true}, "geometry": {"type": "MultiPolygon", "coordinates": [[[[91.0, -113.0], [90.0, -111.0], [90.0, -110.0], [92.0, -106.0], [93.0, -100.0], [95.0, -94.0], [97.0, -96.0], [99.0, -98.0], [101.0, -99.0], [101.0, -98.0], [102.0, -96.0], [103.0, -97.0], [103.0, -99.0], [103.0, -100.0], [105.0, -100.0], [106.0, -99.0], [106.0, -100.0], [106.0, -102.0], [107.0, -102.0], [106.0, -103.0], [106.0, -104.0], [105.0, -104.0], [105.0, -105.0], [106.0, -106.0], [107.0, -106.0], [108.0, -106.0], [108.0, -105.0], [109.0, -104.0], [110.0, -103.0], [111.0, -103.0], [112.0, -102.0], [113.0, -102.0], [114.0, -103.0], [116.0, -104.0], [117.0, -103.0], [118.0, -103.0], [119.0, -103.0], [120.0, -103.0], [121.0, -103.0], [122.0, -103.0], [123.0, -102.0], [124.0, -101.0], [125.0, -101.0], [126.0, -100.0], [127.0, -100.0], [127.0, -99.0], [128.0, -99.0], [129.0, -98.0], [130.0, -96.0], [131.0, -96.0], [132.0, -95.0], [133.0, -97.0], [133.0, -98.0], [132.0, -98.0], [132.0, -99.0], [132.0, -100.0], [133.0, -101.0], [133.0, -102.0], [134.0, -103.0], [135.0, -104.0], [134.0, -104.0], [134.0, -105.0], [133.0, -106.0], [132.0, -107.0], [133.0, -108.0], [134.0, -109.0], [133.0, -111.0], [133.0, -112.0], [134.0, -113.0], [135.0, -114.0], [136.0, -114.0], [136.0, -115.0], [135.0, -116.0], [134.0, -117.0], [134.0, -116.0], [133.0, -117.0], [133.0, -118.0], [132.0, -118.0], [131.0, -118.0], [129.0, -119.0], [129.0, -120.0], [129.0, -121.0], [127.0, -120.0], [127.0, -121.0], [126.0, -121.0], [126.0, -122.0], [125.0, -121.0], [125.0, -122.0], [124.0, -122.0], [124.0, -123.0], [123.0, -122.0], [123.0, -123.0], [122.0, -123.0], [122.0, -124.0], [121.0, -123.0], [121.0, -122.0], [121.0, -121.0], [120.0, -121.0], [119.0, -120.0], [119.0, -119.0], [120.0, -118.0], [119.0, -117.0], [119.0, -116.0], [118.0, -117.0], [117.0, -118.0], [116.0, -117.0], [115.0, -118.0], [114.0, -120.0], [115.0, -121.0], [115.0, -122.0], [114.0, -123.0], [113.0, -121.0], [113.0, -122.0], [112.0, -123.0], [111.0, -124.0], [110.0, -124.0], [110.0, -123.0], [111.0, -123.0], [110.0, -122.0], [110.0, -120.0], [109.0, -120.0], [108.0, -120.0], [106.0, -121.0], [105.0, -121.0], [105.0, -123.0], [104.0, -123.0], [104.0, -121.0], [104.0, -119.0], [102.0, -119.0], [101.0, -121.0], [100.0, -120.0], [99.0, -119.0], [98.0, -119.0], [97.0, -119.0], [96.0, -118.0], [94.0, -119.0], [93.0, -120.0], [92.0, -119.0], [91.0, -119.0], [91.0, -118.0], [90.0, -118.0], [91.0, -115.0], [91.0, -113.0]]], [[[121.0, -123.0], [121.0, -124.0], [120.0, -124.0], [121.0, -123.0]]]]}}, {"type": "Feature", "properties": {"district": "Évora", "constituency_code": "PT-070000", "source": "Portuguese Ministry of Internal Administration official inset map", "schematic": true}, "geometry": {"type": "Polygon", "coordinates": [[[118.0, -182.0], [120.0, -183.0], [120.0, -182.0], [120.0, -181.0], [119.0, -181.0], [118.0, -180.0], [118.0, -179.0], [119.0, -178.0], [118.0, -178.0], [117.0, -178.0], [117.0, -177.0], [116.0, -177.0], [115.0, -176.0], [116.0, -175.0], [116.0, -173.0], [116.0, -172.0], [117.0, -173.0], [119.0, -170.0], [119.0, -171.0], [120.0, -171.0], [121.0, -170.0], [122.0, -171.0], [123.0, -171.0], [124.0, -171.0], [124.0, -172.0], [125.0, -172.0], [125.0, -174.0], [125.0, -175.0], [126.0, -174.0], [128.0, -173.0], [129.0, -173.0], [129.0, -174.0], [130.0, -175.0], [130.0, -176.0], [131.0, -176.0], [133.0, -177.0], [134.0, -176.0], [135.0, -177.0], [136.0, -176.0], [136.0, -175.0], [137.0, -176.0], [138.0, -175.0], [139.0, -176.0], [140.0, -176.0], [140.0, -175.0], [142.0, -174.0], [143.0, -174.0], [143.0, -173.0], [144.0, -172.0], [145.0, -172.0], [146.0, -173.0], [147.0, -174.0], [147.0, -175.0], [148.0, -176.0], [148.0, -177.0], [148.0, -178.0], [149.0, -178.0], [149.0, -179.0], [148.0, -179.0], [149.0, -180.0], [150.0, -181.0], [151.0, -181.0], [151.0, -182.0], [152.0, -182.0], [153.0, -181.0], [152.0, -181.0], [153.0, -180.0], [154.0, -180.0], [155.0, -180.0], [156.0, -179.0], [156.0, -180.0], [157.0, -180.0], [157.0, -181.0], [157.0, -182.0], [157.0, -183.0], [157.0, -184.0], [155.0, -186.0], [155.0, -187.0], [155.0, -188.0], [155.0, -190.0], [156.0, -190.0], [155.0, -191.0], [155.0, -193.0], [154.0, -193.0], [153.0, -195.0], [153.0, -196.0], [153.0, -197.0], [153.0, -198.0], [153.0, -199.0], [153.0, -200.0], [154.0, -201.0], [155.0, -203.0], [157.0, -205.0], [159.0, -208.0], [160.0, -208.0], [160.0, -209.0], [161.0, -212.0], [161.0, -213.0], [160.0, -213.0], [160.0, -214.0], [159.0, -212.0], [158.0, -211.0], [158.0, -210.0], [157.0, -209.0], [155.0, -207.0], [155.0, -206.0], [154.0, -206.0], [153.0, -206.0], [152.0, -206.0], [151.0, -207.0], [150.0, -207.0], [150.0, -208.0], [149.0, -209.0], [148.0, -209.0], [148.0, -210.0], [147.0, -211.0], [146.0, -212.0], [146.0, -213.0], [144.0, -213.0], [142.0, -212.0], [141.0, -212.0], [139.0, -212.0], [136.0, -210.0], [134.0, -210.0], [133.0, -210.0], [132.0, -210.0], [132.0, -209.0], [130.0, -209.0], [129.0, -208.0], [126.0, -206.0], [125.0, -207.0], [124.0, -206.0], [123.0, -206.0], [122.0, -206.0], [120.0, -206.0], [119.0, -206.0], [118.0, -205.0], [116.0, -205.0], [115.0, -204.0], [114.0, -203.0], [113.0, -203.0], [114.0, -202.0], [113.0, -201.0], [114.0, -201.0], [114.0, -200.0], [113.0, -200.0], [113.0, -199.0], [113.0, -198.0], [112.0, -196.0], [111.0, -195.0], [110.0, -195.0], [109.0, -196.0], [108.0, -196.0], [107.0, -196.0], [106.0, -195.0], [105.0, -195.0], [105.0, -196.0], [104.0, -196.0], [104.0, -195.0], [103.0, -195.0], [101.0, -194.0], [100.0, -194.0], [100.0, -193.0], [99.0, -192.0], [99.0, -191.0], [101.0, -190.0], [102.0, -189.0], [103.0, -188.0], [105.0, -186.0], [105.0, -185.0], [106.0, -184.0], [104.0, -184.0], [105.0, -182.0], [107.0, -182.0], [108.0, -181.0], [109.0, -180.0], [109.0, -181.0], [110.0, -180.0], [110.0, -179.0], [112.0, -180.0], [113.0, -179.0], [114.0, -178.0], [114.0, -179.0], [115.0, -180.0], [115.0, -181.0], [117.0, -180.0], [117.0, -182.0], [118.0, -182.0]], [[122.0, -171.0], [121.0, -171.0], [121.0, -173.0], [122.0, -172.0], [122.0, -171.0]]]}}, {"type": "Feature", "properties": {"district": "Faro", "constituency_code": "PT-080000", "source": "Portuguese Ministry of Internal Administration official inset map", "schematic": true}, "geometry": {"type": "Polygon", "coordinates": [[[125.0, -254.0], [126.0, -253.0], [127.0, -253.0], [128.0, -252.0], [128.0, -253.0], [129.0, -252.0], [129.0, -253.0], [130.0, -252.0], [130.0, -251.0], [131.0, -251.0], [132.0, -251.0], [133.0, -250.0], [134.0, -250.0], [135.0, -249.0], [136.0, -249.0], [137.0, -248.0], [139.0, -248.0], [140.0, -248.0], [141.0, -248.0], [142.0, -247.0], [143.0, -246.0], [143.0, -247.0], [144.0, -247.0], [145.0, -246.0], [146.0, -247.0], [146.0, -248.0], [147.0, -248.0], [148.0, -250.0], [148.0, -252.0], [148.0, -253.0], [149.0, -255.0], [148.0, -256.0], [148.0, -257.0], [149.0, -259.0], [149.0, -260.0], [149.0, -262.0], [150.0, -263.0], [150.0, -264.0], [150.0, -265.0], [147.0, -264.0], [145.0, -265.0], [142.0, -267.0], [140.0, -269.0], [134.0, -273.0], [133.0, -274.0], [132.0, -274.0], [131.0, -275.0], [130.0, -275.0], [129.0, -275.0], [128.0, -274.0], [125.0, -273.0], [122.0, -270.0], [121.0, -270.0], [117.0, -269.0], [116.0, -269.0], [115.0, -269.0], [114.0, -270.0], [113.0, -269.0], [109.0, -269.0], [106.0, -268.0], [104.0, -268.0], [103.0, -268.0], [100.0, -267.0], [99.0, -268.0], [98.0, -268.0], [98.0, -269.0], [96.0, -269.0], [94.0, -270.0], [93.0, -270.0], [92.0, -270.0], [90.0, -271.0], [89.0, -271.0], [89.0, -272.0], [88.0, -272.0], [88.0, -273.0], [87.0, -274.0], [87.0, -273.0], [86.0, -272.0], [85.0, -272.0], [85.0, -271.0], [86.0, -270.0], [87.0, -268.0], [88.0, -267.0], [88.0, -266.0], [89.0, -265.0], [89.0, -264.0], [88.0, -263.0], [89.0, -262.0], [90.0, -260.0], [90.0, -259.0], [90.0, -258.0], [90.0, -257.0], [91.0, -256.0], [92.0, -254.0], [93.0, -251.0], [95.0, -251.0], [95.0, -252.0], [96.0, -253.0], [97.0, -253.0], [98.0, -253.0], [99.0, -254.0], [100.0, -254.0], [100.0, -253.0], [101.0, -253.0], [102.0, -252.0], [105.0, -254.0], [106.0, -254.0], [107.0, -254.0], [108.0, -254.0], [108.0, -253.0], [108.0, -252.0], [109.0, -252.0], [110.0, -252.0], [111.0, -251.0], [112.0, -251.0], [112.0, -252.0], [113.0, -251.0], [114.0, -251.0], [114.0, -252.0], [115.0, -253.0], [115.0, -254.0], [116.0, -254.0], [116.0, -255.0], [118.0, -255.0], [120.0, -256.0], [121.0, -257.0], [122.0, -257.0], [123.0, -257.0], [124.0, -256.0], [124.0, -255.0], [125.0, -255.0], [126.0, -255.0], [125.0, -254.0]]]}}, {"type": "Feature", "properties": {"district": "Guarda", "constituency_code": "PT-090000", "source": "Portuguese Ministry of Internal Administration official inset map", "schematic": true}, "geometry": {"type": "Polygon", "coordinates": [[[159.0, -61.0], [159.0, -62.0], [160.0, -62.0], [161.0, -63.0], [162.0, -63.0], [162.0, -64.0], [161.0, -65.0], [161.0, -66.0], [162.0, -66.0], [162.0, -67.0], [164.0, -67.0], [164.0, -68.0], [165.0, -67.0], [166.0, -68.0], [167.0, -68.0], [167.0, -69.0], [168.0, -71.0], [170.0, -74.0], [171.0, -75.0], [172.0, -76.0], [172.0, -77.0], [171.0, -77.0], [171.0, -78.0], [171.0, -80.0], [171.0, -81.0], [171.0, -83.0], [171.0, -84.0], [172.0, -85.0], [172.0, -86.0], [172.0, -87.0], [171.0, -89.0], [171.0, -90.0], [171.0, -91.0], [171.0, -92.0], [172.0, -93.0], [172.0, -94.0], [171.0, -96.0], [171.0, -99.0], [172.0, -101.0], [173.0, -102.0], [173.0, -103.0], [172.0, -104.0], [171.0, -104.0], [170.0, -105.0], [168.0, -107.0], [166.0, -107.0], [164.0, -106.0], [162.0, -106.0], [161.0, -106.0], [160.0, -104.0], [159.0, -104.0], [158.0, -107.0], [156.0, -106.0], [156.0, -107.0], [154.0, -107.0], [153.0, -107.0], [152.0, -106.0], [151.0, -105.0], [153.0, -105.0], [154.0, -103.0], [154.0, -102.0], [154.0, -100.0], [153.0, -99.0], [152.0, -99.0], [151.0, -101.0], [150.0, -101.0], [149.0, -101.0], [148.0, -101.0], [146.0, -100.0], [144.0, -102.0], [144.0, -103.0], [144.0, -104.0], [143.0, -104.0], [142.0, -105.0], [141.0, -104.0], [140.0, -105.0], [139.0, -106.0], [139.0, -107.0], [138.0, -107.0], [137.0, -107.0], [134.0, -108.0], [133.0, -108.0], [132.0, -107.0], [133.0, -106.0], [134.0, -104.0], [134.0, -103.0], [133.0, -103.0], [133.0, -102.0], [133.0, -100.0], [132.0, -100.0], [131.0, -99.0], [133.0, -98.0], [133.0, -97.0], [132.0, -95.0], [133.0, -95.0], [134.0, -95.0], [134.0, -94.0], [135.0, -94.0], [136.0, -94.0], [137.0, -93.0], [138.0, -92.0], [140.0, -92.0], [142.0, -91.0], [142.0, -89.0], [142.0, -88.0], [143.0, -87.0], [143.0, -86.0], [143.0, -85.0], [142.0, -85.0], [141.0, -83.0], [141.0, -81.0], [140.0, -81.0], [140.0, -80.0], [141.0, -79.0], [141.0, -78.0], [142.0, -76.0], [144.0, -76.0], [145.0, -77.0], [146.0, -78.0], [146.0, -79.0], [147.0, -79.0], [148.0, -77.0], [148.0, -76.0], [149.0, -76.0], [149.0, -75.0], [150.0, -74.0], [150.0, -73.0], [151.0, -73.0], [151.0, -71.0], [149.0, -70.0], [150.0, -69.0], [151.0, -68.0], [151.0, -66.0], [151.0, -64.0], [152.0, -62.0], [153.0, -63.0], [155.0, -62.0], [155.0, -63.0], [157.0, -63.0], [158.0, -63.0], [158.0, -62.0], [159.0, -61.0]]]}}, {"type": "Feature", "properties": {"district": "Leiria", "constituency_code": "PT-100000", "source": "Portuguese Ministry of Internal Administration official inset map", "schematic": true}, "geometry": {"type": "MultiPolygon", "coordinates": [[[[71.0, -153.0], [73.0, -152.0], [74.0, -152.0], [77.0, -149.0], [78.0, -147.0], [79.0, -146.0], [80.0, -145.0], [81.0, -145.0], [82.0, -144.0], [83.0, -142.0], [83.0, -141.0], [84.0, -137.0], [85.0, -133.0], [87.0, -128.0], [87.0, -127.0], [90.0, -118.0], [91.0, -119.0], [93.0, -119.0], [94.0, -120.0], [95.0, -119.0], [97.0, -119.0], [98.0, -119.0], [99.0, -119.0], [99.0, -120.0], [100.0, -120.0], [100.0, -121.0], [101.0, -121.0], [102.0, -120.0], [104.0, -119.0], [104.0, -121.0], [104.0, -122.0], [105.0, -123.0], [105.0, -122.0], [105.0, -121.0], [106.0, -121.0], [107.0, -120.0], [108.0, -120.0], [109.0, -120.0], [110.0, -122.0], [110.0, -123.0], [110.0, -124.0], [111.0, -124.0], [113.0, -122.0], [113.0, -121.0], [114.0, -123.0], [115.0, -122.0], [115.0, -121.0], [114.0, -121.0], [114.0, -119.0], [115.0, -118.0], [116.0, -117.0], [117.0, -118.0], [118.0, -117.0], [119.0, -116.0], [119.0, -117.0], [120.0, -118.0], [119.0, -118.0], [119.0, -120.0], [120.0, -121.0], [121.0, -121.0], [121.0, -123.0], [121.0, -124.0], [120.0, -125.0], [120.0, -126.0], [119.0, -127.0], [118.0, -127.0], [118.0, -128.0], [117.0, -128.0], [116.0, -128.0], [115.0, -129.0], [115.0, -130.0], [114.0, -130.0], [114.0, -131.0], [113.0, -131.0], [113.0, -133.0], [112.0, -133.0], [112.0, -132.0], [111.0, -132.0], [111.0, -133.0], [110.0, -133.0], [109.0, -133.0], [109.0, -134.0], [108.0, -134.0], [107.0, -133.0], [107.0, -131.0], [107.0, -130.0], [107.0, -129.0], [106.0, -129.0], [106.0, -130.0], [105.0, -130.0], [104.0, -131.0], [103.0, -131.0], [102.0, -131.0], [100.0, -131.0], [100.0, -132.0], [99.0, -133.0], [99.0, -135.0], [101.0, -136.0], [100.0, -136.0], [100.0, -137.0], [100.0, -138.0], [98.0, -139.0], [98.0, -140.0], [98.0, -141.0], [98.0, -142.0], [99.0, -143.0], [98.0, -144.0], [97.0, -145.0], [97.0, -144.0], [96.0, -144.0], [96.0, -145.0], [96.0, -146.0], [97.0, -146.0], [97.0, -147.0], [96.0, -147.0], [95.0, -147.0], [93.0, -147.0], [92.0, -147.0], [91.0, -147.0], [90.0, -147.0], [90.0, -148.0], [89.0, -150.0], [88.0, -151.0], [87.0, -151.0], [86.0, -152.0], [86.0, -154.0], [86.0, -155.0], [86.0, -156.0], [85.0, -156.0], [84.0, -156.0], [84.0, -155.0], [83.0, -156.0], [81.0, -157.0], [81.0, -159.0], [80.0, -160.0], [79.0, -160.0], [78.0, -160.0], [78.0, -159.0], [78.0, -158.0], [78.0, -157.0], [78.0, -156.0], [77.0, -156.0], [76.0, -156.0], [76.0, -155.0], [75.0, -156.0], [74.0, -156.0], [73.0, -157.0], [73.0, -156.0], [72.0, -156.0], [72.0, -155.0], [71.0, -153.0]]], [[[71.0, -153.0], [70.0, -153.0], [71.0, -152.0], [71.0, -153.0]]]]}}, {"type": "Feature", "properties": {"district": "Lisboa", "constituency_code": "PT-110000", "source": "Portuguese Ministry of Internal Administration official inset map", "schematic": true}, "geometry": {"type": "Polygon", "coordinates": [[[66.0, -182.0], [66.0, -181.0], [68.0, -178.0], [69.0, -175.0], [69.0, -173.0], [69.0, -173.0], [69.0, -172.0], [69.0, -171.0], [69.0, -169.0], [69.0, -167.0], [70.0, -166.0], [70.0, -164.0], [72.0, -162.0], [72.0, -160.0], [72.0, -159.0], [73.0, -157.0], [73.0, -156.0], [74.0, -156.0], [75.0, -156.0], [76.0, -155.0], [77.0, -156.0], [79.0, -158.0], [78.0, -160.0], [79.0, -160.0], [79.0, -160.0], [80.0, -159.0], [80.0, -160.0], [81.0, -159.0], [81.0, -159.0], [81.0, -158.0], [82.0, -157.0], [83.0, -156.0], [83.0, -156.0], [85.0, -156.0], [86.0, -156.0], [87.0, -157.0], [87.0, -159.0], [88.0, -159.0], [89.0, -159.0], [90.0, -159.0], [91.0, -159.0], [91.0, -160.0], [93.0, -161.0], [92.0, -162.0], [90.0, -162.0], [89.0, -163.0], [91.0, -164.0], [93.0, -166.0], [94.0, -167.0], [94.0, -167.0], [94.0, -168.0], [93.0, -170.0], [91.0, -170.0], [92.0, -171.0], [91.0, -172.0], [91.0, -173.0], [91.0, -173.0], [91.0, -174.0], [90.0, -175.0], [89.0, -176.0], [89.0, -177.0], [89.0, -178.0], [87.0, -179.0], [86.0, -182.0], [86.0, -181.0], [85.0, -181.0], [85.0, -180.0], [85.0, -180.0], [85.0, -179.0], [84.0, -180.0], [83.0, -181.0], [82.0, -182.0], [82.0, -184.0], [81.0, -185.0], [79.0, -186.0], [79.0, -186.0], [77.0, -187.0], [75.0, -187.0], [73.0, -188.0], [71.0, -187.0], [70.0, -186.0], [69.0, -187.0], [68.0, -187.0], [67.0, -185.0], [67.0, -184.0], [66.0, -183.0], [66.0, -182.0], [66.0, -182.0]]]}}, {"type": "Feature", "properties": {"district": "Portalegre", "constituency_code": "PT-120000", "source": "Portuguese Ministry of Internal Administration official inset map", "schematic": true}, "geometry": {"type": "MultiPolygon", "coordinates": [[[[122.0, -171.0], [121.0, -170.0], [120.0, -171.0], [119.0, -171.0], [119.0, -170.0], [117.0, -173.0], [116.0, -172.0], [116.0, -171.0], [115.0, -170.0], [114.0, -169.0], [114.0, -168.0], [113.0, -167.0], [112.0, -166.0], [113.0, -164.0], [114.0, -163.0], [116.0, -162.0], [117.0, -162.0], [117.0, -161.0], [118.0, -160.0], [119.0, -160.0], [120.0, -159.0], [119.0, -158.0], [121.0, -157.0], [122.0, -157.0], [123.0, -156.0], [124.0, -155.0], [124.0, -154.0], [124.0, -153.0], [125.0, -153.0], [126.0, -152.0], [127.0, -152.0], [127.0, -151.0], [128.0, -150.0], [127.0, -149.0], [126.0, -149.0], [126.0, -147.0], [125.0, -147.0], [125.0, -146.0], [126.0, -146.0], [126.0, -145.0], [127.0, -144.0], [127.0, -143.0], [128.0, -143.0], [129.0, -144.0], [130.0, -144.0], [131.0, -145.0], [131.0, -146.0], [132.0, -145.0], [133.0, -144.0], [134.0, -144.0], [134.0, -143.0], [135.0, -142.0], [136.0, -141.0], [137.0, -139.0], [138.0, -139.0], [139.0, -139.0], [141.0, -139.0], [142.0, -138.0], [143.0, -138.0], [144.0, -138.0], [144.0, -139.0], [145.0, -141.0], [146.0, -142.0], [147.0, -142.0], [147.0, -143.0], [148.0, -144.0], [149.0, -144.0], [150.0, -145.0], [150.0, -146.0], [150.0, -147.0], [151.0, -147.0], [152.0, -147.0], [153.0, -148.0], [153.0, -149.0], [153.0, -151.0], [152.0, -152.0], [153.0, -154.0], [154.0, -155.0], [155.0, -156.0], [156.0, -157.0], [156.0, -158.0], [155.0, -159.0], [156.0, -159.0], [156.0, -161.0], [157.0, -162.0], [159.0, -162.0], [160.0, -163.0], [160.0, -164.0], [159.0, -165.0], [161.0, -166.0], [163.0, -165.0], [166.0, -167.0], [167.0, -169.0], [167.0, -170.0], [165.0, -173.0], [164.0, -175.0], [163.0, -176.0], [164.0, -176.0], [164.0, -177.0], [164.0, -178.0], [163.0, -179.0], [162.0, -180.0], [160.0, -181.0], [159.0, -182.0], [158.0, -183.0], [158.0, -184.0], [157.0, -183.0], [156.0, -182.0], [157.0, -181.0], [157.0, -180.0], [156.0, -180.0], [156.0, -179.0], [155.0, -180.0], [154.0, -180.0], [153.0, -180.0], [152.0, -181.0], [151.0, -182.0], [151.0, -181.0], [150.0, -182.0], [149.0, -180.0], [148.0, -179.0], [149.0, -179.0], [149.0, -178.0], [148.0, -178.0], [148.0, -177.0], [148.0, -176.0], [147.0, -175.0], [147.0, -174.0], [146.0, -173.0], [145.0, -172.0], [144.0, -171.0], [144.0, -172.0], [143.0, -174.0], [142.0, -174.0], [140.0, -175.0], [140.0, -176.0], [139.0, -176.0], [138.0, -175.0], [137.0, -176.0], [136.0, -175.0], [134.0, -176.0], [134.0, -177.0], [133.0, -177.0], [131.0, -177.0], [130.0, -176.0], [130.0, -175.0], [129.0, -174.0], [129.0, -173.0], [128.0, -173.0], [126.0, -174.0], [125.0, -175.0], [125.0, -174.0], [125.0, -173.0], [125.0, -172.0], [124.0, -172.0], [124.0, -171.0], [123.0, -171.0], [122.0, -171.0]]], [[[122.0, -171.0], [122.0, -173.0], [121.0, -173.0], [121.0, -172.0], [121.0, -171.0], [122.0, -171.0]]]]}}, {"type": "Feature", "properties": {"district": "Porto", "constituency_code": "PT-130000", "source": "Portuguese Ministry of Internal Administration official inset map", "schematic": true}, "geometry": {"type": "Polygon", "coordinates": [[[96.0, -51.0], [96.0, -50.0], [95.0, -49.0], [96.0, -46.0], [97.0, -46.0], [98.0, -46.0], [98.0, -47.0], [100.0, -47.0], [100.0, -48.0], [101.0, -48.0], [102.0, -49.0], [103.0, -49.0], [102.0, -50.0], [101.0, -50.0], [102.0, -52.0], [103.0, -52.0], [104.0, -52.0], [105.0, -52.0], [106.0, -51.0], [107.0, -51.0], [108.0, -51.0], [109.0, -51.0], [111.0, -50.0], [110.0, -51.0], [111.0, -51.0], [112.0, -51.0], [113.0, -51.0], [114.0, -52.0], [115.0, -51.0], [116.0, -50.0], [117.0, -50.0], [117.0, -49.0], [118.0, -49.0], [119.0, -50.0], [120.0, -51.0], [120.0, -52.0], [121.0, -52.0], [122.0, -52.0], [122.0, -53.0], [123.0, -52.0], [123.0, -53.0], [124.0, -53.0], [125.0, -53.0], [125.0, -52.0], [126.0, -51.0], [127.0, -52.0], [127.0, -53.0], [128.0, -53.0], [128.0, -54.0], [129.0, -54.0], [129.0, -56.0], [129.0, -57.0], [130.0, -57.0], [129.0, -59.0], [129.0, -61.0], [130.0, -61.0], [130.0, -62.0], [129.0, -62.0], [129.0, -63.0], [129.0, -64.0], [128.0, -64.0], [127.0, -63.0], [127.0, -64.0], [125.0, -65.0], [124.0, -65.0], [122.0, -65.0], [121.0, -65.0], [120.0, -65.0], [118.0, -65.0], [117.0, -66.0], [116.0, -66.0], [114.0, -66.0], [113.0, -67.0], [111.0, -67.0], [110.0, -67.0], [110.0, -68.0], [110.0, -69.0], [109.0, -69.0], [109.0, -68.0], [108.0, -67.0], [107.0, -67.0], [107.0, -68.0], [106.0, -68.0], [106.0, -69.0], [105.0, -68.0], [104.0, -68.0], [104.0, -69.0], [102.0, -69.0], [100.0, -69.0], [100.0, -68.0], [100.0, -67.0], [100.0, -66.0], [100.0, -64.0], [100.0, -63.0], [99.0, -62.0], [99.0, -61.0], [98.0, -61.0], [99.0, -60.0], [98.0, -60.0], [98.0, -59.0], [98.0, -58.0], [97.0, -57.0], [97.0, -56.0], [97.0, -55.0], [97.0, -54.0], [97.0, -52.0], [96.0, -52.0], [96.0, -51.0]]]}}, {"type": "Feature", "properties": {"district": "Santarém", "constituency_code": "PT-140000", "source": "Portuguese Ministry of Internal Administration official inset map", "schematic": true}, "geometry": {"type": "Polygon", "coordinates": [[[107.0, -129.0], [107.0, -131.0], [108.0, -134.0], [109.0, -134.0], [110.0, -133.0], [111.0, -132.0], [112.0, -133.0], [112.0, -131.0], [113.0, -131.0], [114.0, -131.0], [115.0, -132.0], [116.0, -133.0], [116.0, -134.0], [116.0, -136.0], [117.0, -136.0], [116.0, -139.0], [117.0, -139.0], [118.0, -139.0], [119.0, -140.0], [121.0, -140.0], [122.0, -140.0], [123.0, -140.0], [122.0, -138.0], [123.0, -137.0], [123.0, -136.0], [123.0, -135.0], [123.0, -134.0], [124.0, -134.0], [124.0, -133.0], [125.0, -134.0], [126.0, -134.0], [127.0, -134.0], [127.0, -137.0], [127.0, -138.0], [128.0, -138.0], [129.0, -137.0], [129.0, -138.0], [130.0, -138.0], [130.0, -139.0], [131.0, -139.0], [131.0, -140.0], [132.0, -141.0], [132.0, -142.0], [133.0, -142.0], [132.0, -143.0], [131.0, -146.0], [129.0, -144.0], [129.0, -143.0], [127.0, -143.0], [127.0, -144.0], [126.0, -146.0], [125.0, -146.0], [126.0, -147.0], [125.0, -148.0], [126.0, -149.0], [127.0, -149.0], [128.0, -150.0], [127.0, -151.0], [127.0, -152.0], [126.0, -152.0], [125.0, -153.0], [124.0, -154.0], [124.0, -156.0], [122.0, -157.0], [121.0, -157.0], [120.0, -157.0], [120.0, -159.0], [119.0, -160.0], [118.0, -160.0], [116.0, -162.0], [115.0, -162.0], [114.0, -163.0], [113.0, -164.0], [112.0, -165.0], [112.0, -166.0], [114.0, -167.0], [114.0, -168.0], [115.0, -169.0], [115.0, -171.0], [116.0, -172.0], [117.0, -171.0], [117.0, -172.0], [116.0, -173.0], [115.0, -175.0], [116.0, -177.0], [117.0, -177.0], [117.0, -178.0], [118.0, -178.0], [119.0, -178.0], [118.0, -179.0], [118.0, -180.0], [119.0, -181.0], [120.0, -181.0], [120.0, -182.0], [120.0, -183.0], [119.0, -183.0], [119.0, -182.0], [118.0, -182.0], [117.0, -182.0], [117.0, -180.0], [116.0, -181.0], [115.0, -180.0], [113.0, -179.0], [111.0, -179.0], [110.0, -180.0], [109.0, -181.0], [109.0, -180.0], [108.0, -181.0], [107.0, -182.0], [106.0, -181.0], [105.0, -182.0], [104.0, -184.0], [103.0, -183.0], [102.0, -183.0], [101.0, -182.0], [101.0, -181.0], [102.0, -180.0], [101.0, -180.0], [100.0, -181.0], [99.0, -181.0], [97.0, -179.0], [96.0, -184.0], [95.0, -185.0], [93.0, -185.0], [91.0, -184.0], [90.0, -184.0], [90.0, -185.0], [89.0, -184.0], [88.0, -182.0], [87.0, -180.0], [88.0, -179.0], [89.0, -177.0], [90.0, -176.0], [90.0, -174.0], [92.0, -173.0], [91.0, -173.0], [91.0, -172.0], [91.0, -171.0], [92.0, -171.0], [91.0, -170.0], [92.0, -170.0], [94.0, -168.0], [94.0, -167.0], [93.0, -166.0], [92.0, -165.0], [91.0, -165.0], [90.0, -164.0], [89.0, -162.0], [91.0, -162.0], [92.0, -162.0], [93.0, -161.0], [92.0, -160.0], [91.0, -160.0], [91.0, -159.0], [90.0, -159.0], [89.0, -159.0], [88.0, -159.0], [87.0, -159.0], [87.0, -157.0], [86.0, -155.0], [86.0, -153.0], [86.0, -152.0], [87.0, -151.0], [88.0, -151.0], [89.0, -150.0], [89.0, -148.0], [90.0, -148.0], [90.0, -147.0], [93.0, -147.0], [95.0, -147.0], [97.0, -147.0], [96.0, -145.0], [96.0, -144.0], [97.0, -144.0], [97.0, -145.0], [99.0, -143.0], [99.0, -142.0], [98.0, -141.0], [98.0, -139.0], [99.0, -139.0], [100.0, -137.0], [101.0, -136.0], [99.0, -135.0], [99.0, -132.0], [100.0, -132.0], [101.0, -131.0], [102.0, -131.0], [102.0, -132.0], [103.0, -131.0], [105.0, -129.0], [106.0, -130.0], [107.0, -129.0]]]}}, {"type": "Feature", "properties": {"district": "Setúbal", "constituency_code": "PT-150000", "source": "Portuguese Ministry of Internal Administration official inset map", "schematic": true}, "geometry": {"type": "MultiPolygon", "coordinates": [[[[82.0, -189.0], [82.0, -188.0], [83.0, -188.0], [83.0, -187.0], [84.0, -188.0], [84.0, -187.0], [85.0, -185.0], [85.0, -184.0], [86.0, -184.0], [86.0, -183.0], [87.0, -182.0], [86.0, -182.0], [87.0, -181.0], [86.0, -181.0], [87.0, -180.0], [89.0, -183.0], [89.5, -184.0], [91.0, -184.0], [92.0, -184.0], [94.0, -185.0], [95.0, -185.0], [96.0, -183.0], [97.0, -179.0], [98.0, -180.0], [100.0, -181.0], [102.0, -180.0], [101.0, -181.0], [101.0, -182.0], [102.0, -183.0], [103.0, -183.0], [105.0, -184.0], [106.0, -184.0], [106.0, -186.0], [105.0, -186.0], [104.0, -187.0], [103.0, -188.0], [101.0, -190.0], [100.0, -191.0], [99.0, -192.0], [100.0, -194.0], [101.0, -194.0], [103.0, -195.0], [104.0, -196.0], [105.0, -195.0], [106.0, -195.0], [107.0, -196.0], [108.0, -196.0], [110.0, -195.0], [111.0, -195.0], [112.0, -197.0], [113.0, -199.0], [113.0, -200.0], [114.0, -201.0], [113.0, -201.0], [114.0, -202.0], [113.0, -203.0], [114.0, -203.0], [115.0, -204.0], [117.0, -205.0], [118.0, -206.0], [120.0, -208.0], [120.0, -210.0], [120.0, -211.0], [118.0, -212.0], [117.0, -212.0], [116.0, -213.0], [115.0, -213.0], [114.0, -213.0], [114.0, -214.0], [114.0, -215.0], [112.0, -215.0], [111.0, -215.0], [111.0, -217.0], [110.0, -217.0], [109.0, -219.0], [110.0, -220.0], [111.0, -221.0], [113.0, -221.0], [113.0, -222.0], [114.0, -223.0], [114.0, -224.0], [113.0, -226.0], [113.0, -227.0], [114.0, -228.0], [113.0, -228.0], [113.0, -229.0], [112.0, -229.0], [112.0, -230.0], [110.0, -230.0], [108.0, -229.0], [108.0, -230.0], [107.0, -230.0], [105.0, -230.0], [104.0, -230.0], [103.0, -232.0], [102.0, -232.0], [102.0, -233.0], [102.0, -234.0], [102.0, -235.0], [101.0, -235.0], [100.0, -235.0], [98.0, -234.0], [98.0, -235.0], [97.0, -234.0], [96.0, -232.0], [94.0, -232.0], [94.0, -230.0], [93.0, -228.0], [93.0, -226.0], [92.0, -225.0], [91.0, -226.0], [91.0, -225.0], [90.0, -225.0], [90.0, -224.0], [91.0, -223.0], [92.0, -221.0], [94.0, -212.0], [93.0, -203.0], [91.0, -200.0], [90.0, -199.0], [89.0, -197.0], [90.0, -198.0], [92.0, -199.0], [93.0, -200.0], [95.0, -200.0], [96.0, -201.0], [98.0, -201.0], [98.5, -201.0], [97.0, -200.0], [96.0, -199.0], [97.0, -198.0], [96.0, -196.0], [96.0, -195.0], [94.0, -195.0], [93.0, -196.0], [94.0, -196.0], [95.0, -197.0], [94.0, -198.0], [92.0, -197.0], [89.0, -196.0], [88.0, -197.0], [86.0, -198.0], [86.0, -199.0], [85.0, -199.0], [83.0, -200.0], [81.0, -200.0], [80.0, -200.0], [79.0, -201.0], [77.0, -201.0], [78.0, -198.0], [77.0, -192.0], [76.0, -190.0], [75.0, -188.0], [76.0, -188.0], [78.0, -188.0], [80.0, -187.0], [80.0, -188.0], [82.0, -189.0]]], [[[86.0, -182.0], [86.0, -183.0], [85.0, -183.0], [86.0, -182.0]]]]}}, {"type": "Feature", "properties": {"district": "Viana do Castelo", "constituency_code": "PT-160000", "source": "Portuguese Ministry of Internal Administration official inset map", "schematic": true}, "geometry": {"type": "Polygon", "coordinates": [[[93.0, -35.0], [93.0, -34.0], [92.0, -33.0], [92.0, -31.0], [92.0, -30.0], [92.0, -29.0], [92.0, -28.0], [92.0, -27.0], [92.0, -26.0], [92.0, -25.0], [93.0, -25.0], [94.0, -24.0], [95.0, -23.0], [96.0, -22.0], [97.0, -21.0], [98.0, -20.0], [100.0, -18.0], [102.0, -16.0], [104.0, -16.0], [105.0, -15.0], [106.0, -15.0], [107.0, -15.0], [108.0, -15.0], [109.0, -15.0], [110.0, -15.0], [111.0, -15.0], [112.0, -14.0], [113.0, -14.0], [113.0, -13.0], [115.0, -13.0], [115.0, -12.0], [116.0, -12.0], [117.0, -12.0], [118.0, -11.0], [118.0, -14.0], [118.0, -15.0], [119.0, -15.0], [120.0, -15.0], [121.0, -14.0], [122.0, -15.0], [122.0, -17.0], [120.0, -19.0], [119.0, -19.0], [119.0, -20.0], [119.0, -21.0], [117.0, -23.0], [118.0, -25.0], [119.0, -25.0], [119.0, -27.0], [119.0, -28.0], [118.0, -28.0], [118.0, -29.0], [117.0, -29.0], [115.0, -30.0], [114.0, -30.0], [114.0, -31.0], [113.0, -31.0], [112.0, -31.0], [111.0, -31.0], [110.0, -31.0], [108.0, -32.0], [107.0, -32.0], [106.0, -32.0], [105.0, -34.0], [105.0, -35.0], [105.0, -36.0], [104.0, -38.0], [103.0, -37.0], [102.0, -37.0], [101.0, -37.0], [100.0, -37.0], [99.0, -37.0], [98.0, -37.0], [98.0, -38.0], [97.0, -38.0], [96.0, -38.0], [94.0, -38.0], [94.0, -37.0], [93.0, -35.0]]]}}, {"type": "Feature", "properties": {"district": "Vila Real", "constituency_code": "PT-170000", "source": "Portuguese Ministry of Internal Administration official inset map", "schematic": true}, "geometry": {"type": "MultiPolygon", "coordinates": [[[[130.0, -62.0], [130.0, -61.0], [129.0, -61.0], [130.0, -60.0], [129.0, -59.0], [130.0, -57.0], [129.0, -57.0], [129.0, -56.0], [129.0, -54.0], [128.0, -54.0], [128.0, -53.0], [127.0, -53.0], [127.0, -52.0], [127.0, -51.0], [126.0, -51.0], [127.0, -50.0], [126.0, -50.0], [126.0, -49.0], [127.0, -49.0], [128.0, -48.0], [128.0, -46.0], [128.0, -45.0], [129.0, -45.0], [129.0, -43.0], [130.0, -44.0], [131.0, -43.0], [132.0, -42.0], [132.0, -41.0], [132.0, -40.0], [132.0, -39.0], [131.0, -38.0], [130.0, -40.0], [129.0, -39.0], [129.0, -40.0], [128.0, -40.0], [128.0, -39.0], [127.0, -39.0], [126.0, -39.0], [125.0, -39.0], [126.0, -37.0], [126.0, -36.0], [126.0, -35.0], [125.0, -35.0], [125.0, -34.0], [124.0, -34.0], [123.0, -34.0], [122.0, -34.0], [121.0, -35.0], [121.0, -34.0], [122.0, -33.0], [122.0, -32.0], [123.0, -31.0], [123.0, -30.0], [123.0, -29.0], [124.0, -29.0], [124.0, -28.0], [125.0, -27.0], [125.0, -26.0], [126.0, -25.0], [128.0, -25.0], [129.0, -23.0], [129.0, -22.0], [130.0, -24.0], [130.0, -25.0], [129.0, -26.0], [130.0, -27.0], [131.0, -25.0], [133.0, -25.0], [134.0, -24.0], [135.0, -24.0], [137.0, -23.0], [137.0, -24.0], [138.0, -24.0], [140.0, -25.0], [141.0, -25.0], [140.0, -26.0], [140.0, -27.0], [141.0, -27.0], [144.0, -27.0], [144.0, -26.0], [144.0, -25.0], [145.0, -26.0], [146.0, -26.0], [146.0, -27.0], [147.0, -27.0], [147.0, -28.0], [149.0, -27.0], [150.0, -26.0], [150.0, -27.0], [152.0, -26.0], [154.0, -25.0], [155.0, -25.0], [156.0, -25.0], [156.0, -27.0], [155.0, -27.0], [156.0, -28.0], [156.0, -30.0], [157.0, -30.0], [157.0, -31.0], [157.0, -32.0], [156.0, -32.0], [156.0, -33.0], [155.0, -33.0], [155.0, -35.0], [154.0, -36.0], [154.0, -38.0], [154.0, -39.0], [154.0, -40.0], [154.0, -41.0], [155.0, -43.0], [153.0, -43.0], [152.0, -44.0], [152.0, -46.0], [151.0, -46.0], [150.0, -47.0], [150.0, -48.0], [150.0, -49.0], [150.0, -50.0], [152.0, -52.0], [150.0, -53.0], [149.0, -54.0], [150.0, -54.0], [149.0, -55.0], [149.0, -56.0], [149.0, -57.0], [148.0, -57.0], [148.0, -58.0], [147.0, -59.0], [146.0, -59.0], [144.0, -60.0], [143.0, -60.0], [142.0, -61.0], [140.0, -61.0], [139.0, -61.0], [138.0, -61.0], [137.0, -62.0], [135.0, -62.0], [134.0, -62.0], [133.0, -62.0], [132.0, -62.0], [130.0, -62.0]]], [[[130.0, -62.0], [130.0, -63.0], [129.0, -63.0], [129.0, -62.0], [130.0, -62.0]]]]}}, {"type": "Feature", "properties": {"district": "Viseu", "constituency_code": "PT-180000", "source": "Portuguese Ministry of Internal Administration official inset map", "schematic": true}, "geometry": {"type": "Polygon", "coordinates": [[[113.0, -90.0], [114.0, -90.0], [115.0, -90.0], [116.0, -89.0], [114.0, -88.0], [114.0, -87.0], [114.0, -85.0], [113.0, -85.0], [113.0, -84.0], [113.0, -83.0], [114.0, -82.0], [115.0, -82.0], [115.0, -81.0], [115.0, -80.0], [116.0, -80.0], [116.0, -77.0], [117.0, -77.0], [118.0, -77.0], [119.0, -77.0], [120.0, -77.0], [121.0, -77.0], [121.0, -76.0], [121.0, -74.0], [120.0, -73.0], [121.0, -71.0], [122.0, -71.0], [122.0, -69.0], [121.0, -70.0], [120.0, -71.0], [119.0, -70.0], [118.0, -70.0], [117.0, -70.0], [117.0, -69.0], [116.0, -69.0], [116.0, -68.0], [116.0, -67.0], [115.0, -66.0], [116.0, -66.0], [117.0, -65.0], [118.0, -65.0], [119.0, -65.0], [121.0, -65.0], [123.0, -65.0], [126.0, -64.0], [127.0, -64.0], [128.0, -63.0], [129.0, -64.0], [129.0, -63.0], [130.0, -63.0], [131.0, -62.0], [132.0, -62.0], [134.0, -62.0], [136.0, -62.0], [137.0, -62.0], [138.0, -61.0], [139.0, -61.0], [140.0, -61.0], [142.0, -61.0], [143.0, -60.0], [144.0, -60.0], [144.0, -59.0], [146.0, -59.0], [147.0, -59.0], [149.0, -60.0], [149.0, -61.0], [150.0, -61.0], [150.0, -62.0], [152.0, -62.0], [151.0, -64.0], [151.0, -66.0], [151.0, -67.0], [151.0, -68.0], [150.0, -69.0], [149.0, -69.0], [149.0, -70.0], [150.0, -70.0], [151.0, -71.0], [151.0, -73.0], [150.0, -73.0], [150.0, -74.0], [150.0, -75.0], [149.0, -75.0], [149.0, -76.0], [148.0, -76.0], [148.0, -77.0], [147.0, -78.0], [147.0, -79.0], [145.0, -78.0], [145.0, -77.0], [144.0, -77.0], [143.0, -76.0], [142.0, -76.0], [141.0, -78.0], [140.0, -81.0], [142.0, -83.0], [141.0, -84.0], [142.0, -85.0], [143.0, -85.0], [143.0, -86.0], [143.0, -87.0], [142.0, -88.0], [142.0, -89.0], [141.0, -90.0], [142.0, -91.0], [141.0, -92.0], [139.0, -92.0], [138.0, -92.0], [137.0, -93.0], [136.0, -94.0], [135.0, -94.0], [134.0, -95.0], [133.0, -95.0], [132.0, -95.0], [131.0, -96.0], [130.0, -96.0], [128.0, -98.0], [128.0, -99.0], [127.0, -99.0], [126.0, -100.0], [125.0, -101.0], [124.0, -101.0], [123.0, -102.0], [122.0, -102.0], [121.0, -103.0], [120.0, -103.0], [120.0, -104.0], [119.0, -103.0], [118.0, -104.0], [118.0, -103.0], [116.0, -104.0], [115.0, -104.0], [114.0, -103.0], [113.0, -102.0], [112.0, -102.0], [112.0, -101.0], [112.0, -100.0], [112.0, -99.0], [113.0, -98.0], [112.0, -96.0], [113.0, -95.0], [114.0, -95.0], [115.0, -95.0], [116.0, -94.0], [115.0, -93.0], [114.0, -92.0], [113.0, -90.0]]]}}, {"type": "Feature", "properties": {"district": "Madeira", "constituency_code": "PT-300000", "source": "Portuguese Ministry of Internal Administration official inset map", "schematic": true}, "geometry": {"type": "MultiPolygon", "coordinates": [[[[195.72, -306.15], [195.61, -305.16], [195.31, -304.21], [194.63, -304.4], [193.88, -305.06], [194.1, -305.59], [195.05, -305.89], [195.72, -306.15]]], [[[195.81, -300.63], [195.56, -301.59], [194.86, -302.3], [194.74, -303.11], [195.63, -303.45], [196.58, -303.14], [197.32, -302.49], [197.98, -301.75], [198.9, -301.39], [199.9, -301.39], [200.78, -301.42], [201.05, -300.45], [200.62, -299.68], [200.86, -298.73], [199.97, -298.74], [199.08, -298.32], [198.28, -298.91], [197.31, -299.12], [196.78, -299.89], [195.89, -300.13], [195.81, -300.63]]], [[[160.62, -326.39], [161.5, -326.12], [162.37, -326.61], [163.27, -327.04], [164.22, -327.37], [165.15, -327.71], [165.91, -328.31], [166.9, -328.44], [167.9, -328.49], [168.88, -328.67], [169.78, -329.09], [170.71, -329.43], [171.68, -329.2], [172.61, -328.85], [173.6, -328.77], [174.59, -328.94], [175.55, -329.21], [176.52, -329.46], [177.39, -328.97], [178.25, -328.46], [179.1, -327.94], [179.44, -327.11], [179.83, -326.27], [180.71, -325.88], [181.24, -325.13], [181.92, -324.65], [182.13, -323.98], [182.73, -323.2], [183.55, -322.64], [184.52, -322.43], [185.49, -322.52], [186.43, -322.33], [187.3, -322.82], [187.95, -323.26], [187.31, -322.49], [186.48, -321.93], [185.57, -321.93], [184.58, -321.97], [183.58, -321.96], [182.66, -321.59], [181.66, -321.52], [180.67, -321.41], [180.12, -320.74], [179.15, -320.88], [178.24, -320.55], [177.72, -320.04], [177.06, -319.31], [176.15, -318.89], [175.8, -318.05], [175.13, -317.33], [174.37, -316.68], [173.51, -316.17], [172.54, -316.04], [171.57, -316.25], [170.6, -316.22], [169.64, -316.49], [168.71, -316.29], [167.74, -316.27], [166.82, -316.66], [165.89, -316.99], [164.91, -317.2], [163.93, -317.41], [162.95, -317.39], [161.99, -317.1], [161.0, -316.99], [160.46, -316.19], [159.47, -316.09], [158.52, -315.8], [157.96, -314.99], [157.42, -314.15], [156.57, -313.7], [155.62, -313.74], [154.83, -313.35], [154.2, -314.13], [153.42, -314.68], [152.73, -315.4], [151.84, -315.84], [151.31, -316.67], [150.52, -317.09], [151.09, -317.87], [151.74, -318.6], [151.93, -319.58], [152.39, -320.46], [153.09, -321.17], [153.64, -322.0], [154.19, -322.76], [155.11, -323.15], [156.03, -323.54], [156.93, -323.99], [157.81, -324.46], [158.66, -324.99], [159.47, -325.57], [160.23, -326.22], [160.62, -326.39]]]]}}, {"type": "Feature", "properties": {"district": "Açores", "constituency_code": "PT-400000", "source": "Portuguese Ministry of Internal Administration official inset map", "schematic": true}, "geometry": {"type": "MultiPolygon", "coordinates": [[[[73.9, -301.52], [73.23, -300.78], [72.29, -300.72], [71.5, -301.26], [71.71, -302.16], [72.45, -302.81], [73.3, -302.94], [74.22, -303.09], [74.5, -302.28], [73.9, -301.52]]], [[[45.6, -300.85], [45.55, -299.89], [45.09, -299.0], [44.17, -298.7], [43.43, -298.23], [42.79, -298.65], [42.27, -299.36], [42.1, -300.31], [42.31, -301.21], [42.62, -302.16], [43.25, -302.87], [44.24, -302.76], [45.02, -302.25], [45.54, -301.44], [45.6, -300.85]]], [[[45.72, -295.27], [45.47, -294.48], [44.66, -294.63], [44.86, -295.59], [45.5, -295.54], [45.72, -295.27]]], [[[63.61, -314.58], [63.57, -313.59], [63.75, -312.86], [63.25, -312.01], [62.37, -311.56], [61.42, -311.23], [60.51, -311.15], [59.84, -311.89], [59.08, -312.53], [58.14, -312.73], [58.22, -313.54], [59.19, -313.79], [60.11, -314.17], [60.62, -314.99], [61.59, -314.78], [62.55, -314.49], [63.52, -314.46], [63.61, -314.58]]], [[[73.39, -310.14], [74.24, -310.61], [75.21, -310.82], [76.16, -310.92], [77.13, -311.17], [78.1, -311.43], [79.05, -311.74], [79.97, -312.12], [80.75, -311.66], [80.66, -310.86], [79.71, -310.54], [78.76, -310.24], [77.81, -309.92], [76.86, -309.61], [76.11, -309.1], [75.14, -308.86], [74.17, -308.61], [73.2, -308.37], [72.21, -308.21], [71.21, -308.19], [70.27, -307.89], [69.35, -307.5], [68.42, -307.14], [67.44, -306.94], [66.97, -307.27], [67.76, -307.88], [68.69, -308.24], [69.34, -308.97], [70.15, -309.56], [71.09, -309.84], [72.09, -309.9], [73.09, -309.95], [73.39, -310.14]]], [[[89.89, -308.46], [90.38, -307.72], [90.76, -306.86], [90.71, -305.99], [90.52, -305.1], [89.87, -304.34], [88.98, -303.9], [88.01, -303.86], [87.02, -304.0], [86.1, -304.01], [85.14, -304.19], [84.22, -304.56], [83.23, -304.72], [82.78, -305.54], [82.62, -306.51], [82.83, -307.49], [83.49, -308.22], [84.39, -308.66], [85.38, -308.79], [86.37, -308.9], [87.26, -308.66], [88.24, -308.49], [89.23, -308.43], [89.89, -308.46]]], [[[71.3, -316.77], [72.28, -316.62], [73.14, -317.11], [74.08, -316.85], [74.99, -316.43], [75.96, -316.22], [76.93, -316.4], [77.89, -316.12], [78.1, -315.26], [77.23, -314.88], [76.26, -315.11], [75.36, -315.07], [74.38, -314.93], [73.43, -314.63], [72.56, -314.15], [71.65, -313.82], [70.8, -313.34], [69.84, -313.06], [68.89, -312.76], [67.93, -312.8], [66.97, -313.04], [66.0, -313.21], [65.34, -313.95], [65.31, -314.79], [65.71, -315.71], [66.23, -316.52], [67.16, -316.87], [68.11, -317.19], [69.03, -317.02], [70.02, -317.01], [71.0, -316.82], [71.3, -316.77]]], [[[91.7, -319.49], [92.25, -320.31], [93.07, -320.88], [93.91, -321.43], [94.78, -321.92], [95.66, -322.38], [96.58, -322.72], [97.48, -322.28], [98.41, -321.95], [99.33, -322.3], [100.24, -322.73], [101.19, -322.52], [102.18, -322.52], [103.17, -322.37], [104.06, -322.04], [104.53, -321.26], [105.4, -321.14], [106.27, -320.69], [107.26, -320.51], [108.23, -320.31], [109.0, -319.68], [109.2, -318.84], [108.96, -317.88], [108.72, -316.94], [107.87, -316.57], [106.9, -316.84], [105.92, -317.03], [104.94, -317.06], [104.03, -317.35], [103.18, -317.88], [102.32, -318.38], [101.46, -318.89], [100.54, -318.78], [99.7, -318.83], [98.85, -319.35], [97.97, -319.58], [97.06, -319.37], [96.08, -319.55], [95.5, -318.79], [94.7, -318.19], [93.78, -317.86], [92.8, -318.02], [92.18, -318.77], [91.7, -319.49]]], [[[106.04, -334.03], [106.64, -334.82], [107.53, -335.13], [108.2, -334.62], [109.11, -335.03], [110.04, -334.96], [110.67, -334.48], [110.2, -333.6], [109.48, -332.91], [108.92, -332.08], [108.11, -332.58], [107.3, -332.9], [106.4, -333.28], [106.04, -334.03]]]]}}]}