{"type":"FeatureCollection","name":"us_governor_2016_states","features":[{"type":"Feature","properties":{"district":"Delaware","constituency_code":"US-GOVERNOR-STATE-DE","electorate_type":"United States"},"geometry":{"type":"MultiPolygon","coordinates":[[[[-75.565546,39.514849999999996],[-75.56174299999999,39.520534],[-75.567447,39.508615999999996],[-75.565546,39.514849999999996]]],[[[-75.57129909859229,39.6251077524268],[-75.559446,39.629812],[-75.55587,39.605824],[-75.561934,39.605216],[-75.57129909859229,39.6251077524268]]],[[[-75.58036299999999,39.599455],[-75.570774,39.594091],[-75.564604,39.589337],[-75.572118,39.58586],[-75.58036299999999,39.599455]]],[[[-75.78865590755069,39.659333499406],[-75.788596,39.722198999999996],[-75.66282199999999,39.821149999999996],[-75.539346,39.838211],[-75.423416,39.806615],[-75.613153,39.62096],[-75.563034,39.562239999999996],[-75.59232899999999,39.467577999999996],[-75.404688,39.257835],[-75.402035,39.066885],[-75.318354,38.988191],[-75.30407799999999,38.91316],[-75.159022,38.790192999999995],[-75.09201399999999,38.803902],[-75.04893899999999,38.451263],[-75.69367,38.46008],[-75.78865590755069,39.659333499406]]]]}},{"type":"Feature","properties":{"district":"Indiana","constituency_code":"US-GOVERNOR-STATE-IN","electorate_type":"United States"},"geometry":{"type":"Polygon","coordinates":[[[-88.09776,37.904026],[-88.015155,37.890792],[-88.06961299999999,37.926848],[-88.03534499999999,37.925528],[-88.012929,37.966544],[-88.00763099999999,38.029145],[-88.042132,38.046344999999995],[-87.967226,38.067105],[-87.96046299999999,38.099086],[-88.01311799999999,38.103527],[-87.911428,38.16174],[-87.975819,38.197834],[-87.987618,38.257380999999995],[-87.960225,38.237117999999995],[-87.933556,38.295896],[-87.91111,38.268031],[-87.870537,38.312219999999996],[-87.838979,38.282326999999995],[-87.823411,38.345968],[-87.745254,38.408995999999995],[-87.730369,38.447883999999995],[-87.755355,38.46396],[-87.650092,38.504605999999995],[-87.670071,38.545237],[-87.61196,38.589248],[-87.62012,38.639489],[-87.53123099999999,38.684036],[-87.496076,38.742112999999996],[-87.553394,38.86241],[-87.512187,38.954417],[-87.576531,38.986711],[-87.572588,39.057286],[-87.658745,39.135996999999996],[-87.574558,39.218404],[-87.620485,39.307133],[-87.531646,39.348062],[-87.524165,41.708314],[-87.470742,41.672835],[-87.41581599999999,41.688182999999995],[-87.420765,41.641011],[-87.29902299999999,41.619093],[-87.09904999999999,41.65177],[-86.824828,41.760239999999996],[-84.805883,41.760216],[-84.820157,39.10548],[-84.896911,39.057474],[-84.82985699999999,38.969384999999996],[-84.877029,38.909016],[-84.785234,38.880438999999996],[-84.82995799999999,38.830632],[-84.812877,38.786086999999995],[-84.99192699999999,38.778537],[-85.173048,38.688022],[-85.268495,38.740165],[-85.43629899999999,38.728484],[-85.456481,38.685069],[-85.42244099999999,38.532931],[-85.49886599999999,38.468242],[-85.604457,38.440819999999995],[-85.683561,38.295469],[-85.745077,38.26719],[-85.829216,38.276508],[-85.90387299999999,38.174141999999996],[-85.925654,38.021784],[-86.02950899999999,37.99264],[-86.042307,37.958171],[-86.08634099999999,38.004931],[-86.267203,38.056798],[-86.272847,38.140834999999996],[-86.357717,38.198806999999995],[-86.377434,38.171379],[-86.323847,38.138411999999995],[-86.401879,38.104329],[-86.463248,38.119278],[-86.43009099999999,38.078638],[-86.52182499999999,38.038326999999995],[-86.50662,37.930718999999996],[-86.58858099999999,37.921158999999996],[-86.598108,37.867382],[-86.63826499999999,37.842718],[-86.661637,37.849714],[-86.647081,37.908621],[-86.73146,37.89434],[-86.820071,37.999392],[-87.034166,37.906265],[-87.06967499999999,37.801513],[-87.111008,37.782354],[-87.162319,37.840159],[-87.38543399999999,37.93767],[-87.511499,37.906425999999996],[-87.590023,37.975471999999996],[-87.628389,37.927563],[-87.583737,37.87808],[-87.615399,37.831973999999995],[-87.675538,37.831731999999995],[-87.67573,37.90193],[-87.830578,37.876515999999995],[-87.898062,37.927513999999995],[-87.940839,37.883337999999995],[-87.904595,37.812526],[-87.95259,37.771741999999996],[-88.09003899999999,37.816770999999996],[-88.025921,37.832694],[-88.09776,37.904026]]]}},{"type":"Feature","properties":{"district":"Missouri","constituency_code":"US-GOVERNOR-STATE-MO","electorate_type":"United States"},"geometry":{"type":"Polygon","coordinates":[[[-95.773549,40.578205],[-94.08919399999999,40.572806],[-91.729115,40.61364],[-91.68870000000001,40.55739],[-91.620071,40.540817],[-91.57474599999999,40.465664],[-91.52508999999999,40.457845],[-91.52461199999999,40.410765],[-91.419422,40.378264],[-91.492727,40.278217],[-91.510322,40.127994],[-91.494878,40.036453],[-91.41936,39.927717],[-91.43605099999999,39.84551],[-91.361571,39.787548],[-91.370009,39.732524],[-91.181936,39.602677],[-91.153628,39.548248],[-91.100307,39.538695],[-91.03827,39.448436],[-90.72995999999999,39.255894],[-90.681086,39.10059],[-90.713629,39.053976999999996],[-90.657254,38.920269999999995],[-90.55569299999999,38.870785],[-90.440078,38.967363999999996],[-90.250248,38.919343999999995],[-90.10940699999999,38.843548],[-90.20991,38.72605],[-90.18450999999999,38.611551],[-90.368219,38.340254],[-90.35955899999999,38.224525],[-90.11052,38.026547],[-89.997103,37.963225],[-89.925085,37.960021],[-89.974918,37.926719],[-89.950594,37.881526],[-89.901832,37.869822],[-89.842649,37.905196],[-89.66964399999999,37.799921999999995],[-89.66335199999999,37.750052],[-89.51425499999999,37.689923],[-89.517718,37.641217],[-89.475932,37.592998],[-89.519808,37.582747999999995],[-89.517051,37.537278],[-89.421054,37.387668],[-89.51834,37.285497],[-89.458827,37.248661],[-89.456105,37.18812],[-89.37871,37.094586],[-89.38393699999999,37.046441],[-89.278628,36.98867],[-89.260003,37.023288],[-89.30829,37.068371],[-89.25493,37.072013999999996],[-89.185491,36.973518],[-89.099594,36.964543],[-89.13194399999999,36.857437],[-89.178888,36.831368],[-89.119198,36.759802],[-89.199798,36.734217],[-89.15908,36.666351999999996],[-89.236542,36.566824],[-89.326731,36.632186],[-89.36554799999999,36.625059],[-89.464153,36.457189],[-89.494074,36.473225],[-89.47909299999999,36.568205999999996],[-89.56318499999999,36.568749],[-89.51950099999999,36.475418999999995],[-89.545255,36.427079],[-89.509722,36.373626],[-89.53182199999999,36.339245999999996],[-89.620255,36.323006],[-89.534745,36.252576],[-89.70351099999999,36.243412],[-89.591605,36.144096],[-89.678821,36.084635999999996],[-89.706932,36.000980999999996],[-90.37789,35.995683],[-90.31916799999999,36.089976],[-90.06398,36.303038],[-90.064514,36.382085],[-90.13851199999999,36.413952],[-90.152481,36.497952],[-94.617919,36.499414],[-94.588413,39.149868999999995],[-94.823791,39.209874],[-94.831471,39.256273],[-94.905329,39.311952],[-94.885026,39.389801],[-94.942039,39.389499],[-95.109304,39.542285],[-95.103228,39.577783],[-95.04927699999999,39.589583],[-95.027644,39.665454],[-94.971317,39.686409999999995],[-94.965318,39.739065],[-94.862943,39.742993999999996],[-94.869644,39.772894],[-94.935302,39.77561],[-94.87594399999999,39.813294],[-94.93976699999999,39.851929999999996],[-94.929574,39.888754],[-95.128166,39.874165],[-95.315271,40.01207],[-95.40726,40.033111999999996],[-95.39334699999999,40.119212],[-95.479193,40.185652],[-95.47750099999999,40.24272],[-95.55247299999999,40.261904],[-95.562157,40.297359],[-95.65732799999999,40.310856],[-95.623728,40.346567],[-95.699969,40.505275],[-95.65584799999999,40.546609],[-95.67871799999999,40.56256],[-95.708591,40.521550999999995],[-95.75711,40.52599],[-95.773549,40.578205]]]}},{"type":"Feature","properties":{"district":"Montana","constituency_code":"US-GOVERNOR-STATE-MT","electorate_type":"United States"},"geometry":{"type":"Polygon","coordinates":[[[-116.04914015311901,48.50204572438209],[-116.049086,49.000845999999996],[-104.048736,48.999877],[-104.039694,44.99807],[-111.054556,45.000955],[-111.055782,44.476797999999995],[-111.227504,44.577172],[-111.220145,44.622996],[-111.385106,44.754898],[-111.414273,44.710739],[-111.488784,44.705642999999995],[-111.472255,44.666896],[-111.516167,44.644059],[-111.522646,44.59025],[-111.46826899999999,44.538976],[-111.701745,44.559951999999996],[-111.82153,44.508941],[-111.868756,44.565833999999995],[-112.10675499999999,44.520829],[-112.286041,44.568605],[-112.35421,44.535638],[-112.387339,44.447596999999995],[-112.71911,44.504343999999996],[-112.779844,44.484612999999996],[-112.839427,44.425118999999995],[-112.813153,44.376697],[-112.855086,44.35997],[-112.889154,44.405204999999995],[-113.005059,44.45372],[-113.007952,44.52718],[-113.087542,44.599509999999995],[-113.049808,44.629065999999995],[-113.067761,44.678785999999995],[-113.131831,44.773038],[-113.247603,44.822860999999996],[-113.341822,44.784943999999996],[-113.377115,44.834829],[-113.455071,44.865424],[-113.498373,44.941685],[-113.444388,44.958745],[-113.452044,45.059174],[-113.522502,45.091736],[-113.510262,45.115476],[-113.569821,45.124299],[-113.591911,45.184187],[-113.692485,45.263439999999996],[-113.738056,45.328371999999995],[-113.734402,45.392353],[-113.776043,45.408477],[-113.766555,45.520906],[-113.834459,45.521091999999996],[-113.807405,45.602782999999995],[-113.903684,45.621590999999995],[-113.93526,45.694341],[-114.01548199999999,45.695901],[-114.018783,45.648495999999994],[-114.086584,45.59118],[-114.192226,45.537081],[-114.248354,45.545407999999995],[-114.270449,45.484423],[-114.329578,45.459973],[-114.457824,45.561710999999995],[-114.564974,45.557807],[-114.538471,45.605764],[-114.563987,45.637620999999996],[-114.50906499999999,45.656805999999996],[-114.495385,45.703055],[-114.566465,45.773309999999995],[-114.509303,45.845531],[-114.410706,45.851824],[-114.38730000000001,45.88775],[-114.431396,45.93604],[-114.411755,45.977869999999996],[-114.479992,45.992902],[-114.480505,46.030424],[-114.507419,46.031861],[-114.460475,46.097789999999996],[-114.527096,46.146218],[-114.444091,46.169273],[-114.47072,46.266041],[-114.425441,46.287856],[-114.422212,46.387330999999996],[-114.368541,46.437959],[-114.40255,46.500206999999996],[-114.342794,46.518257],[-114.321118,46.647514],[-114.358528,46.670697],[-114.467095,46.631764],[-114.60526899999999,46.635822],[-114.642246,46.673618],[-114.621526,46.707879],[-114.66457199999999,46.739084],[-114.767272,46.697195],[-114.784838,46.780018999999996],[-114.895189,46.801629999999996],[-114.948039,46.85964],[-114.925295,46.918749],[-115.048383,46.969819],[-115.144341,47.101977],[-115.300504,47.188139],[-115.32014699999999,47.2567],[-115.483637,47.282134],[-115.577639,47.367404],[-115.759304,47.423862],[-115.629974,47.479633],[-115.686264,47.484939999999995],[-115.698724,47.531653],[-115.755663,47.548300000000005],[-115.68854999999999,47.594333],[-115.736497,47.654737999999995],[-115.723803,47.696096],[-115.831944,47.755983],[-115.852312,47.827856999999995],[-116.049108,47.976842],[-116.04914015311901,48.50204572438209]]]}},{"type":"Feature","properties":{"district":"North Carolina","constituency_code":"US-GOVERNOR-STATE-NC","electorate_type":"United States"},"geometry":{"type":"MultiPolygon","coordinates":[[[[-75.726807,35.935843999999996],[-75.64511999999999,35.905788],[-75.620454,35.809253],[-75.675054,35.830203999999995],[-75.663356,35.869835],[-75.726807,35.935843999999996]]],[[[-75.756134,35.1895549147982],[-75.595463,35.269255],[-75.521782,35.271777],[-75.469017,35.586681999999996],[-75.52344599999999,35.773568],[-75.460621,35.576975],[-75.527962,35.220921],[-75.602238,35.232636],[-75.756134,35.1895549147982]]],[[[-76.01527999999999,35.070654999999995],[-75.982242,35.120439],[-75.770232,35.187677],[-75.920208,35.124716],[-76.01527999999999,35.070654999999995]]],[[[-76.28151199999999,35.317335],[-76.27418399999999,35.330182],[-76.262399,35.31386],[-76.271213,35.310305],[-76.28151199999999,35.317335]]],[[[-76.33013799999999,34.847941999999996],[-76.07591599999999,35.069929],[-76.037792,35.061914],[-76.322627,34.848099],[-76.33013799999999,34.847941999999996]]],[[[-76.547567,34.710625],[-76.538298,34.711993],[-76.519521,34.707108],[-76.54400199999999,34.701246],[-76.547567,34.710625]]],[[[-76.553628,34.623165],[-76.532237,34.61049],[-76.438116,34.761292],[-76.33753,34.838813],[-76.53546999999999,34.591552],[-76.553628,34.623165]]],[[[-76.586309,34.713947],[-76.56063999999999,34.710039],[-76.525701,34.685221999999996],[-76.58155599999999,34.699097],[-76.586309,34.713947]]],[[[-76.665486,34.689743],[-76.58928,34.67197],[-76.53024099999999,34.643581999999995],[-76.528815,34.631536],[-76.665486,34.689743]]],[[[-77.0985139877001,34.646888298414495],[-77.01463199999999,34.676035],[-76.822206,34.704724],[-76.67570099999999,34.695658],[-77.0985139877001,34.646888298414495]]],[[[-77.17130999999999,34.625668999999995],[-77.121207,34.647962],[-77.11036899999999,34.645146],[-77.169219,34.622383],[-77.17130999999999,34.625668999999995]]],[[[-77.230255,34.598439],[-77.202399,34.612837],[-77.179487,34.620427],[-77.226927,34.596717],[-77.230255,34.598439]]],[[[-84.3174907933753,35.0218441647982],[-84.29024,35.225572],[-84.22371799999999,35.269078],[-84.188417,35.239979],[-84.052612,35.269982],[-84.02141,35.301383],[-84.02300699999999,35.411684],[-83.880074,35.518744999999996],[-83.77173599999999,35.562118],[-83.498335,35.562981],[-83.35155999999999,35.659858],[-83.29715399999999,35.65775],[-83.25124699999999,35.719916],[-83.15920799999999,35.764891999999996],[-83.07403,35.790016],[-82.992053,35.773948],[-82.897273,35.877882],[-82.92000999999999,35.928422],[-82.87415899999999,35.952698],[-82.804997,35.927168],[-82.776001,36.000102999999996],[-82.637165,36.065805],[-82.590963,36.033606],[-82.610889,35.967408999999996],[-82.557874,35.953901],[-82.35515699999999,36.115609],[-82.213852,36.159112],[-82.147948,36.149516],[-82.127146,36.104417],[-82.033141,36.120422],[-81.908137,36.302012999999995],[-81.79359699999999,36.362209],[-81.707438,36.335170999999995],[-81.741995,36.410959999999996],[-81.69531099999999,36.467912],[-81.70796299999999,36.536209],[-81.67753499999999,36.588117],[-80.12218299999999,36.542646],[-75.86704399999999,36.550754],[-75.772511,36.22944],[-75.533013,35.787377],[-75.570477,35.808825999999996],[-75.644539,35.964417],[-75.72982999999999,36.007284999999996],[-75.706418,36.039196],[-75.737089,36.040783999999995],[-75.767264,36.204978],[-75.850809,36.319677999999996],[-75.82204999999999,36.328008],[-75.843322,36.419961],[-75.899909,36.482124],[-75.989792,36.493943],[-76.00262699999999,36.537113999999995],[-76.030673,36.538832],[-76.03195,36.482496],[-75.956279,36.400833],[-75.923602,36.425788],[-75.923332,36.361863],[-75.855978,36.282517],[-75.869288,36.246297],[-75.793975,36.071709999999996],[-75.847786,36.10199],[-75.92234499999999,36.244122],[-75.964621,36.254433],[-75.924655,36.163591],[-76.01698499999999,36.186367],[-76.11552499999999,36.27811],[-76.185402,36.301099],[-76.080107,36.199439999999996],[-76.064225,36.143775],[-76.187542,36.125442],[-76.277147,36.19088],[-76.191716,36.107197],[-76.233722,36.097854999999996],[-76.454694,36.192799],[-76.304005,36.094527],[-76.411198,36.080698],[-76.51411399999999,36.006516],[-76.580426,36.010554],[-76.606809,36.054185],[-76.65223399999999,36.035285],[-76.691898,36.066289999999995],[-76.71890599999999,36.200978],[-76.67217099999999,36.271978],[-76.699979,36.285391],[-76.753457,36.176684],[-76.681915,35.989595],[-76.726599,35.943234],[-76.553806,35.940155],[-76.399552,35.982094],[-76.367227,35.934382],[-76.170524,35.994523],[-76.053966,35.987095],[-76.011421,35.954201],[-76.06537399999999,35.833861],[-76.03804099999999,35.645765],[-75.982899,35.772560999999996],[-75.986053,35.888993],[-75.921578,35.935921],[-75.947294,35.959835],[-75.83628399999999,35.970501],[-75.782499,35.93342],[-75.728022,35.824512999999996],[-75.717173,35.693650999999996],[-75.77968299999999,35.684964],[-75.734762,35.625675],[-75.797249,35.574276],[-75.89068,35.602101],[-75.880935,35.575235],[-75.978383,35.512962],[-75.963054,35.493902999999996],[-76.021166,35.411328],[-76.058482,35.433602],[-76.070841,35.370638],[-76.157356,35.327019],[-76.249814,35.367731],[-76.27881099999999,35.342918],[-76.344886,35.392534999999995],[-76.34155799999999,35.342337],[-76.411911,35.346408],[-76.419992,35.374902],[-76.36152299999999,35.373739],[-76.395511,35.431664999999995],[-76.438294,35.388273],[-76.48083799999999,35.404548],[-76.472274,35.371375],[-76.53217699999999,35.401254],[-76.587081,35.508899],[-76.485354,35.506578],[-76.465389,35.558414],[-76.637945,35.512962],[-76.597382,35.481932],[-76.577559,35.387575999999996],[-76.906047,35.459354],[-77.05317099999999,35.535208],[-76.96618,35.433989],[-76.925023,35.448802],[-76.658861,35.341561],[-76.484166,35.313638],[-76.49815699999999,35.279554],[-76.46973299999999,35.280885999999995],[-76.49605,35.216995],[-76.565452,35.229227],[-76.52671099999999,35.184754999999996],[-76.586368,35.202042],[-76.634142,35.174264],[-76.53954499999999,35.15464],[-76.569493,35.098459999999996],[-76.803607,34.963781],[-76.987572,35.065588999999996],[-77.059589,35.146865999999996],[-76.935757,34.97313],[-76.760825,34.915850999999996],[-76.657434,34.982478],[-76.484166,34.988125],[-76.463469,35.076411],[-76.422607,35.026672],[-76.422845,34.95073],[-76.38148799999999,34.979168],[-76.319454,34.965924],[-76.364138,35.036597],[-76.246962,34.987347],[-76.305668,34.991436],[-76.279524,34.941378],[-76.340845,34.933389999999996],[-76.314087,34.906321999999996],[-76.382201,34.856971],[-76.40240399999999,34.886610999999995],[-76.412149,34.832198],[-76.51411399999999,34.754318999999995],[-76.512687,34.720333],[-76.575673,34.721700999999996],[-76.604432,34.789851999999996],[-76.619365,34.704193],[-76.84192999999999,34.729352],[-77.12586399999999,34.685241999999995],[-77.308967,34.54329],[-77.582324,34.400506],[-77.82921,34.162618],[-77.962794,33.842316],[-78.071508,33.90163],[-78.239522,33.915766999999995],[-78.54203,33.851924],[-79.675299,34.804744],[-80.79754299999999,34.819786],[-80.78204199999999,34.935781999999996],[-80.93495,35.107409],[-81.041489,35.044703],[-81.04362499999999,35.149877],[-82.27492,35.200071],[-82.371298,35.181449],[-82.39292999999999,35.215402],[-82.439595,35.165863],[-82.681443,35.127918],[-82.75770399999999,35.068019],[-82.78786699999999,35.085024],[-83.108606,35.000659],[-84.32186899999999,34.988408],[-84.3174907933753,35.0218441647982]]]]}},{"type":"Feature","properties":{"district":"North Dakota","constituency_code":"US-GOVERNOR-STATE-ND","electorate_type":"United States"},"geometry":{"type":"Polygon","coordinates":[[[-104.04867839774401,48.8637810991792],[-104.048736,48.999877],[-97.22872199999999,49.000561999999995],[-97.234054,48.947610999999995],[-97.17779,48.875312],[-97.19031299999999,48.815714],[-97.15876,48.810931],[-97.18123,48.797889999999995],[-97.090328,48.684512],[-97.17532899999999,48.562461],[-97.126864,48.519757999999996],[-97.162668,48.477782999999995],[-97.128115,48.473596],[-97.150542,48.441202999999994],[-97.122453,48.418276],[-97.16328999999999,48.391987],[-97.133377,48.382025999999996],[-97.15627599999999,48.366198],[-97.112231,48.296471999999994],[-97.145112,48.267742999999996],[-97.12074899999999,48.225826],[-97.137191,48.226951],[-97.15174599999999,48.218931999999995],[-97.13505599999999,48.220648],[-97.11783799999999,48.209764],[-97.138953,48.217075],[-97.14633099999999,48.168583],[-97.12102,48.159085999999995],[-97.146667,48.143203],[-97.072257,48.048068],[-97.023156,47.873978],[-96.974184,47.822978],[-96.991007,47.807672],[-96.93517399999999,47.767466],[-96.851051,47.59794],[-96.871663,47.419391999999995],[-96.83744399999999,47.389274],[-96.858211,47.367602],[-96.8288,47.328137999999996],[-96.84471099999999,47.192902],[-96.82155499999999,47.184314],[-96.841101,47.151401],[-96.812726,47.038270999999995],[-96.839548,47.006727999999995],[-96.791758,46.928464999999996],[-96.75325699999999,46.924563],[-96.802544,46.811521],[-96.775686,46.766042999999996],[-96.797941,46.629113],[-96.74188699999999,46.564229999999995],[-96.721897,46.440076999999995],[-96.599761,46.330386],[-96.592682,46.175211],[-96.554507,46.083977999999995],[-96.57794,46.026874],[-96.562525,45.937087],[-104.045443,45.94531],[-104.04867839774401,48.8637810991792]]]}},{"type":"Feature","properties":{"district":"New Hampshire","constituency_code":"US-GOVERNOR-STATE-NH","electorate_type":"United States"},"geometry":{"type":"MultiPolygon","coordinates":[[[[-70.617025,42.977182],[-70.614566,42.978598999999996],[-70.610621,42.976406999999995],[-70.613986,42.973349],[-70.617025,42.977182]]],[[[-70.62678199999999,42.969493],[-70.62248,42.968207],[-70.62245899999999,42.967479],[-70.626131,42.967704],[-70.62678199999999,42.969493]]],[[[-70.62787,42.976293999999996],[-70.626852,42.978155],[-70.624278,42.976661],[-70.627759,42.975383],[-70.62787,42.976293999999996]]],[[[-72.55724699999999,42.853018999999996],[-72.532186,42.954944999999995],[-72.44376199999999,43.006245],[-72.46736299999999,43.052648],[-72.43297199999999,43.119654999999995],[-72.45714,43.148492999999995],[-72.395462,43.312993999999996],[-72.415978,43.376531],[-72.37944,43.574069],[-72.328514,43.600805],[-72.29971499999999,43.706558],[-72.20476,43.771263],[-72.184788,43.863392999999995],[-72.090357,43.965409],[-72.116985,43.994479999999996],[-72.030182,44.079682999999996],[-72.065434,44.277235],[-71.98111999999999,44.3375],[-71.814351,44.354541],[-71.79392399999999,44.399271],[-71.699434,44.416069],[-71.577643,44.502691999999996],[-71.596137,44.560897999999995],[-71.534543,44.588243999999996],[-71.631883,44.752463],[-71.49490999999999,44.904298999999995],[-71.54112099999999,44.984894],[-71.46455499999999,45.013636999999996],[-71.501088,45.013349],[-71.505091,45.051465],[-71.428828,45.123881],[-71.39780999999999,45.203553],[-71.443365,45.237724],[-71.384917,45.233351],[-71.284396,45.302434],[-71.231122,45.249711999999995],[-71.14790599999999,45.23928],[-71.083924,45.305451],[-70.97271599999999,43.570254999999996],[-70.95083799999999,43.551026],[-70.98764899999999,43.389520999999995],[-70.967229,43.343776999999996],[-70.817865,43.237911],[-70.8281,43.129086],[-70.706503,43.075328999999996],[-70.712085,43.043724999999995],[-70.817296,42.87229],[-70.91489899999999,42.886589],[-71.031201,42.859089],[-71.064201,42.806289],[-71.16560299999999,42.808689],[-71.181803,42.73759],[-71.245504,42.742588999999995],[-71.29420499999999,42.69699],[-72.458519,42.726853],[-72.516082,42.765949],[-72.55724699999999,42.853018999999996]]]]}},{"type":"Feature","properties":{"district":"Oregon","constituency_code":"US-GOVERNOR-STATE-OR","electorate_type":"United States"},"geometry":{"type":"MultiPolygon","coordinates":[[[[-124.564595,42.840876],[-124.446875,43.031808],[-124.38246,43.270167],[-124.402814,43.305872],[-124.315012,43.388389],[-124.232025,43.562393],[-124.150267,43.910849999999996],[-124.058281,44.658865999999996],[-124.074066,44.798106999999995],[-123.962887,45.280218],[-123.972899,45.33689],[-124.007756,45.336813],[-123.965728,45.386241999999996],[-123.97865,45.486854],[-123.93965299999999,45.688975],[-123.982578,45.761815],[-123.962736,45.869974],[-123.993703,45.946431],[-123.937471,45.977306],[-123.92933,46.041978],[-124.01263399999999,46.23685],[-123.854801,46.157342],[-123.864209,46.189527],[-123.757589,46.213001],[-123.69343,46.189811999999996],[-123.501245,46.271004],[-123.447592,46.249832],[-123.430987,46.181571],[-123.371433,46.146372],[-123.115904,46.185268],[-122.904119,46.083734],[-122.813998,45.960983999999996],[-122.76381,45.657137999999996],[-122.294901,45.543541],[-121.983038,45.622811999999996],[-121.811304,45.706761],[-121.533106,45.726541],[-121.423592,45.69399],[-121.33777,45.704949],[-121.215779,45.671237999999995],[-121.167852,45.606097999999996],[-121.06437,45.652549],[-120.895575,45.642945],[-120.634968,45.745847],[-120.482362,45.694449],[-120.40396,45.699248999999995],[-120.210754,45.725950999999995],[-119.965744,45.824365],[-119.669877,45.856867],[-119.600549,45.919581],[-119.12612,45.932859],[-118.941242,46.000574],[-116.915989,45.995413],[-116.782676,45.825376],[-116.711822,45.826267],[-116.665344,45.781997999999994],[-116.546643,45.750972],[-116.53539599999999,45.691734],[-116.463504,45.615784999999995],[-116.673793,45.321511],[-116.729607,45.142091],[-116.847944,45.022602],[-116.856964,44.975173],[-116.82627099999999,44.982493],[-116.852427,44.887577],[-116.9347,44.783881],[-117.062273,44.727143],[-117.149242,44.536151],[-117.225076,44.482346],[-117.21507199999999,44.427161999999996],[-117.24267499999999,44.396547999999996],[-117.189769,44.336585],[-117.222647,44.297578],[-117.198147,44.273827999999995],[-117.104208,44.279939999999996],[-117.05303,44.229076],[-116.975905,44.242844],[-116.971675,44.197255999999996],[-116.894083,44.160191],[-116.977351,44.085364],[-116.935584,43.986874],[-116.97618,43.974719],[-116.958752,43.923246],[-117.032881,43.830025],[-117.026197,41.99989],[-124.21160499999999,41.99846],[-124.354027,42.103539],[-124.433063,42.323975999999995],[-124.401177,42.627192],[-124.47386399999999,42.732670999999996],[-124.513663,42.732949],[-124.564595,42.840876]]],[[[-123.598916,46.251453999999995],[-123.591393,46.25235],[-123.572962,46.249807],[-123.583745,46.248998],[-123.598916,46.251453999999995]]],[[[-123.66614,46.245011999999996],[-123.644819,46.249477],[-123.64134,46.247980999999996],[-123.652039,46.243866],[-123.66614,46.245011999999996]]],[[[-123.994583,46.263023999999994],[-123.96768399999999,46.265605],[-123.964669,46.263982999999996],[-123.97831,46.261204],[-123.994583,46.263023999999994]]],[[[-124.035223,46.285137],[-124.023815,46.292035],[-124.002899,46.265916],[-124.028331,46.273967],[-124.035223,46.285137]]],[[[-124.323889,42.066648],[-124.321769,42.067305],[-124.321095,42.065034],[-124.323287,42.064124],[-124.323889,42.066648]]],[[[-124.47709,42.66717],[-124.475545,42.668554],[-124.474793,42.666384],[-124.475862,42.665495],[-124.47709,42.66717]]]]}},{"type":"Feature","properties":{"district":"Utah","constituency_code":"US-GOVERNOR-STATE-UT","electorate_type":"United States"},"geometry":{"type":"Polygon","coordinates":[[[-114.052962,37.592783],[-114.041477,41.993873],[-111.046714,42.001702],[-111.046723,40.997959],[-109.050076,41.000659],[-109.045223,36.999083999999996],[-114.0506,37.000395999999995],[-114.052962,37.592783]]]}},{"type":"Feature","properties":{"district":"Vermont","constituency_code":"US-GOVERNOR-STATE-VT","electorate_type":"United States"},"geometry":{"type":"Polygon","coordinates":[[[-73.43773999999999,44.045006],[-73.39058299999999,44.190886],[-73.31285199999999,44.265346],[-73.33493899999999,44.364441],[-73.293855,44.437556],[-73.390231,44.618353],[-73.333154,44.788759],[-73.381359,44.845020999999996],[-73.338979,44.917680999999995],[-73.343124,45.010839999999995],[-71.46455499999999,45.013636999999996],[-71.536298,44.994158999999996],[-71.49490999999999,44.904298999999995],[-71.631883,44.752463],[-71.534543,44.588243999999996],[-71.596137,44.560897999999995],[-71.577643,44.502691999999996],[-71.699434,44.416069],[-71.79392399999999,44.399271],[-71.814351,44.354541],[-72.033136,44.320364999999995],[-72.067774,44.270976],[-72.030182,44.079682999999996],[-72.116985,43.994479999999996],[-72.090357,43.965409],[-72.184788,43.863392999999995],[-72.20476,43.771263],[-72.29971499999999,43.706558],[-72.328514,43.600805],[-72.37944,43.574069],[-72.415978,43.376531],[-72.395462,43.312993999999996],[-72.45714,43.148492999999995],[-72.43297199999999,43.119654999999995],[-72.46736299999999,43.052648],[-72.44376199999999,43.006245],[-72.532186,42.954944999999995],[-72.556214,42.866949999999996],[-72.516082,42.765949],[-72.458519,42.726853],[-73.276421,42.746019],[-73.24158899999999,43.534973],[-73.306234,43.628018],[-73.371889,43.624489],[-73.39576699999999,43.568087],[-73.430947,43.587036],[-73.350593,43.771938999999996],[-73.39249199999999,43.820778999999995],[-73.374051,43.875563],[-73.43773999999999,44.045006]]]}},{"type":"Feature","properties":{"district":"Washington","constituency_code":"US-GOVERNOR-STATE-WA","electorate_type":"United States"},"geometry":{"type":"MultiPolygon","coordinates":[[[[-122.33164,48.020556],[-122.322362,48.021037],[-122.303455,48.005603],[-122.326115,48.010295],[-122.33164,48.020556]]],[[[-122.50492299999999,47.546530999999995],[-122.49142499999999,47.545432999999996],[-122.479523,47.541861999999995],[-122.489149,47.529477],[-122.50492299999999,47.546530999999995]]],[[[-122.526031,47.358906],[-122.508963,47.461112],[-122.457246,47.505848],[-122.437653,47.407424999999996],[-122.373778433417,47.388792638727],[-122.457497,47.342566999999995],[-122.4745,47.359134],[-122.433143,47.388107],[-122.460001,47.401621999999996],[-122.493126,47.330254],[-122.526031,47.358906]]],[[[-122.53767657649401,48.3636589721963],[-122.532082,48.365297999999996],[-122.524,48.362455999999995],[-122.52788799999999,48.359731],[-122.53767657649401,48.3636589721963]]],[[[-122.552094,48.526866],[-122.545104,48.526182],[-122.544203,48.520601],[-122.551136,48.521847],[-122.552094,48.526866]]],[[[-122.559415,48.535869999999996],[-122.554622,48.537071],[-122.552584,48.53407],[-122.558442,48.534489],[-122.559415,48.535869999999996]]],[[[-122.570392,48.537853],[-122.568628,48.537963999999995],[-122.56654499999999,48.535083],[-122.570348,48.535869999999996],[-122.570392,48.537853]]],[[[-122.57890499999999,48.395765],[-122.575339,48.400973],[-122.56012799999999,48.402708999999994],[-122.56228999999999,48.397925],[-122.57890499999999,48.395765]]],[[[-122.593346,48.651424],[-122.58382399999999,48.659988],[-122.577637,48.647617],[-122.58382399999999,48.645236999999995],[-122.593346,48.651424]]],[[[-122.614477,48.613147],[-122.601722,48.614027],[-122.59848,48.607673999999996],[-122.606115,48.605885],[-122.614477,48.613147]]],[[[-122.615186,48.580182],[-122.612893,48.582747],[-122.609328,48.58086],[-122.613368,48.57913],[-122.615186,48.580182]]],[[[-122.640638,47.149412999999996],[-122.635884,47.163959],[-122.63113,47.167674999999996],[-122.630388,47.153543],[-122.640638,47.149412999999996]]],[[[-122.650446,48.712298999999994],[-122.614125,48.715105],[-122.605906,48.699732],[-122.6224,48.693946],[-122.650446,48.712298999999994]]],[[[-122.653612,48.548975],[-122.642597,48.588339],[-122.572967,48.529028],[-122.64041399999999,48.525859999999994],[-122.653612,48.548975]]],[[[-122.670048559281,47.274790181497494],[-122.62812,47.267475],[-122.590487,47.227751999999995],[-122.614236,47.220872],[-122.670048559281,47.274790181497494]]],[[[-122.699266,48.621114999999996],[-122.674173,48.629943999999995],[-122.657016,48.609891],[-122.676796,48.610054999999996],[-122.699266,48.621114999999996]]],[[[-122.712805,48.467295],[-122.699646,48.469727],[-122.694874,48.462436],[-122.70569,48.459176],[-122.712805,48.467295]]],[[[-122.713743,48.478367999999996],[-122.709153,48.484065],[-122.686098,48.486900999999996],[-122.690941,48.472775999999996],[-122.713743,48.478367999999996]]],[[[-122.722262,48.731624],[-122.687524,48.734721],[-122.608572,48.640448],[-122.718833,48.716817999999996],[-122.722262,48.731624]]],[[[-122.726868,47.207394],[-122.685226,47.232375999999995],[-122.6418,47.205013],[-122.677716,47.1911],[-122.726868,47.207394]]],[[[-122.740482,48.584986],[-122.711054,48.609313],[-122.668272,48.56592],[-122.722407,48.540606],[-122.740482,48.584986]]],[[[-122.741737,47.155045],[-122.70671300000001,47.187385],[-122.67392699999999,47.174675],[-122.694748,47.125896],[-122.741737,47.155045]]],[[[-122.766567,48.707800999999996],[-122.757751,48.695206],[-122.75934699999999,48.692769999999996],[-122.764286,48.696095],[-122.766567,48.707800999999996]]],[[[-122.769939,48.227548],[-122.664659,48.401508],[-122.596732,48.405626],[-122.59711899999999,48.355661],[-122.505828,48.297677],[-122.558436,48.272166],[-122.618466,48.294159],[-122.631107,48.267137999999996],[-122.642991,48.288809],[-122.658678,48.244509],[-122.732358,48.226144],[-122.60640599999999,48.208262],[-122.54152500000001,48.017745],[-122.509652,48.039756],[-122.52542199999999,48.096537],[-122.376259,48.034456999999996],[-122.349597,47.958796],[-122.3773,47.905941],[-122.431035,47.914732],[-122.47265999999999,47.988448999999996],[-122.546824,47.967214999999996],[-122.542924,47.996404],[-122.607342,48.030992],[-122.612713,48.155902999999995],[-122.67955599999999,48.155113],[-122.769939,48.227548]]],[[[-122.77707,48.698808],[-122.775111,48.704128],[-122.773664,48.698169],[-122.77707,48.698808]]],[[[-122.821754,48.590908],[-122.814537,48.601219],[-122.803886,48.596405],[-122.812544,48.590450999999995],[-122.821754,48.590908]]],[[[-122.831083,48.572525999999996],[-122.81088,48.588879],[-122.76902,48.55928],[-122.807686,48.531321999999996],[-122.831083,48.572525999999996]]],[[[-122.841641667088,47.258030344296195],[-122.840051,47.268088],[-122.825315,47.270506999999995],[-122.834109,47.256797],[-122.841641667088,47.258030344296195]]],[[[-122.845685,48.31736],[-122.842799,48.321455],[-122.837588,48.319671],[-122.84236899999999,48.316815999999996],[-122.845685,48.31736]]],[[[-122.847305,48.747723],[-122.841184,48.750159],[-122.81843599999999,48.744628999999996],[-122.837685,48.743784],[-122.847305,48.747723]]],[[[-122.92498,48.75597],[-122.912605,48.770405],[-122.87541,48.763635],[-122.90868499999999,48.767081],[-122.883392,48.748065999999994],[-122.92498,48.75597]]],[[[-122.945733,48.477767],[-122.884679,48.573155],[-122.841774,48.539955],[-122.873271,48.505959],[-122.849265,48.447187],[-122.837013,48.516757999999996],[-122.769405,48.512100000000004],[-122.816197,48.487784999999995],[-122.812622,48.420981999999995],[-122.895309,48.420981999999995],[-122.86210000000001,48.439619],[-122.926247,48.437045999999995],[-122.945733,48.477767]]],[[[-122.94346999999999,48.122910999999995],[-122.92948799999999,48.133407999999996],[-122.908638,48.125595],[-122.948552,48.117573],[-122.94346999999999,48.122910999999995]]],[[[-122.97129433001201,48.789198223997396],[-122.94377399999999,48.788205999999995],[-122.94015,48.78498],[-122.95415,48.781535],[-122.97129433001201,48.789198223997396]]],[[[-123.017432,48.590140999999996],[-122.966576,48.594673],[-122.902802,48.578502],[-122.94825900000001,48.546884999999996],[-123.017432,48.590140999999996]]],[[[-123.017369,48.603927],[-123.01718199999999,48.606286999999995],[-123.015053,48.606825],[-123.015554,48.602809],[-123.017369,48.603927]]],[[[-123.026196,48.599663],[-123.019185,48.597428],[-123.018371,48.59482],[-123.02500599999999,48.594074],[-123.026196,48.599663]]],[[[-123.03034199999999,48.629889999999996],[-122.95182,48.712219],[-122.741478,48.660346999999994],[-122.827141,48.599911],[-122.885036,48.690024],[-122.91807299999999,48.689553],[-122.86187699999999,48.612282],[-122.88415499999999,48.588721],[-122.947546,48.59721],[-122.983911,48.642146999999994],[-122.971228,48.603815999999995],[-123.00387599999999,48.592966],[-123.03034199999999,48.629889999999996]]],[[[-123.033645,48.592501],[-123.03214299999999,48.593163999999994],[-123.028637,48.592956],[-123.033332,48.590803],[-123.033645,48.592501]]],[[[-123.039976,48.732575999999995],[-123.032104,48.733098],[-123.031804,48.732124],[-123.038416,48.731573999999995],[-123.039976,48.732575999999995]]],[[[-123.05416,48.618531],[-123.042471,48.618693],[-123.038623,48.610489],[-123.050439,48.611926999999994],[-123.05416,48.618531]]],[[[-123.067931,48.700300000000006],[-123.009787,48.722291],[-123.004708,48.69779],[-123.042337,48.675663],[-123.067931,48.700300000000006]]],[[[-123.085125,48.648073],[-123.078388,48.649606],[-123.076962,48.647721999999995],[-123.086878,48.645236999999995],[-123.085125,48.648073]]],[[[-123.090546,49.001976],[-123.035393,49.002154],[-123.021459,48.977298999999995],[-123.084006,48.971455],[-123.090546,49.001976]]],[[[-123.138284,48.651804],[-123.12804299999999,48.650745],[-123.123548,48.647721999999995],[-123.13139100000001,48.648506999999995],[-123.138284,48.651804]]],[[[-123.151831,48.641126],[-123.14993,48.641439999999996],[-123.147316,48.638456],[-123.151831,48.63877],[-123.151831,48.641126]]],[[[-123.16358199999999,48.649189],[-123.127831,48.643688],[-123.105148,48.633376999999996],[-123.138145,48.638535],[-123.16358199999999,48.649189]]],[[[-123.20330899999999,48.595549],[-123.105301,48.622643],[-122.969769,48.536106],[-123.020632,48.500997999999996],[-122.96097499999999,48.451207],[-123.13298,48.498309],[-123.20330899999999,48.595549]]],[[[-123.236061,48.684988],[-123.183205,48.684297],[-123.127487,48.656749999999995],[-123.182823,48.657436],[-123.236061,48.684988]]],[[[-123.884535,46.965793],[-123.864807,46.965143999999995],[-123.853398,46.958656],[-123.860529,46.95606],[-123.884535,46.965793]]],[[[-124.491153,47.674079],[-124.485092,47.67752],[-124.480653,47.679801999999995],[-124.483785,47.672079],[-124.491153,47.674079]]],[[[-124.509303,47.798849999999995],[-124.507153,47.799172999999996],[-124.504365,47.796941],[-124.508051,47.797461],[-124.509303,47.798849999999995]]],[[[-124.60220799999999,48.38693],[-124.599356,48.38551],[-124.592939,48.377933],[-124.599356,48.376827],[-124.60220799999999,48.38693]]],[[[-124.652237,47.910033],[-124.645704,47.907374999999995],[-124.64594199999999,47.904188999999995],[-124.65164,47.905282],[-124.652237,47.910033]]],[[[-124.732755385025,48.165328947686795],[-124.65894,48.331057],[-124.73182800000001,48.381156999999995],[-124.676262,48.391371],[-123.981032,48.164761],[-123.709459,48.167581],[-123.33269899999999,48.11297],[-123.23912899999999,48.118217],[-123.144783,48.175943],[-123.10189199999999,48.184951999999996],[-123.142142,48.157067999999995],[-123.038727,48.081137999999996],[-122.91408799999999,48.094401],[-122.926851,48.064592999999995],[-122.856332,48.017033],[-122.871992,47.993493],[-122.827482,48.046768],[-122.89031299999999,48.076865999999995],[-122.884854,48.106941],[-122.75413,48.1447],[-122.74891099999999,48.117025999999996],[-122.801399,48.087561],[-122.739869,48.031181],[-122.748345,48.072097],[-122.68724,48.101662],[-122.669868,48.017216999999995],[-122.729112,48.019740999999996],[-122.67880000000001,47.967929999999996],[-122.69922,47.918703],[-122.657722,47.931155999999994],[-122.610341,47.887343],[-122.69376,47.868002],[-122.687342,47.831002999999995],[-122.745811,47.80435],[-122.784553,47.686561],[-122.833277,47.692481],[-122.797625,47.825897],[-122.82068,47.838023],[-122.841808,47.779035],[-122.864651,47.804669],[-122.851137,47.738544999999995],[-122.88271399999999,47.731182999999994],[-122.904106,47.645584],[-122.981589,47.613068],[-123.157948,47.356235999999996],[-123.030266,47.350949],[-122.874586,47.413874],[-123.02955299999999,47.358838999999996],[-123.119681,47.385532],[-122.965118,47.585245],[-122.75144399999999,47.670302],[-122.714801,47.768176],[-122.573672,47.857582],[-122.61702199999999,47.938987],[-122.525329,47.912335999999996],[-122.470333,47.757109],[-122.55445399999999,47.745703999999996],[-122.504604,47.699135999999996],[-122.506396,47.594542],[-122.479089,47.583653999999996],[-122.54311799999999,47.556326],[-122.542286,47.524612],[-122.494882,47.510265],[-122.575985,47.32642],[-122.547521,47.285343999999995],[-122.585826,47.253851999999995],[-122.59243599999999,47.272023],[-122.695827,47.281375999999995],[-122.626187,47.375617999999996],[-122.683943,47.365154999999994],[-122.757386,47.276700000000005],[-122.71888200000001,47.226524999999995],[-122.771619,47.167108999999996],[-122.832799,47.243412],[-122.78620699999999,47.357966999999995],[-122.82666,47.405806999999996],[-122.818707,47.327470999999996],[-122.871472,47.276861],[-122.836771,47.11908],[-122.815187,47.179102],[-122.786383,47.126681],[-122.701776,47.098734],[-122.590829,47.178107],[-122.52968899999999,47.283311],[-122.54740799999999,47.317733999999994],[-122.436756,47.261862],[-122.409199,47.288556],[-122.444635,47.300421],[-122.42997199999999,47.319658],[-122.324833,47.348521],[-122.421139,47.57602],[-122.339513,47.599112999999996],[-122.43694099999999,47.661719],[-122.37644,47.716519],[-122.395637,47.806808],[-122.33595,47.852306],[-122.307048,47.949117],[-122.230046,47.970917],[-122.218982,48.020275999999996],[-122.361649,48.120176],[-122.383911,48.227486],[-122.44960499999999,48.232597999999996],[-122.479008,48.175703],[-122.358963,48.054851],[-122.510562,48.132207],[-122.530996,48.249821],[-122.397028,48.253178],[-122.388048,48.30083],[-122.53493399999999,48.375087],[-122.557119,48.419878999999995],[-122.580331,48.410913],[-122.550383,48.448448],[-122.618597,48.412648999999995],[-122.674158,48.424726],[-122.654444,48.457558],[-122.668272,48.486270999999995],[-122.702919,48.492011],[-122.684521,48.509122999999995],[-122.599951,48.520945999999995],[-122.580568,48.463738],[-122.56743,48.499269999999996],[-122.53735499999999,48.466749],[-122.469634,48.472187],[-122.50442799999999,48.564775],[-122.560841,48.581646],[-122.468859,48.557269],[-122.425271,48.599522],[-122.509935,48.664369],[-122.491201,48.683591],[-122.51924700000001,48.71716],[-122.49040099999999,48.751127999999994],[-122.535803,48.776128],[-122.608139,48.762772999999996],[-122.651872,48.715906],[-122.673472,48.733081999999996],[-122.646777,48.785011],[-122.710273,48.787017999999996],[-122.717073,48.84719],[-122.79317499999999,48.892927],[-122.749202,48.934818],[-122.821631,48.941368999999995],[-122.75802,49.002356999999996],[-117.032351,48.999188],[-117.034696,46.418318],[-117.062748,46.353623999999996],[-116.986688,46.296662],[-116.965841,46.203416999999995],[-116.92187,46.167808],[-116.982479,46.089389],[-116.915989,45.995413],[-118.987129,45.999855],[-119.12612,45.932859],[-119.600549,45.919581],[-119.669877,45.856867],[-119.965744,45.824365],[-120.210754,45.725950999999995],[-120.482362,45.694449],[-120.634968,45.745847],[-120.895575,45.642945],[-121.06437,45.652549],[-121.145534,45.607886],[-121.196556,45.616689],[-121.215779,45.671237999999995],[-121.533106,45.726541],[-121.867167,45.693276999999995],[-121.983038,45.622811999999996],[-122.266701,45.543841],[-122.67500799999999,45.618038999999996],[-122.774511,45.680437],[-122.761451,45.759163],[-122.795605,45.81],[-122.813998,45.960983999999996],[-122.904119,46.083734],[-123.004233,46.133823],[-123.166414,46.188973],[-123.280166,46.144842999999995],[-123.371433,46.146372],[-123.430987,46.181571],[-123.427629,46.229347999999995],[-123.47484399999999,46.267831],[-123.669501,46.266832],[-123.700729,46.304603],[-123.875525,46.239787],[-124.00126399999999,46.31326],[-124.07776799999999,46.272324],[-124.06905,46.647258],[-124.023566,46.582558999999996],[-124.015258,46.378681],[-123.953699,46.378845],[-123.99268000000001,46.488617],[-123.942528,46.46519],[-123.893292,46.539609999999996],[-123.960642,46.636364],[-123.936111,46.627024999999996],[-123.923269,46.672708],[-123.829356,46.713356],[-123.88875999999999,46.750383],[-123.974994,46.733391],[-123.973663,46.703353],[-124.092176,46.741623999999995],[-124.138225,46.905533999999996],[-124.092961,46.901655],[-124.073113,46.861492999999996],[-123.985082,46.921915999999996],[-123.83890000000001,46.953950999999996],[-123.859103,46.967577],[-124.01221799999999,46.985175999999996],[-124.02634499999999,47.030187],[-124.122057,47.04165],[-124.151288,47.021111999999995],[-124.10510099999999,46.932856],[-124.173877,46.927234999999996],[-124.209017,47.218151],[-124.236349,47.287287],[-124.319379,47.355559],[-124.425195,47.738434],[-124.480041,47.7673],[-124.48973699999999,47.816987999999995],[-124.641426,47.907852999999996],[-124.676178,47.967031999999996],[-124.687101,48.098656999999996],[-124.732755385025,48.165328947686795]]],[[[-124.744816,48.393243999999996],[-124.737211,48.395610999999995],[-124.732219,48.390876],[-124.74647999999999,48.391349999999996],[-124.744816,48.393243999999996]]],[[[-124.754801,48.158851],[-124.751412,48.160562999999996],[-124.745468,48.155539],[-124.748621,48.154882],[-124.754801,48.158851]]],[[[-124.762658,48.177242],[-124.755674,48.175563999999994],[-124.755212,48.174194],[-124.76235,48.175598],[-124.762658,48.177242]]]]}},{"type":"Feature","properties":{"district":"West Virginia","constituency_code":"US-GOVERNOR-STATE-WV","electorate_type":"United States"},"geometry":{"type":"Polygon","coordinates":[[[-82.6431981036679,38.1690897960737],[-82.61134299999999,38.171548],[-82.61225999999999,38.236087],[-82.57465599999999,38.263873],[-82.597979,38.344909],[-82.59348,38.421821],[-82.540199,38.403666],[-82.33033499999999,38.444500000000005],[-82.291271,38.578983],[-82.177267,38.603784],[-82.221566,38.787186999999996],[-82.14486699999999,38.84048],[-82.14316699999999,38.898078999999996],[-82.035963,39.025478],[-81.93318599999999,38.987659],[-81.89847,38.929603],[-81.928,38.893491999999995],[-81.898541,38.874582],[-81.827354,38.945898],[-81.762659,38.924121],[-81.764253,39.015279],[-81.81385499999999,39.079277999999995],[-81.747253,39.095378],[-81.755754,39.180976],[-81.69239499999999,39.226442999999996],[-81.683627,39.270939],[-81.570247,39.267675],[-81.557547,39.338774],[-81.456143,39.409273999999996],[-81.37596099999999,39.341696999999996],[-81.217315,39.387589999999996],[-80.97043599999999,39.590126999999995],[-80.88036,39.620706],[-80.829764,39.711839],[-80.869092,39.766363999999996],[-80.790761,39.86728],[-80.806018,39.91713],[-80.75643199999999,39.91393],[-80.738604,40.075672],[-80.59989499999999,40.317668999999995],[-80.633596,40.390467],[-80.595494,40.475266],[-80.66778099999999,40.578095999999995],[-80.62717099999999,40.619935999999996],[-80.518991,40.638801],[-80.519342,39.721402999999995],[-79.47666199999999,39.721078],[-79.486873,39.205960999999995],[-79.162052,39.388321],[-79.10319,39.476003999999996],[-79.04705,39.483351],[-78.956751,39.440264],[-78.893317,39.523756],[-78.81676399999999,39.561690999999996],[-78.826009,39.588829],[-78.76584,39.648486999999996],[-78.778477,39.62265],[-78.73375899999999,39.613931],[-78.77814099999999,39.601364],[-78.689455,39.54577],[-78.471166,39.516103],[-78.460224,39.551184],[-78.417586,39.547155],[-78.45718699999999,39.587379],[-78.39531699999999,39.584215],[-78.43025,39.62329],[-78.26683299999999,39.618818],[-78.18275899999999,39.69511],[-78.107834,39.682137],[-78.006734,39.601337],[-77.833568,39.602936],[-77.83632999999999,39.56637],[-77.88894499999999,39.555949999999996],[-77.86368,39.515032],[-77.825357,39.529177],[-77.845666,39.498628],[-77.765993,39.495723999999996],[-77.803249,39.437135999999995],[-77.736409,39.392683999999996],[-77.76111499999999,39.339757],[-77.719946,39.319693],[-77.82815699999999,39.132329],[-78.347087,39.466012],[-78.366867,39.35929],[-78.33928399999999,39.348605],[-78.438651,39.198049],[-78.403697,39.167451],[-78.571901,39.031994999999995],[-78.550467,39.018065],[-78.601655,38.964603],[-78.625672,38.982575],[-78.68045599999999,38.925312999999996],[-78.71864699999999,38.904561],[-78.71707599999999,38.936028],[-78.786025,38.887187],[-78.869276,38.762991],[-78.998171,38.847353],[-79.054954,38.785713],[-79.092955,38.659517],[-79.129757,38.655017],[-79.210591,38.492913],[-79.282971,38.418095],[-79.476638,38.457228],[-79.53687,38.550917],[-79.649075,38.591515],[-79.725597,38.363828],[-79.810154,38.306706999999996],[-79.788945,38.268702999999995],[-79.916344,38.186278],[-79.94484299999999,38.131585],[-79.92633,38.107151],[-79.99938399999999,37.995841999999996],[-80.162202,37.875122],[-80.296138,37.691783],[-80.220984,37.627767],[-80.328504,37.564315],[-80.330306,37.536243999999996],[-80.28238499999999,37.533516999999996],[-80.29978899999999,37.508271],[-80.475601,37.422948999999996],[-80.511391,37.481671999999996],[-80.552036,37.473563],[-80.770082,37.372363],[-80.859556,37.429567999999996],[-80.883248,37.383933],[-80.849451,37.346909],[-80.947896,37.295871999999996],[-81.225104,37.234874],[-81.362156,37.337686999999995],[-81.416663,37.273213999999996],[-81.498874,37.258024999999996],[-81.5536,37.208442999999995],[-81.67820999999999,37.201482999999996],[-81.75763099999999,37.274003],[-81.849949,37.285227],[-81.933382,37.369341],[-81.935621,37.438396999999995],[-81.995649,37.469833],[-81.927194,37.515332],[-81.970147,37.546504],[-82.04665299999999,37.528193],[-82.133247,37.552831999999995],[-82.175264,37.647971],[-82.213443,37.62522],[-82.30395299999999,37.67576],[-82.334035,37.743227],[-82.310777,37.762692],[-82.401652,37.810091],[-82.419929,37.88487],[-82.50219799999999,37.933051999999996],[-82.46425699999999,37.983412],[-82.519193,38.001131],[-82.6431981036679,38.1690897960737]]]}}]}
